{"type":"FeatureCollection","features":[{"type":"Feature","properties":{"id":"2024-10-05_cycling_12","type":"cycling","date":"2024-10-05"},"geometry":{"type":"LineString","coordinates":[[109.054136,32.705062],[109.054136,32.705162],[109.054124,32.705231],[109.05409,32.705241],[109.054027,32.705207],[109.053949,32.705179],[109.053869,32.705196],[109.053786,32.705211],[109.053694,32.705218],[109.053592,32.705222],[109.05348,32.705235],[109.053358,32.705255],[109.053232,32.70528],[109.053107,32.705308],[109.052985,32.705341],[109.05286,32.705377],[109.052703,32.705428],[109.052545,32.705489],[109.052385,32.70556],[109.052247,32.705625],[109.052102,32.705686],[109.051952,32.705742],[109.051808,32.705804],[109.051661,32.705866],[109.0515,32.705916],[109.051319,32.705947],[109.051122,32.705966],[109.050922,32.70597],[109.050726,32.70596],[109.050536,32.70593],[109.050359,32.705893],[109.050189,32.705851],[109.05003,32.705809],[109.049871,32.70577],[109.049713,32.705737],[109.049553,32.705719],[109.049401,32.705717],[109.049266,32.705729],[109.04915,32.705748],[109.049023,32.705783],[109.048898,32.705834],[109.048768,32.705893],[109.048632,32.705943],[109.048488,32.705973],[109.048345,32.705995],[109.048228,32.706016],[109.048112,32.706041],[109.047961,32.706053],[109.047796,32.706049],[109.047623,32.706033],[109.047455,32.70602],[109.047292,32.70601],[109.047129,32.706005],[109.04699,32.706001],[109.046856,32.706],[109.046728,32.706005],[109.046605,32.706015],[109.046477,32.706027],[109.046348,32.706041],[109.04622,32.706056],[109.046099,32.706073],[109.045983,32.706095],[109.045868,32.706122],[109.045747,32.706146],[109.045618,32.706164],[109.045484,32.706175],[109.045351,32.706183],[109.045218,32.706191],[109.045082,32.706199],[109.044948,32.706204],[109.044813,32.706213],[109.044681,32.706224],[109.044542,32.706234],[109.0444,32.706244],[109.044257,32.706256],[109.04412,32.706276],[109.043985,32.706295],[109.043847,32.706308],[109.043706,32.706323],[109.043568,32.706346],[109.043427,32.706369],[109.043276,32.706388],[109.043115,32.706397],[109.042949,32.706402],[109.042792,32.706405],[109.042645,32.706421],[109.042513,32.706447],[109.042388,32.706486],[109.042265,32.706524],[109.042145,32.706555],[109.042026,32.706573],[109.041908,32.706582],[109.041789,32.706577],[109.04167,32.706562],[109.041552,32.706534],[109.041436,32.706501],[109.041323,32.706463],[109.041214,32.706431],[109.041087,32.706406],[109.040964,32.706393],[109.040839,32.706388],[109.04073,32.706387],[109.04062,32.706386],[109.040495,32.706381],[109.04037,32.706376],[109.040242,32.706368],[109.040126,32.706361],[109.040012,32.706354],[109.039899,32.70635],[109.03979,32.706349],[109.039684,32.70635],[109.039576,32.70635],[109.039471,32.706352],[109.039366,32.706354],[109.039257,32.706353],[109.039143,32.706352],[109.039024,32.706349],[109.038903,32.706344],[109.038783,32.706338],[109.038657,32.706328],[109.038526,32.706317],[109.038388,32.706307],[109.038249,32.706306],[109.03811,32.70631],[109.03797,32.706309],[109.037828,32.706298],[109.037684,32.70628],[109.037537,32.706257],[109.037384,32.706237],[109.037233,32.706222],[109.037091,32.706206],[109.036965,32.706192],[109.036856,32.706185],[109.03676,32.70618],[109.036667,32.706179],[109.036563,32.706175],[109.036441,32.706168],[109.036304,32.706159],[109.036163,32.706147],[109.035999,32.706136],[109.035836,32.706119],[109.035671,32.706098],[109.035529,32.706078],[109.035382,32.706061],[109.035237,32.706045],[109.035093,32.70603],[109.03495,32.706014],[109.034778,32.706003],[109.034601,32.705986],[109.034425,32.705967],[109.03428,32.705945],[109.03415,32.705934],[109.034036,32.705942],[109.033934,32.705964],[109.033845,32.705997],[109.033756,32.706034],[109.033657,32.706071],[109.033545,32.706103],[109.033422,32.706126],[109.033301,32.706144],[109.033183,32.706151],[109.033064,32.706143],[109.032937,32.706131],[109.0328,32.706123],[109.032647,32.706115],[109.032484,32.706097],[109.032318,32.70607],[109.032163,32.70604],[109.032015,32.706013],[109.031877,32.705984],[109.031746,32.705945],[109.031622,32.705898],[109.0315,32.705849],[109.031377,32.705797],[109.031247,32.705736],[109.031116,32.70566],[109.030986,32.705575],[109.030862,32.705503],[109.030743,32.705462],[109.03064,32.705441],[109.03057,32.705427],[109.030512,32.705398],[109.030458,32.705372],[109.030393,32.705347],[109.030332,32.705334],[109.030265,32.705322],[109.030193,32.705316],[109.030098,32.7053],[109.029986,32.70529],[109.029878,32.705287],[109.029803,32.7053],[109.029751,32.705312],[109.029702,32.705321],[109.029642,32.70533],[109.029568,32.705347],[109.029475,32.705373],[109.029351,32.705398],[109.029203,32.705413],[109.02903,32.705414],[109.028854,32.705407],[109.028682,32.70539],[109.02852,32.705367],[109.028365,32.705334],[109.028207,32.7053],[109.028043,32.705268],[109.027874,32.705243],[109.027703,32.705217],[109.027546,32.705193],[109.027396,32.705171],[109.027261,32.705153],[109.027128,32.705137],[109.027005,32.705122],[109.026894,32.705103],[109.026792,32.705076],[109.026703,32.705049],[109.026623,32.705017],[109.02656,32.704994],[109.026491,32.704971],[109.026412,32.70495],[109.026321,32.704922],[109.026221,32.704894],[109.026109,32.704867],[109.025992,32.704837],[109.025874,32.704804],[109.025756,32.704767],[109.025633,32.704732],[109.025506,32.704693],[109.025376,32.704654],[109.025203,32.704605],[109.025027,32.704556],[109.024847,32.704511],[109.024702,32.704473],[109.024542,32.704429],[109.024372,32.704374],[109.024193,32.704314],[109.02401,32.704254],[109.023836,32.704193],[109.023678,32.704131],[109.023538,32.704063],[109.023406,32.70399],[109.023275,32.703908],[109.023139,32.703825],[109.022998,32.703739],[109.022854,32.703655],[109.022709,32.703567],[109.022571,32.70348],[109.022436,32.703397],[109.022303,32.70332],[109.022169,32.703251],[109.022036,32.703186],[109.021908,32.703123],[109.021788,32.703054],[109.021676,32.702983],[109.021564,32.702914],[109.021449,32.702841],[109.021337,32.702757],[109.021236,32.702665],[109.021142,32.702574],[109.021043,32.702489],[109.020929,32.702414],[109.020811,32.702344],[109.020692,32.702281],[109.020581,32.702223],[109.020475,32.702165],[109.02037,32.702111],[109.020265,32.702061],[109.020159,32.702014],[109.020053,32.701966],[109.019946,32.701916],[109.019841,32.701862],[109.01974,32.701802],[109.019647,32.701748],[109.019556,32.7017],[109.019465,32.701653],[109.019379,32.701603],[109.019297,32.701555],[109.019215,32.701508],[109.019135,32.701462],[109.019051,32.701415],[109.018966,32.701372],[109.018885,32.701329],[109.018812,32.701289],[109.018749,32.701244],[109.018691,32.701194],[109.018631,32.701137],[109.018564,32.701078],[109.018487,32.701029],[109.018402,32.700993],[109.018315,32.700964],[109.018232,32.700931],[109.018152,32.700892],[109.018064,32.70085],[109.017967,32.700801],[109.017871,32.700738],[109.017778,32.700661],[109.017693,32.700575],[109.017605,32.700464],[109.017523,32.700354],[109.017453,32.700254],[109.01739,32.700181],[109.017324,32.700117],[109.017253,32.70005],[109.017193,32.699984],[109.017136,32.699912],[109.017081,32.699838],[109.017025,32.699764],[109.016967,32.699691],[109.016881,32.699607],[109.016795,32.699527],[109.016712,32.699447],[109.016663,32.699382],[109.016614,32.699319],[109.01656,32.699256],[109.016503,32.699192],[109.016445,32.699123],[109.016384,32.699055],[109.01632,32.698991],[109.016254,32.698931],[109.016189,32.69887],[109.016129,32.698805],[109.016072,32.698741],[109.016019,32.698679],[109.01597,32.698619],[109.015919,32.698565],[109.015866,32.698518],[109.015818,32.698482],[109.015782,32.698451],[109.015747,32.698425],[109.015688,32.698384],[109.015596,32.698324],[109.015493,32.698243],[109.015399,32.698153],[109.015314,32.698067],[109.01523,32.697988],[109.015145,32.697916],[109.015059,32.697844],[109.014979,32.697777],[109.014908,32.697724]]}}]}