{"type":"FeatureCollection","features":[{"type":"Feature","properties":{"id":"2024-09-14_walking_10","type":"walking","date":"2024-09-14"},"geometry":{"type":"LineString","coordinates":[[118.782487,32.05033],[118.782506,32.050322],[118.782513,32.050319],[118.782527,32.050312],[118.782539,32.050305],[118.782551,32.050299],[118.782561,32.050294],[118.782574,32.050287],[118.782586,32.050281],[118.782599,32.050274],[118.782613,32.050266],[118.782627,32.050258],[118.782644,32.050248],[118.782658,32.050239],[118.782674,32.050229],[118.782686,32.050222],[118.7827,32.050213],[118.782711,32.050206],[118.782722,32.050199],[118.782732,32.050191],[118.782742,32.050184],[118.782752,32.050177],[118.782762,32.050169],[118.782773,32.05016],[118.782782,32.050153],[118.78279,32.050146],[118.782797,32.050139],[118.782807,32.05013],[118.782816,32.050122],[118.782823,32.050115],[118.782831,32.050107],[118.78284,32.050099],[118.782851,32.050088],[118.782863,32.05008],[118.782877,32.050072],[118.782892,32.050065],[118.782907,32.050059],[118.782925,32.050051],[118.782941,32.050043],[118.78296,32.050034],[118.782974,32.050026],[118.782989,32.050018],[118.783002,32.050011],[118.783016,32.050004],[118.78303,32.049998],[118.783044,32.049994],[118.78306,32.049989],[118.783077,32.049983],[118.783096,32.049978],[118.783113,32.049972],[118.78313,32.049967],[118.783146,32.049962],[118.783161,32.049956],[118.783177,32.04995],[118.783194,32.049942],[118.783213,32.049933],[118.783231,32.049924],[118.783246,32.049917],[118.783259,32.049911],[118.783272,32.049905],[118.783285,32.049899],[118.783299,32.049892],[118.783312,32.049885],[118.783326,32.049878],[118.783339,32.049871],[118.78335,32.049865],[118.783362,32.049859],[118.783374,32.049853],[118.783389,32.049845],[118.783404,32.049838],[118.783419,32.049831],[118.783431,32.049825],[118.783444,32.04982],[118.783457,32.049814],[118.783472,32.049808],[118.783486,32.049802],[118.7835,32.049797],[118.783513,32.049791],[118.783527,32.049787],[118.783542,32.049783],[118.78356,32.049779],[118.783583,32.049776],[118.783608,32.049772],[118.783632,32.04977],[118.783652,32.049771],[118.783674,32.049777],[118.783698,32.049791],[118.783724,32.049814],[118.783759,32.049854],[118.783804,32.049912],[118.783851,32.049974],[118.783877,32.050012],[118.783869,32.050005],[118.783834,32.049969],[118.7838,32.049935],[118.783784,32.049924],[118.783784,32.049934],[118.783793,32.049955],[118.783806,32.049984],[118.783823,32.050015],[118.783825,32.050023],[118.783813,32.050011],[118.783789,32.049989],[118.783773,32.049982],[118.783765,32.049986],[118.783761,32.049996],[118.783762,32.050009],[118.783766,32.050021],[118.783774,32.050032],[118.783782,32.050041],[118.78379,32.050051],[118.783798,32.05006],[118.783807,32.050071],[118.783817,32.050082],[118.783827,32.050095],[118.783835,32.050109],[118.783848,32.05012],[118.783862,32.050127],[118.783878,32.050132],[118.78389,32.050138],[118.783899,32.050146],[118.783905,32.050154],[118.78391,32.050166],[118.783912,32.050179],[118.783915,32.050192],[118.783918,32.050204],[118.783921,32.050215],[118.783925,32.050226],[118.783928,32.050237],[118.78393,32.050249],[118.783929,32.050264],[118.783926,32.050278],[118.78392,32.050293],[118.783913,32.050307],[118.783907,32.050323],[118.78391,32.050342],[118.783915,32.050361],[118.783922,32.050379],[118.783925,32.050394],[118.783927,32.050413],[118.783928,32.050434],[118.783931,32.050456],[118.783932,32.050472],[118.783934,32.050487],[118.783935,32.050499],[118.783938,32.050514],[118.783942,32.050527],[118.783946,32.050539],[118.78395,32.050553],[118.783954,32.050569],[118.783955,32.050585],[118.783954,32.050598],[118.78395,32.050609],[118.783945,32.050619],[118.78394,32.050627],[118.783938,32.050636],[118.783942,32.050648],[118.783949,32.050662],[118.783954,32.050677],[118.783956,32.050692],[118.783957,32.050707],[118.78396,32.050722],[118.783963,32.050736],[118.783966,32.050748],[118.783967,32.050755],[118.783966,32.050762],[118.783959,32.050769],[118.783948,32.050781],[118.783936,32.050796],[118.783928,32.050812],[118.783922,32.050828],[118.783916,32.050845],[118.783912,32.050861],[118.783909,32.050876],[118.783909,32.050887],[118.783913,32.050896],[118.78392,32.050904],[118.783928,32.050912],[118.783936,32.050921],[118.783944,32.050929],[118.783954,32.050936],[118.783965,32.050941],[118.783976,32.050946],[118.783988,32.05095],[118.783999,32.050955],[118.784008,32.05096],[118.784019,32.050967],[118.784029,32.050973],[118.784037,32.050979],[118.784038,32.05098],[118.784033,32.050977],[118.784021,32.050965],[118.784,32.050939],[118.78398,32.050911],[118.783963,32.050902],[118.783955,32.050931],[118.78395,32.050985],[118.783945,32.051037],[118.783941,32.05107],[118.783938,32.051087],[118.783938,32.051097],[118.78394,32.051104],[118.783941,32.051109],[118.783938,32.051115],[118.783933,32.051124],[118.78393,32.051139],[118.783931,32.051153],[118.783934,32.051169],[118.783938,32.051185],[118.78394,32.051201],[118.783943,32.051216],[118.783944,32.051231],[118.783943,32.051244],[118.78394,32.051258],[118.783937,32.051272],[118.783933,32.051286],[118.783931,32.051298],[118.783929,32.051309],[118.783929,32.051319],[118.78393,32.051333],[118.783932,32.05135],[118.783935,32.051364],[118.78394,32.051377],[118.783944,32.05139],[118.78395,32.051405],[118.783953,32.051419],[118.783956,32.051434],[118.783958,32.051446],[118.783961,32.051458],[118.783966,32.051471],[118.783974,32.051487],[118.783984,32.051502],[118.783994,32.051521],[118.784,32.051538],[118.784003,32.051551],[118.784007,32.051557],[118.784014,32.051562],[118.784025,32.051567],[118.784038,32.051572],[118.784049,32.051578],[118.784058,32.051582],[118.784064,32.051585],[118.784065,32.051586],[118.784065,32.051588],[118.784068,32.051589],[118.784075,32.051594],[118.784083,32.0516],[118.78409,32.051608],[118.784093,32.051617],[118.784094,32.051625],[118.784092,32.05163],[118.784091,32.051632],[118.784091,32.051632],[118.78409,32.051633],[118.784089,32.051634],[118.784089,32.051636],[118.784088,32.051637],[118.784087,32.051638],[118.784086,32.051639],[118.784086,32.05164],[118.784085,32.051641],[118.784085,32.051641],[118.784084,32.051642],[118.784084,32.051642],[118.784084,32.051642],[118.784085,32.05164],[118.784086,32.051637],[118.784087,32.051634],[118.784088,32.051632],[118.784089,32.051629],[118.78409,32.051628],[118.78409,32.051626],[118.78409,32.051625],[118.78409,32.051624],[118.784089,32.051623],[118.784088,32.051622],[118.784087,32.051622],[118.784086,32.051622],[118.784084,32.051622],[118.784082,32.051622],[118.784079,32.051622],[118.784076,32.051623],[118.784072,32.051624],[118.784068,32.051625],[118.784064,32.051626],[118.78406,32.051627],[118.784056,32.051628],[118.784053,32.051629],[118.78405,32.051629],[118.784048,32.05163],[118.784046,32.05163],[118.784045,32.05163],[118.784044,32.05163],[118.784043,32.051631],[118.784042,32.051631],[118.784041,32.051631],[118.784041,32.051631],[118.784041,32.051631],[118.784041,32.051631],[118.784041,32.051631],[118.784041,32.051631],[118.784042,32.051632],[118.784044,32.051634],[118.784048,32.051637],[118.784054,32.051641],[118.784065,32.051647],[118.784078,32.051654],[118.784094,32.051664],[118.784109,32.051675],[118.784122,32.051689],[118.784131,32.051703],[118.784138,32.051717],[118.784144,32.051731],[118.784148,32.051743],[118.784153,32.051754],[118.784158,32.051766],[118.784162,32.051779],[118.784166,32.051791],[118.784168,32.051803],[118.784169,32.051813],[118.784169,32.051824],[118.784168,32.051833],[118.784169,32.051846],[118.784171,32.051859],[118.784175,32.051873],[118.784177,32.051884],[118.78418,32.051896],[118.784184,32.051909],[118.784188,32.051923],[118.784192,32.051938],[118.784196,32.05195],[118.7842,32.051961],[118.784204,32.051972],[118.784208,32.051983],[118.784212,32.051996],[118.784216,32.052007],[118.784218,32.052015],[118.784219,32.05202],[118.78422,32.052029],[118.784223,32.052042],[118.784226,32.052058],[118.784229,32.052075],[118.784231,32.052088],[118.784234,32.052104],[118.784236,32.052118],[118.784238,32.052129],[118.784239,32.052139],[118.784242,32.05215],[118.784245,32.052164],[118.784248,32.052176],[118.784252,32.052189],[118.784256,32.052199],[118.784261,32.052212],[118.784267,32.052225],[118.784273,32.052237],[118.784279,32.05225],[118.784285,32.052263],[118.784291,32.052278],[118.784297,32.052293],[118.784302,32.052307],[118.784307,32.052321],[118.784312,32.052337],[118.784317,32.052349],[118.784321,32.052361],[118.784324,32.05237],[118.784329,32.052382],[118.784334,32.052394],[118.784339,32.052405],[118.784345,32.052418],[118.784351,32.05243],[118.784358,32.052443],[118.784365,32.052458],[118.784374,32.052471],[118.78438,32.052482],[118.784385,32.052491],[118.784391,32.0525],[118.784397,32.052512],[118.784405,32.052527],[118.784411,32.052541],[118.784416,32.052552],[118.78442,32.052562],[118.784424,32.052572],[118.784428,32.052584],[118.784432,32.052595],[118.784436,32.052605],[118.78444,32.052615],[118.784446,32.052627],[118.784451,32.052639],[118.784456,32.052648],[118.78446,32.052656],[118.784465,32.052665],[118.78447,32.052675],[118.784475,32.052686],[118.784482,32.052697],[118.784488,32.052709],[118.784495,32.052718],[118.784501,32.052726],[118.784507,32.052733],[118.784513,32.052741],[118.784518,32.052748],[118.784524,32.052759],[118.784529,32.052769],[118.784535,32.052782],[118.784539,32.052792],[118.784543,32.052806],[118.784546,32.052819],[118.784549,32.052832],[118.784552,32.052844],[118.784554,32.052855],[118.784557,32.052868],[118.784562,32.052885],[118.784567,32.052902],[118.784572,32.052918],[118.784577,32.052932],[118.784582,32.052946],[118.784587,32.052959],[118.784592,32.052972],[118.784597,32.052984],[118.784601,32.052997],[118.784607,32.05301],[118.784613,32.053024],[118.78462,32.053039],[118.784629,32.053054],[118.784639,32.05307],[118.784647,32.053081],[118.784654,32.053091],[118.784659,32.053104],[118.784665,32.053118],[118.78467,32.053135],[118.784674,32.053148],[118.784679,32.053163],[118.784684,32.053177],[118.784689,32.053192],[118.784695,32.053205],[118.7847,32.053218],[118.784706,32.053231],[118.784711,32.053243],[118.784716,32.053255],[118.784721,32.053266],[118.784726,32.053278],[118.784731,32.05329],[118.784737,32.053301],[118.784742,32.053311],[118.784749,32.053323],[118.784755,32.053335],[118.78476,32.053346],[118.784763,32.053355],[118.784765,32.053364],[118.784766,32.053377],[118.784765,32.05339],[118.784763,32.053403],[118.78476,32.053416],[118.784756,32.05343],[118.784753,32.053447],[118.78475,32.053465],[118.784748,32.053485],[118.784749,32.053508],[118.784749,32.053529],[118.784751,32.053551],[118.784752,32.053568],[118.784756,32.053589],[118.784759,32.053604],[118.784764,32.05362],[118.78477,32.053632],[118.784778,32.053646],[118.784785,32.053655],[118.784793,32.053663],[118.784798,32.053666],[118.784803,32.05367],[118.784807,32.053672],[118.784811,32.053675],[118.784814,32.053678],[118.784819,32.05368],[118.784825,32.053683],[118.78483,32.053687],[118.784832,32.053692],[118.784833,32.053699],[118.784832,32.053708],[118.784832,32.053722],[118.784832,32.053737],[118.784831,32.053755],[118.78483,32.053769],[118.784829,32.053782],[118.78483,32.053793],[118.784832,32.053806],[118.784834,32.053819],[118.784836,32.053832],[118.784837,32.053846],[118.784837,32.053859],[118.784836,32.053872],[118.784835,32.053886],[118.784834,32.0539],[118.784833,32.053916],[118.784832,32.053931],[118.784834,32.05395],[118.784837,32.053967],[118.78484,32.053984],[118.784844,32.053999],[118.784849,32.054017],[118.784854,32.054032],[118.784858,32.054044],[118.784862,32.054054],[118.784868,32.054067],[118.784873,32.054079],[118.784879,32.054091],[118.784883,32.0541],[118.784889,32.054112],[118.784894,32.054124],[118.7849,32.054139],[118.784904,32.054149],[118.784908,32.054159],[118.784911,32.054169],[118.784914,32.05418],[118.784918,32.054193],[118.784922,32.054208],[118.784926,32.054223],[118.784931,32.054239],[118.784935,32.054253],[118.784938,32.054266],[118.784942,32.054278],[118.784946,32.054293],[118.784951,32.054309],[118.784956,32.054324],[118.78496,32.054337],[118.784966,32.054355],[118.784972,32.054372],[118.784978,32.05439],[118.784982,32.054401],[118.784987,32.054416],[118.784993,32.05443],[118.784999,32.054447],[118.785004,32.054461],[118.78501,32.054475],[118.785016,32.054489],[118.785023,32.054504],[118.78503,32.054519],[118.785036,32.054533],[118.78504,32.054548],[118.785041,32.054561],[118.78504,32.054574],[118.785036,32.054586],[118.785033,32.054597],[118.785031,32.054607],[118.785031,32.054615],[118.785032,32.054624],[118.785035,32.054635],[118.785039,32.054648],[118.785043,32.054659],[118.785047,32.054669],[118.78505,32.054677],[118.785053,32.054687],[118.785056,32.0547],[118.785058,32.054712],[118.78506,32.054723],[118.785061,32.054732],[118.785063,32.054744],[118.785064,32.054759],[118.785065,32.054771],[118.785067,32.054784],[118.785068,32.054797],[118.78507,32.054813],[118.785073,32.054829],[118.785076,32.054848],[118.785079,32.054865],[118.785082,32.054881],[118.785084,32.054895],[118.785087,32.054908],[118.785089,32.054921],[118.785092,32.054935],[118.785095,32.054949],[118.785097,32.054962],[118.785099,32.054975],[118.785101,32.054987],[118.785103,32.054997],[118.785104,32.055006],[118.785105,32.055015],[118.785107,32.055025],[118.785109,32.055036],[118.785113,32.055047],[118.785118,32.055061],[118.785124,32.055075],[118.785131,32.055094],[118.785138,32.055111],[118.785145,32.055128],[118.785151,32.055143],[118.785157,32.055161],[118.785164,32.05518],[118.785171,32.055199],[118.785176,32.055215],[118.785181,32.055231],[118.785185,32.055245],[118.785188,32.055257],[118.785191,32.05527],[118.785194,32.055284],[118.785196,32.055298],[118.785199,32.055311],[118.785201,32.055326],[118.785202,32.055341],[118.785204,32.055358],[118.785203,32.055374],[118.785202,32.055391],[118.7852,32.055406],[118.7852,32.055421],[118.7852,32.055432],[118.785202,32.055444],[118.785203,32.055453],[118.785205,32.055465],[118.785209,32.055479],[118.785211,32.055492],[118.785214,32.055506],[118.785215,32.055516],[118.785218,32.055531],[118.78522,32.055545],[118.785224,32.055563],[118.785229,32.05558],[118.785234,32.055598],[118.785239,32.055614],[118.785243,32.055628],[118.785247,32.055641],[118.785251,32.055653],[118.785254,32.055665],[118.785257,32.055676],[118.78526,32.055686],[118.785262,32.055696],[118.785264,32.055707],[118.785266,32.055716],[118.785268,32.055726],[118.785269,32.055735],[118.785269,32.055744],[118.78527,32.055754],[118.785271,32.055767],[118.785272,32.055782],[118.785274,32.055797],[118.785275,32.055812],[118.785277,32.055825],[118.785279,32.055838],[118.785281,32.055851],[118.785283,32.055862],[118.785285,32.055872],[118.785287,32.055882],[118.785291,32.055899],[118.785296,32.055917],[118.785301,32.055938],[118.785306,32.055951],[118.785312,32.055965],[118.785318,32.055977],[118.785324,32.055991],[118.78533,32.056005],[118.785337,32.056018],[118.785343,32.056031],[118.785348,32.056042],[118.785352,32.056053],[118.785355,32.056062],[118.785358,32.056074],[118.785361,32.056086],[118.785364,32.056097],[118.785366,32.056106],[118.785367,32.056116],[118.785369,32.056127],[118.785371,32.056139],[118.785373,32.056151],[118.785374,32.056162],[118.785376,32.056173],[118.785377,32.056185],[118.785379,32.056199],[118.785382,32.056214],[118.785385,32.056228],[118.785388,32.056244],[118.785391,32.056262],[118.785394,32.056283],[118.785396,32.056303],[118.785397,32.056319],[118.785396,32.056334],[118.785394,32.056349],[118.785392,32.056367],[118.78539,32.056385],[118.785387,32.056403],[118.785385,32.056422],[118.785383,32.056437],[118.785382,32.05645],[118.785381,32.056462],[118.785381,32.056473],[118.785383,32.056484],[118.785385,32.056495],[118.785387,32.056506],[118.785389,32.056516],[118.785391,32.056527],[118.785392,32.056538],[118.785393,32.056547],[118.785393,32.056558],[118.785394,32.05657],[118.785395,32.056586],[118.785395,32.056599],[118.785395,32.056608],[118.785396,32.056617],[118.785397,32.056625],[118.785399,32.056635],[118.7854,32.056643],[118.785403,32.056654],[118.785405,32.056662],[118.785408,32.056677],[118.785411,32.05669],[118.785413,32.056708],[118.785415,32.056725],[118.785417,32.056739],[118.785418,32.056752],[118.785418,32.056766],[118.785419,32.05678],[118.785419,32.056794],[118.785419,32.056805],[118.78542,32.05682],[118.785423,32.056836],[118.785425,32.056854],[118.785432,32.05687],[118.785438,32.056884],[118.785445,32.056898],[118.785449,32.056911],[118.785453,32.056923],[118.785455,32.056932],[118.785457,32.05694],[118.785458,32.056948],[118.785459,32.056962],[118.78546,32.056974],[118.78546,32.056987],[118.785459,32.056995],[118.785458,32.057006],[118.785457,32.057015],[118.785456,32.057028],[118.785455,32.057036],[118.785454,32.057047],[118.785454,32.057057],[118.785455,32.05707],[118.785456,32.057087],[118.785458,32.057106],[118.78546,32.057126],[118.785461,32.057143],[118.785463,32.057158],[118.785464,32.05717],[118.785464,32.05718],[118.785465,32.057191],[118.785466,32.057206],[118.785468,32.057219],[118.785469,32.057231],[118.78547,32.057241],[118.785471,32.057253],[118.785473,32.057265],[118.785475,32.057277],[118.785477,32.05729],[118.785479,32.057304],[118.785481,32.057318],[118.785484,32.057332],[118.785487,32.057347],[118.785489,32.057362],[118.785491,32.057377],[118.785493,32.057393],[118.785494,32.057405],[118.785495,32.057418],[118.785496,32.057428],[118.785497,32.057442],[118.785497,32.057457],[118.785498,32.057475],[118.7855,32.057496],[118.785507,32.057517],[118.785515,32.057535],[118.785525,32.05755],[118.78553,32.057559],[118.785532,32.057569],[118.785529,32.057581],[118.785524,32.057598],[118.785517,32.057614],[118.785512,32.057628],[118.785508,32.057636],[118.785505,32.057638],[118.785504,32.057635],[118.785505,32.057629],[118.785505,32.057623],[118.785504,32.057617],[118.785502,32.057612],[118.785501,32.057609],[118.7855,32.057605],[118.785499,32.057601],[118.785499,32.057595],[118.785502,32.057592],[118.785506,32.057589],[118.785509,32.057588],[118.78551,32.057589],[118.785511,32.057589],[118.785512,32.057589],[118.785512,32.05759],[118.785512,32.05759]]}}]}