{"type":"FeatureCollection","features":[{"type":"Feature","properties":{"id":"2024-09-16_walking_11","type":"walking","date":"2024-09-16"},"geometry":{"type":"LineString","coordinates":[[118.73928,32.037938],[118.73929,32.037936],[118.739305,32.037936],[118.739319,32.037936],[118.739335,32.037937],[118.739351,32.037939],[118.739368,32.037941],[118.739386,32.037944],[118.739403,32.037946],[118.73942,32.037947],[118.739436,32.037947],[118.739452,32.037946],[118.739468,32.037944],[118.739483,32.037941],[118.739497,32.037938],[118.739512,32.037933],[118.739527,32.037929],[118.739541,32.037924],[118.739556,32.03792],[118.739572,32.037916],[118.739587,32.037913],[118.739602,32.037911],[118.739617,32.037909],[118.739632,32.037907],[118.739646,32.037905],[118.73966,32.037903],[118.739673,32.0379],[118.739686,32.037896],[118.7397,32.037893],[118.739714,32.037889],[118.739728,32.037886],[118.739743,32.037882],[118.739758,32.037879],[118.739773,32.037876],[118.739788,32.037873],[118.739804,32.037869],[118.739819,32.037866],[118.739835,32.037863],[118.739851,32.037859],[118.739867,32.037856],[118.739882,32.037852],[118.739897,32.037848],[118.739913,32.037844],[118.739927,32.03784],[118.739942,32.037836],[118.739956,32.037833],[118.73997,32.037829],[118.739984,32.037824],[118.739998,32.03782],[118.740012,32.037816],[118.740026,32.037812],[118.74004,32.037809],[118.740054,32.037807],[118.740069,32.037807],[118.740083,32.037809],[118.740097,32.037812],[118.740111,32.037815],[118.740125,32.037819],[118.740139,32.037821],[118.740154,32.037821],[118.740169,32.03782],[118.740184,32.037818],[118.740198,32.037814],[118.740213,32.03781],[118.740228,32.037806],[118.740242,32.037802],[118.740257,32.037797],[118.740271,32.037793],[118.740286,32.037787],[118.740301,32.037781],[118.740315,32.037776],[118.74033,32.03777],[118.740345,32.037764],[118.740361,32.037758],[118.740377,32.037752],[118.740393,32.037745],[118.74041,32.037739],[118.740427,32.037732],[118.740444,32.037727],[118.740461,32.037722],[118.740478,32.037719],[118.740494,32.037717],[118.74051,32.037715],[118.740525,32.037714],[118.740539,32.037712],[118.740554,32.037711],[118.740568,32.037711],[118.740582,32.03771],[118.740596,32.037711],[118.740609,32.037711],[118.740623,32.037712],[118.740637,32.037711],[118.74065,32.03771],[118.740663,32.037707],[118.740677,32.037704],[118.74069,32.037699],[118.740704,32.037694],[118.740718,32.03769],[118.740732,32.037685],[118.740747,32.037681],[118.740762,32.037677],[118.740777,32.037672],[118.740791,32.037666],[118.740805,32.037659],[118.74082,32.037653],[118.740834,32.037646],[118.740848,32.03764],[118.740863,32.037635],[118.740879,32.03763],[118.740895,32.037627],[118.740912,32.037624],[118.740928,32.037621],[118.740945,32.037619],[118.740962,32.037617],[118.740978,32.037615],[118.740995,32.037612],[118.741011,32.03761],[118.741026,32.037607],[118.741042,32.037604],[118.741058,32.037601],[118.741074,32.037599],[118.74109,32.037597],[118.741106,32.037595],[118.741123,32.037594],[118.741139,32.037593],[118.741156,32.037591],[118.741172,32.037589],[118.741188,32.037586],[118.741203,32.037583],[118.741219,32.037579],[118.741234,32.037575],[118.74125,32.03757],[118.741266,32.037565],[118.741282,32.037559],[118.741299,32.037553],[118.741315,32.037547],[118.741332,32.037541],[118.741348,32.037535],[118.741363,32.03753],[118.741378,32.037524],[118.741391,32.037519],[118.741404,32.037514],[118.741417,32.03751],[118.741429,32.037506],[118.741441,32.037502],[118.741453,32.037498],[118.741465,32.037493],[118.741477,32.037489],[118.74149,32.037486],[118.7415,32.037484],[118.74151,32.037484],[118.741518,32.037485],[118.741525,32.037488],[118.741531,32.037492],[118.741538,32.037497],[118.741545,32.037502],[118.741552,32.037508],[118.741561,32.037514],[118.74157,32.03752],[118.74158,32.037525],[118.741588,32.037532],[118.741597,32.037537],[118.741607,32.03754],[118.741618,32.037541],[118.74163,32.037539],[118.741643,32.037535],[118.741657,32.037532],[118.74167,32.037528],[118.741683,32.037525],[118.741694,32.037523],[118.741704,32.037521],[118.741712,32.03752],[118.741717,32.037519],[118.741721,32.037518],[118.741723,32.037518],[118.741725,32.037518],[118.741726,32.037517],[118.741727,32.037517],[118.741728,32.037517],[118.741729,32.037518],[118.741729,32.037518],[118.741729,32.037518],[118.741729,32.037518],[118.741729,32.037518],[118.741729,32.037518],[118.741729,32.037517],[118.741729,32.037518],[118.741728,32.037514]]}}]}