{"type":"FeatureCollection","features":[{"type":"Feature","properties":{"id":"2024-07-07_cycling_08","type":"cycling","date":"2024-07-07"},"geometry":{"type":"LineString","coordinates":[[118.141521,24.435671],[118.141498,24.435662],[118.141476,24.435651],[118.14145,24.435641],[118.141421,24.435631],[118.141387,24.435622],[118.141351,24.435616],[118.141312,24.435609],[118.141274,24.435604],[118.141237,24.435598],[118.141201,24.435593],[118.141166,24.435588],[118.141132,24.435584],[118.1411,24.435582],[118.141069,24.435581],[118.14104,24.43558],[118.141015,24.435576],[118.140993,24.435572],[118.140972,24.435565],[118.140951,24.435557],[118.140932,24.43555],[118.140912,24.435543],[118.140891,24.435537],[118.140871,24.435532],[118.140853,24.435528],[118.140836,24.435524],[118.140819,24.43552],[118.140803,24.435517],[118.140785,24.435513],[118.140765,24.435509],[118.140742,24.435505],[118.140717,24.435501],[118.140691,24.435493],[118.140662,24.435483],[118.14063,24.435472],[118.140592,24.43546],[118.140551,24.435447],[118.140508,24.435435],[118.140462,24.435425],[118.140407,24.435417],[118.140354,24.435411],[118.140303,24.435406],[118.140253,24.435401],[118.140207,24.435395],[118.140171,24.435387],[118.140137,24.435377],[118.140104,24.435365],[118.140074,24.435353],[118.140044,24.435342],[118.140014,24.435332],[118.139985,24.435323],[118.139957,24.435318],[118.139928,24.435314],[118.139899,24.43531],[118.13987,24.435306],[118.139841,24.4353],[118.139807,24.435288],[118.139774,24.435276],[118.139743,24.435264],[118.139712,24.435252],[118.139681,24.435241],[118.139657,24.435233],[118.139631,24.435225],[118.139606,24.435217],[118.13958,24.435209],[118.139551,24.435202],[118.13952,24.435193],[118.139488,24.435182],[118.139454,24.435168],[118.139419,24.435152],[118.139385,24.435134],[118.139353,24.435116],[118.139321,24.435099],[118.139282,24.435082],[118.139241,24.435068],[118.139201,24.435056],[118.139161,24.435045],[118.139123,24.435033],[118.139094,24.435021],[118.139068,24.435007],[118.139043,24.434992],[118.139018,24.434976],[118.138991,24.434959],[118.138963,24.434943],[118.138932,24.434927],[118.138901,24.434912],[118.138871,24.4349],[118.138842,24.43489],[118.138815,24.43488],[118.138789,24.434872],[118.138756,24.434861],[118.138722,24.434848],[118.138689,24.434836],[118.138656,24.434823],[118.138624,24.43481],[118.1386,24.434798],[118.138577,24.434786],[118.138555,24.434773],[118.138532,24.434761],[118.13851,24.434749],[118.138488,24.434738],[118.138466,24.434729],[118.138443,24.43472],[118.138419,24.434711],[118.138396,24.434701],[118.138371,24.43469],[118.138347,24.434677],[118.138316,24.43466],[118.138286,24.434641],[118.138257,24.434624],[118.138229,24.434608],[118.138202,24.434592],[118.138185,24.434583],[118.138172,24.434576],[118.138163,24.434571],[118.138158,24.434569],[118.138156,24.434568],[118.138153,24.434567],[118.138147,24.434563],[118.138137,24.434555],[118.13812,24.434542],[118.138099,24.434528],[118.138074,24.434516],[118.138048,24.434504],[118.138016,24.434491],[118.137987,24.43448],[118.137961,24.434467],[118.137937,24.434454],[118.137914,24.434442],[118.1379,24.434434],[118.137888,24.434428],[118.137876,24.434424],[118.137867,24.43442],[118.137861,24.434417],[118.137858,24.434416],[118.137855,24.434413],[118.137847,24.43441],[118.137835,24.434405],[118.137818,24.434396],[118.137796,24.434383],[118.137771,24.434366],[118.13774,24.434336],[118.137709,24.4343],[118.137676,24.434265],[118.13764,24.434229],[118.137601,24.434194],[118.137564,24.434169],[118.137525,24.434145],[118.137487,24.434121],[118.13745,24.434097],[118.137417,24.434075],[118.137387,24.434053],[118.137357,24.434031],[118.137329,24.434009],[118.137299,24.433985],[118.137266,24.433959],[118.137229,24.433931],[118.137188,24.433901],[118.137136,24.433859],[118.137082,24.433813],[118.137029,24.433766],[118.136976,24.433717],[118.136923,24.433666],[118.13688,24.433625],[118.136837,24.433584],[118.136793,24.433543],[118.13675,24.433502],[118.136706,24.433461],[118.136663,24.433419],[118.136619,24.433376],[118.136576,24.433329],[118.136532,24.433277],[118.136489,24.433224],[118.136447,24.433169],[118.136406,24.433114],[118.136356,24.433053],[118.136306,24.432994],[118.136254,24.432935],[118.1362,24.432876],[118.136146,24.432813],[118.1361,24.432754],[118.136055,24.432693],[118.136009,24.43263],[118.135963,24.432565],[118.135917,24.432502],[118.13587,24.432439],[118.135825,24.432377],[118.135782,24.432318],[118.135745,24.432264],[118.135712,24.432215],[118.135685,24.432171],[118.135662,24.432131],[118.135638,24.432082],[118.135615,24.432033],[118.135591,24.431982],[118.135567,24.43193],[118.13554,24.431877],[118.135518,24.431834],[118.135494,24.431792],[118.13547,24.431751],[118.135446,24.431709],[118.135424,24.431667],[118.135402,24.431622],[118.135382,24.431574],[118.135363,24.431525],[118.135343,24.431474],[118.135323,24.431422],[118.135304,24.431373],[118.135284,24.431325],[118.13526,24.431267],[118.135237,24.43121],[118.135216,24.431156],[118.135194,24.431105],[118.135174,24.431058],[118.135159,24.431024],[118.135147,24.430994],[118.135137,24.430964],[118.13513,24.430932],[118.135124,24.430899],[118.135119,24.430862],[118.135112,24.430821],[118.135104,24.430777],[118.135092,24.430729],[118.135079,24.43068],[118.135064,24.43063],[118.135048,24.430581],[118.135025,24.430522],[118.135,24.430464],[118.134976,24.430406],[118.134954,24.430347],[118.134932,24.43029],[118.134916,24.430245],[118.134901,24.430202],[118.134886,24.430161],[118.13487,24.430122],[118.134856,24.430084],[118.134844,24.430047],[118.134833,24.430011],[118.134823,24.429974],[118.134813,24.429936],[118.134801,24.429896],[118.134787,24.429856],[118.134772,24.429814],[118.13475,24.429762],[118.134727,24.42971],[118.134705,24.429657],[118.134684,24.429603],[118.134663,24.42955],[118.134648,24.429508],[118.134634,24.429467],[118.13462,24.429428],[118.134606,24.42939],[118.134593,24.429354],[118.134579,24.429319],[118.134566,24.429285],[118.134555,24.429254],[118.134545,24.429225],[118.134537,24.429195],[118.134532,24.429165],[118.134528,24.429134],[118.134519,24.429094],[118.134509,24.429051],[118.134501,24.429008],[118.134492,24.428964],[118.134483,24.428921],[118.134481,24.428885],[118.134478,24.42885],[118.134472,24.428813],[118.134466,24.428776],[118.134458,24.428739],[118.134448,24.428702],[118.134438,24.428667],[118.134428,24.428633],[118.134417,24.428598],[118.134406,24.428562],[118.134396,24.428525],[118.134384,24.428487],[118.134369,24.428438],[118.134353,24.428391],[118.134336,24.428345],[118.13432,24.4283],[118.134307,24.428256],[118.134298,24.428221],[118.134289,24.428187],[118.134279,24.428152],[118.134268,24.428117],[118.134256,24.428082],[118.134242,24.428047],[118.134227,24.428014],[118.134213,24.427983],[118.1342,24.427954],[118.13419,24.427927],[118.134181,24.427903],[118.134172,24.427879],[118.13416,24.427848],[118.134147,24.427814],[118.134131,24.427778],[118.134114,24.427738],[118.134097,24.427697],[118.134083,24.427662],[118.134068,24.427627],[118.134051,24.427591],[118.134034,24.427556],[118.134015,24.427519],[118.133995,24.427482],[118.133975,24.427445],[118.133955,24.427407],[118.133934,24.427369],[118.133912,24.42733],[118.133889,24.427293],[118.133864,24.427256],[118.133836,24.427215],[118.133807,24.427175],[118.13378,24.427136],[118.133754,24.427097],[118.133726,24.427058],[118.133703,24.427026],[118.133679,24.426994],[118.133653,24.42696],[118.133626,24.426926],[118.133599,24.426893],[118.133571,24.426859],[118.133542,24.426826],[118.133513,24.426794],[118.133482,24.426763],[118.133452,24.426732],[118.133421,24.426702],[118.13339,24.426672],[118.133354,24.426637],[118.133317,24.426602],[118.133279,24.426567],[118.13324,24.426532],[118.133201,24.426497],[118.133166,24.426468],[118.133131,24.42644],[118.133097,24.426411],[118.133063,24.426382],[118.133029,24.426354],[118.132995,24.426326],[118.13296,24.426298],[118.132923,24.42627],[118.132885,24.426243],[118.132847,24.426217],[118.132808,24.42619],[118.132769,24.426165],[118.132724,24.426138],[118.13268,24.426111],[118.132637,24.426086],[118.132594,24.426061],[118.132552,24.426036],[118.132516,24.426015],[118.132479,24.425994],[118.132442,24.425974],[118.132403,24.425955],[118.132364,24.425936],[118.132325,24.425919],[118.132284,24.425902],[118.132242,24.425885],[118.132201,24.425869],[118.132159,24.425853],[118.132118,24.42584],[118.132077,24.425826],[118.132028,24.425809],[118.131979,24.425792],[118.131931,24.425775],[118.131882,24.425757],[118.131833,24.425738],[118.131791,24.425723],[118.131749,24.425709],[118.131706,24.425695],[118.131664,24.425681],[118.131621,24.425669],[118.131578,24.425659],[118.131535,24.425649],[118.131492,24.42564],[118.13145,24.425634],[118.13141,24.425628],[118.131371,24.425621],[118.131332,24.425614],[118.131283,24.425603],[118.131234,24.425592],[118.131185,24.425583],[118.13114,24.425576],[118.1311,24.425572],[118.131075,24.425571],[118.131051,24.425569],[118.13103,24.425566],[118.131006,24.425561],[118.130979,24.425554],[118.130947,24.425547],[118.130911,24.425541],[118.130868,24.425536],[118.130819,24.425531],[118.130763,24.425528],[118.130701,24.425525],[118.130632,24.425522],[118.130545,24.42552],[118.130457,24.425519],[118.130366,24.42552],[118.130273,24.425523],[118.130181,24.425528],[118.130103,24.425535],[118.130022,24.425545],[118.129939,24.425556],[118.129855,24.425571],[118.129771,24.425587],[118.129687,24.425604],[118.129607,24.425622],[118.12953,24.425641],[118.129457,24.425659],[118.129387,24.425678],[118.129322,24.425697],[118.129258,24.425718],[118.129183,24.425747],[118.129108,24.425778],[118.129033,24.425809],[118.128957,24.425841],[118.128879,24.425872],[118.128811,24.425895],[118.128742,24.425919],[118.128673,24.425943],[118.128604,24.425967],[118.128537,24.425992],[118.128471,24.426016],[118.128406,24.426042],[118.128343,24.426066],[118.128281,24.42609],[118.128218,24.426113],[118.128157,24.426135],[118.128098,24.426158],[118.128028,24.426184],[118.12796,24.426209],[118.127894,24.426234],[118.127831,24.426259],[118.127769,24.426284],[118.12772,24.426302],[118.127672,24.42632],[118.127627,24.426337],[118.127582,24.426354],[118.127539,24.42637],[118.127494,24.426386],[118.127449,24.426403],[118.127403,24.42642],[118.127357,24.42644],[118.127312,24.42646],[118.127268,24.426479],[118.127226,24.426498],[118.127176,24.426517],[118.127125,24.426536],[118.127073,24.426555],[118.127018,24.426577],[118.126959,24.4266],[118.126906,24.426622],[118.126851,24.426642],[118.126794,24.426662],[118.126738,24.426682],[118.126682,24.426702],[118.126625,24.426723],[118.126568,24.426744],[118.12651,24.426766],[118.126451,24.426787],[118.12639,24.426807],[118.126326,24.426826],[118.126262,24.426844],[118.126186,24.426864],[118.126111,24.426883],[118.126038,24.426899],[118.125968,24.426915],[118.1259,24.42693],[118.125845,24.426942],[118.125789,24.426952],[118.125734,24.42696],[118.125678,24.426967],[118.125621,24.426972],[118.125562,24.426976],[118.125505,24.426981],[118.125447,24.426987],[118.125391,24.426992],[118.125338,24.426998],[118.125286,24.427005],[118.125237,24.42701],[118.12518,24.427013],[118.125124,24.427016],[118.125068,24.427018],[118.125012,24.427018],[118.124956,24.427018],[118.124909,24.427017],[118.124863,24.427014],[118.124816,24.427012],[118.124769,24.42701],[118.124722,24.427008],[118.124675,24.427007],[118.124629,24.427007],[118.124583,24.427008],[118.12454,24.42701],[118.1245,24.427013],[118.124465,24.427017],[118.124434,24.427022],[118.124408,24.427028],[118.124388,24.427032],[118.124375,24.427035],[118.124366,24.427037],[118.124361,24.427035],[118.12436,24.427032],[118.12436,24.427028],[118.12436,24.427026],[118.12436,24.427025],[118.12436,24.427025],[118.12436,24.427025],[118.12436,24.427025],[118.12436,24.427025],[118.12436,24.427025],[118.12436,24.427025],[118.12436,24.427025],[118.12436,24.427025],[118.12436,24.427025],[118.12436,24.427025],[118.12436,24.427025],[118.12436,24.427025],[118.12436,24.427025],[118.12436,24.427025],[118.12436,24.427025],[118.12436,24.427025],[118.12436,24.427025],[118.12436,24.427025],[118.12436,24.427025],[118.12436,24.427025],[118.12436,24.427025],[118.12436,24.427025],[118.12436,24.427025],[118.12436,24.427025],[118.12436,24.427025],[118.12436,24.427025],[118.12436,24.427025],[118.12436,24.427025],[118.12436,24.427025],[118.12436,24.427025],[118.12436,24.427025],[118.12436,24.427025],[118.12436,24.427025],[118.12436,24.427025],[118.12436,24.427025],[118.12436,24.427025],[118.12436,24.427025],[118.12436,24.427025],[118.12436,24.427025],[118.12436,24.427025],[118.12436,24.427025],[118.12436,24.427025],[118.12436,24.427025],[118.12436,24.427025],[118.12436,24.427025],[118.12436,24.427025],[118.12436,24.427025],[118.12436,24.427025],[118.12436,24.427025],[118.12436,24.427025],[118.12436,24.427025],[118.12436,24.427025],[118.12436,24.427024],[118.12436,24.427022],[118.124358,24.427019],[118.124356,24.427015],[118.124352,24.427008],[118.124345,24.427001],[118.124336,24.426994],[118.124316,24.426988],[118.124291,24.426983],[118.12426,24.42698],[118.124223,24.42698],[118.124182,24.426982],[118.124144,24.426984],[118.124106,24.426987],[118.124067,24.426988],[118.124027,24.426988],[118.123988,24.426988],[118.123949,24.426987],[118.123911,24.426985],[118.123872,24.426985],[118.123835,24.426985],[118.123797,24.426986],[118.123759,24.426987],[118.123721,24.426989],[118.123677,24.426991],[118.123634,24.426991],[118.123592,24.426991],[118.123551,24.426989],[118.123511,24.426988],[118.12348,24.426988],[118.12345,24.426988],[118.123424,24.426989],[118.1234,24.42699],[118.123377,24.426993],[118.123355,24.426995],[118.123333,24.426996],[118.123311,24.426997],[118.123289,24.426997],[118.123266,24.426997],[118.12324,24.426995],[118.123212,24.426993],[118.123174,24.426991],[118.123136,24.42699],[118.123096,24.426988],[118.123057,24.426987],[118.123018,24.426985],[118.122985,24.426984],[118.122953,24.426983],[118.122919,24.426983],[118.122883,24.426984],[118.122847,24.426986],[118.122808,24.426989],[118.122769,24.426992],[118.122728,24.426995],[118.122689,24.426997],[118.122648,24.426999],[118.122607,24.427001],[118.122564,24.427002],[118.122511,24.427002],[118.122456,24.427002],[118.1224,24.427002],[118.122343,24.427003],[118.122286,24.427004],[118.122239,24.427007],[118.122192,24.42701],[118.122147,24.427015],[118.122105,24.427021],[118.122067,24.427029],[118.122032,24.427039],[118.122002,24.427048],[118.121975,24.427056],[118.121951,24.427063],[118.121928,24.427067],[118.121904,24.42707],[118.12188,24.427072],[118.121849,24.427077],[118.121819,24.427084],[118.121792,24.427094],[118.121768,24.427105],[118.121746,24.427118],[118.121729,24.427127],[118.121712,24.427133],[118.121695,24.427136],[118.121679,24.427139],[118.121666,24.42714],[118.121657,24.427142],[118.121652,24.427143],[118.12165,24.427143],[118.121649,24.427142],[118.121649,24.427141],[118.12165,24.42714],[118.12165,24.42714],[118.12165,24.42714],[118.121649,24.42714],[118.121648,24.427139],[118.121648,24.427139],[118.121647,24.427138],[118.121645,24.427137],[118.121645,24.427136],[118.121645,24.427135],[118.121647,24.427134],[118.121648,24.427132],[118.121649,24.427131],[118.121649,24.427129],[118.121645,24.427125],[118.121639,24.427121],[118.121632,24.427117],[118.121625,24.427113],[118.121619,24.42711],[118.121614,24.427108],[118.121611,24.427107],[118.121609,24.427106],[118.121607,24.427106],[118.121606,24.427106],[118.121606,24.427106],[118.121606,24.427106],[118.121606,24.427106],[118.121606,24.427106],[118.121606,24.427106],[118.121606,24.427106],[118.121606,24.427106],[118.121606,24.427106],[118.121606,24.427106],[118.121606,24.427106],[118.121606,24.427106],[118.121604,24.42711],[118.121602,24.427115],[118.121599,24.427119],[118.121597,24.427124],[118.121595,24.427128],[118.121595,24.427129],[118.121595,24.427129],[118.121595,24.42713],[118.121595,24.427131],[118.121594,24.427131]]}}]}