{"type":"FeatureCollection","features":[{"type":"Feature","properties":{"id":"2024-06-05_cycling_06","type":"cycling","date":"2024-06-05"},"geometry":{"type":"LineString","coordinates":[[109.039601,32.706353],[109.039568,32.706329],[109.039499,32.706318],[109.039435,32.706308],[109.039366,32.7063],[109.039301,32.706289],[109.039239,32.706279],[109.03918,32.70627],[109.039125,32.706256],[109.03907,32.706244],[109.039011,32.706233],[109.038955,32.706221],[109.038916,32.706197],[109.038883,32.706167],[109.038852,32.706137],[109.038819,32.706107],[109.038783,32.706081],[109.03874,32.706059],[109.038695,32.706038],[109.038649,32.706017],[109.0386,32.705997],[109.038529,32.705981],[109.038444,32.705973],[109.038359,32.705967],[109.038265,32.705966],[109.038164,32.705966],[109.038075,32.705964],[109.037987,32.705961],[109.03789,32.705961],[109.037792,32.705964],[109.037694,32.705966],[109.037597,32.705969],[109.037499,32.705972],[109.037404,32.705976],[109.03731,32.705978],[109.037215,32.70598],[109.037124,32.70598],[109.037033,32.705982],[109.036942,32.705986],[109.036853,32.70599],[109.036769,32.705995],[109.036681,32.706],[109.036599,32.706003],[109.036521,32.706003],[109.036447,32.706001],[109.036368,32.705997],[109.036296,32.70599],[109.036221,32.705983],[109.036143,32.705981],[109.036062,32.705977],[109.035983,32.705975],[109.035903,32.705976],[109.035821,32.705979],[109.035736,32.705982],[109.035651,32.705986],[109.03557,32.705986],[109.035495,32.705983],[109.03542,32.705979],[109.035349,32.705973],[109.035277,32.705968],[109.035201,32.705962],[109.035123,32.705959],[109.035046,32.705956],[109.03497,32.705955],[109.034895,32.705955],[109.03482,32.705954],[109.034742,32.705956],[109.034664,32.705957],[109.034585,32.705955],[109.03451,32.705954],[109.034439,32.705953],[109.034371,32.70595],[109.034305,32.705948],[109.034246,32.705951],[109.034189,32.705955],[109.034133,32.705962],[109.034087,32.705966],[109.034045,32.705975],[109.033996,32.705984],[109.03395,32.705992],[109.033905,32.706],[109.033853,32.70601],[109.0338,32.706018],[109.033748,32.706026],[109.033696,32.706037],[109.033644,32.706048],[109.033592,32.706058],[109.033533,32.706074],[109.033474,32.706088],[109.033416,32.706101],[109.033354,32.706112],[109.033292,32.706122],[109.033237,32.706127],[109.033181,32.706129],[109.033122,32.706132],[109.033068,32.706133],[109.033009,32.706134],[109.03295,32.706134],[109.032891,32.706134],[109.032835,32.706133],[109.032778,32.706133],[109.032722,32.706132],[109.032666,32.706127],[109.032614,32.70612],[109.032558,32.706109],[109.032507,32.706096],[109.032455,32.706083],[109.032399,32.706071],[109.032344,32.706061],[109.032291,32.706053],[109.03223,32.706046],[109.032168,32.70604],[109.032103,32.706035],[109.032037,32.706032],[109.031972,32.706026],[109.031917,32.706021],[109.031862,32.706015],[109.031813,32.706006],[109.031764,32.705993],[109.031714,32.705976],[109.031663,32.705957],[109.031611,32.705936],[109.031558,32.705912],[109.031506,32.705889],[109.031454,32.705864],[109.031406,32.705839],[109.031357,32.705814],[109.031304,32.705789],[109.031252,32.705765],[109.0312,32.705739],[109.031148,32.70571],[109.031096,32.70568],[109.031047,32.705645],[109.030998,32.705609],[109.030946,32.705573],[109.03089,32.705542],[109.030832,32.705514],[109.030773,32.705492],[109.030714,32.705474],[109.030662,32.705461],[109.030616,32.705449],[109.030578,32.705437],[109.030545,32.705426],[109.030522,32.705415],[109.030506,32.705405],[109.030493,32.705397],[109.030486,32.705391],[109.030483,32.705388],[109.03048,32.705384],[109.030477,32.705383],[109.030477,32.705381],[109.030477,32.70538],[109.030477,32.70538],[109.030477,32.70538],[109.030477,32.70538],[109.030473,32.705379],[109.03047,32.705377],[109.030467,32.705374],[109.03046,32.70537],[109.030454,32.705366],[109.030447,32.705361],[109.030437,32.705355],[109.030424,32.705347],[109.030408,32.705339],[109.030385,32.705329],[109.030359,32.705319],[109.03033,32.705308],[109.030298,32.705297],[109.030265,32.705283],[109.030229,32.705267],[109.030193,32.705253],[109.030154,32.705237],[109.030111,32.705223],[109.030066,32.705212],[109.030021,32.705204],[109.029972,32.705199],[109.029923,32.705196],[109.029874,32.705196],[109.029825,32.705199],[109.029773,32.7052],[109.029721,32.705199],[109.029669,32.705196],[109.029616,32.705192],[109.029564,32.705186],[109.029513,32.705181],[109.029457,32.705178],[109.029401,32.705178],[109.029343,32.705175],[109.029284,32.705171],[109.029236,32.705165],[109.029196,32.705157],[109.029164,32.705149],[109.029144,32.705142],[109.029134,32.705135],[109.029128,32.70513],[109.029121,32.705126],[109.029118,32.705124],[109.029115,32.705124],[109.029108,32.705126],[109.029098,32.705129],[109.029088,32.705131],[109.029072,32.705132],[109.029049,32.70513],[109.029023,32.705125],[109.028994,32.705118],[109.028962,32.705112],[109.028926,32.705106],[109.028887,32.705102],[109.028847,32.705098],[109.028805,32.705095],[109.028759,32.705091],[109.028713,32.705088],[109.028669,32.705085],[109.028623,32.70508],[109.028577,32.705073],[109.028531,32.705066],[109.028485,32.705056],[109.028441,32.705048],[109.028391,32.705041],[109.028342,32.705035],[109.028293,32.705031],[109.028244,32.705027],[109.028195,32.705024],[109.028147,32.70502],[109.028095,32.705014],[109.028043,32.705007],[109.02799,32.705001],[109.027938,32.704992],[109.027887,32.704985],[109.027837,32.704976],[109.027788,32.704967],[109.027736,32.704956],[109.027684,32.704947],[109.027629,32.704939],[109.027574,32.704933],[109.027518,32.70493],[109.027466,32.704925],[109.02741,32.70492],[109.027359,32.704915],[109.027306,32.704906],[109.027254,32.704896],[109.027202,32.704887],[109.027149,32.704878],[109.027098,32.704868],[109.027046,32.704857],[109.026993,32.704845],[109.026941,32.704831],[109.026889,32.704817],[109.026837,32.704805],[109.026785,32.704797],[109.026729,32.704791],[109.026671,32.704786],[109.026618,32.704782],[109.026564,32.704774],[109.026508,32.704764],[109.026452,32.704752],[109.026397,32.704739],[109.026335,32.704724],[109.026277,32.704709],[109.026215,32.704694],[109.026152,32.704678],[109.02609,32.704663],[109.026032,32.704646],[109.02597,32.704629],[109.025908,32.704611],[109.025846,32.704593],[109.025785,32.704574],[109.025723,32.704557],[109.025661,32.704541],[109.025598,32.704524],[109.025536,32.704508],[109.025475,32.704491],[109.025413,32.704473],[109.025351,32.704457],[109.025289,32.704441],[109.025228,32.704424],[109.025165,32.704409],[109.0251,32.704394],[109.025035,32.70438],[109.02497,32.704367],[109.024901,32.704355],[109.024833,32.704342],[109.024761,32.704329],[109.024687,32.704318],[109.024611,32.704308],[109.024533,32.704296],[109.024455,32.704283],[109.024377,32.704267],[109.024298,32.704249],[109.024218,32.704223],[109.024139,32.704194],[109.024057,32.704162],[109.023975,32.704129],[109.023895,32.704094],[109.023816,32.704058],[109.023738,32.704022],[109.023663,32.703985],[109.023588,32.703947],[109.023516,32.703909],[109.023445,32.70387],[109.023377,32.703832],[109.023308,32.703794],[109.023242,32.703758],[109.023175,32.70372],[109.023106,32.703681],[109.023037,32.703642],[109.022956,32.703593],[109.022872,32.703544],[109.02279,32.70349],[109.022711,32.70344],[109.02263,32.703387],[109.022562,32.703345],[109.022496,32.703305],[109.022429,32.703266],[109.022357,32.703229],[109.022288,32.703196],[109.022219,32.703162],[109.022152,32.703129],[109.022086,32.703097],[109.022017,32.703062],[109.021949,32.703026],[109.021881,32.702989],[109.021812,32.70295],[109.02174,32.702909],[109.021673,32.702868],[109.021607,32.702826],[109.021542,32.702783],[109.02148,32.702739],[109.021422,32.702697],[109.021363,32.702655],[109.021304,32.702613],[109.021245,32.70257],[109.021186,32.702524],[109.021132,32.702478],[109.021076,32.70243],[109.02102,32.702385],[109.020965,32.702341],[109.02091,32.702299],[109.020851,32.702257],[109.020796,32.702216],[109.020737,32.702175],[109.020678,32.702133],[109.02062,32.702093],[109.020561,32.702051],[109.020489,32.701999],[109.020421,32.701948],[109.020356,32.701898],[109.020291,32.70185],[109.020225,32.701804],[109.020174,32.701768],[109.020118,32.701732],[109.020063,32.701696],[109.020007,32.701659],[109.019955,32.70162],[109.019903,32.70158],[109.019854,32.701539],[109.019802,32.701498],[109.019746,32.701458],[109.019691,32.701422],[109.019629,32.701387],[109.019564,32.701356],[109.019499,32.701329],[109.019433,32.701304],[109.019369,32.701278],[109.019303,32.701253],[109.019238,32.701226],[109.019173,32.701196],[109.019108,32.701161],[109.019043,32.701122],[109.018984,32.70108],[109.018928,32.70103],[109.018877,32.700977],[109.018824,32.700918],[109.018775,32.700861],[109.018729,32.700806],[109.018687,32.70075],[109.018649,32.700698],[109.018613,32.700651],[109.018577,32.700603],[109.018541,32.70056],[109.018505,32.700523],[109.018469,32.70049],[109.018439,32.70046],[109.018421,32.700434],[109.018408,32.700404],[109.018401,32.700373],[109.018404,32.700338],[109.018414,32.700304],[109.018424,32.700268],[109.018437,32.700234],[109.018456,32.700201],[109.018475,32.700167],[109.018495,32.700133],[109.018514,32.700101],[109.018531,32.700075],[109.01855,32.700039],[109.01855,32.700035],[109.018697,32.700133],[109.018713,32.700096],[109.018716,32.700073],[109.01872,32.700044],[109.018723,32.700017],[109.018723,32.699989],[109.018729,32.699964],[109.018736,32.699942],[109.018752,32.699919],[109.018772,32.699894],[109.018798,32.699867],[109.018828,32.699835],[109.01886,32.6998],[109.01889,32.699763],[109.018919,32.699723],[109.018949,32.699684],[109.018974,32.699647],[109.019,32.699611],[109.019026,32.699574],[109.019049,32.699535],[109.019072,32.699492],[109.019095,32.69945],[109.019118,32.699407],[109.019144,32.699365],[109.01917,32.699326],[109.019193,32.699288],[109.019215,32.699251],[109.019228,32.699215],[109.019231,32.699183],[109.019234,32.699155],[109.019238,32.699128],[109.019241,32.699102],[109.019254,32.699076],[109.019274,32.699046],[109.019297,32.699017],[109.019319,32.698988],[109.019346,32.698959],[109.019372,32.698929],[109.019401,32.698897],[109.019431,32.698867],[109.019463,32.698837],[109.019495,32.698806],[109.019525,32.698774],[109.019554,32.69874],[109.019583,32.698705],[109.01961,32.698668],[109.019636,32.698633],[109.019665,32.6986],[109.019691,32.698571],[109.019718,32.698542],[109.019743,32.698516],[109.019766,32.698491],[109.019789,32.698467],[109.019811,32.698442],[109.019831,32.698417],[109.019851,32.698392],[109.01987,32.698367],[109.019887,32.698343],[109.019903,32.698319],[109.019919,32.698294],[109.019936,32.698269],[109.019952,32.698242],[109.019972,32.698214],[109.019991,32.698186],[109.020013,32.698157],[109.020036,32.698125],[109.020062,32.698091],[109.020088,32.698054],[109.020115,32.698014],[109.020141,32.69797],[109.020174,32.697926],[109.020206,32.69788],[109.020236,32.697836],[109.020271,32.697793],[109.020307,32.697754],[109.020343,32.697717],[109.020379,32.697683],[109.020418,32.697644],[109.020457,32.697604],[109.020493,32.697564],[109.020525,32.697522],[109.020561,32.697474],[109.020594,32.69743],[109.020623,32.697386],[109.020659,32.697339],[109.020692,32.697294],[109.020718,32.697252],[109.020747,32.697209],[109.020776,32.697167],[109.020802,32.697126],[109.020828,32.697085],[109.020857,32.697044],[109.020884,32.697005],[109.02091,32.696968],[109.020936,32.696933],[109.020965,32.696898],[109.020995,32.696863],[109.021028,32.696829],[109.021059,32.696795],[109.021089,32.69676],[109.021115,32.696725],[109.021135,32.696689],[109.021151,32.69665],[109.021167,32.696609],[109.021187,32.69657],[109.02121,32.696531],[109.021236,32.696494],[109.021265,32.69646],[109.021292,32.696427],[109.021313,32.696391],[109.021333,32.696352],[109.021356,32.696309],[109.021376,32.696265],[109.021398,32.696218],[109.021428,32.69617],[109.021461,32.696128],[109.02149,32.696089],[109.02152,32.696053],[109.021546,32.69602],[109.021568,32.69599],[109.021587,32.695958],[109.02161,32.695926],[109.021633,32.695893],[109.021659,32.695857],[109.021685,32.69582],[109.021715,32.695778],[109.021744,32.695734],[109.021787,32.695674],[109.021828,32.695613],[109.021874,32.695549],[109.021923,32.69548],[109.021972,32.69541],[109.022015,32.695351],[109.022057,32.695289],[109.022092,32.69523],[109.022125,32.695175],[109.022158,32.695118],[109.022187,32.695065],[109.022217,32.695017],[109.022246,32.694972],[109.022272,32.69493],[109.022295,32.694895],[109.022315,32.694863],[109.022331,32.694834],[109.022347,32.694808],[109.022363,32.694785],[109.022379,32.694763],[109.022395,32.694742],[109.022409,32.69472],[109.022422,32.694695],[109.022435,32.694668],[109.022448,32.69464],[109.022461,32.69461],[109.02248,32.694581],[109.0225,32.69455],[109.02252,32.694519],[109.022543,32.694487],[109.022566,32.694456],[109.022585,32.694424],[109.022605,32.694393],[109.022624,32.694358],[109.02264,32.69432],[109.022663,32.694272],[109.022686,32.694222],[109.022712,32.694172],[109.022741,32.694123],[109.022767,32.694074],[109.022787,32.694032],[109.022807,32.693989],[109.022823,32.693945],[109.022836,32.6939],[109.022852,32.693857],[109.022869,32.693813],[109.022885,32.693771],[109.0229,32.693728],[109.02292,32.693687],[109.02294,32.693645],[109.022963,32.693604],[109.022985,32.693562],[109.023008,32.693519],[109.023028,32.693475],[109.023048,32.693431],[109.023064,32.69339],[109.02308,32.693349],[109.023097,32.693312],[109.023113,32.693278],[109.023129,32.693246],[109.023146,32.693217],[109.023162,32.693189],[109.023177,32.693163],[109.023191,32.693138],[109.023204,32.693115],[109.023217,32.69309],[109.023227,32.693066],[109.023236,32.693038],[109.023249,32.693004],[109.023259,32.692966],[109.023269,32.692927],[109.023285,32.692885],[109.023308,32.69284],[109.023334,32.692796],[109.023364,32.692753],[109.023397,32.6927],[109.023426,32.692651],[109.023451,32.692604],[109.023474,32.692559],[109.023497,32.692514],[109.023517,32.692477],[109.023536,32.692438],[109.023553,32.692402],[109.023572,32.692364],[109.023592,32.692326],[109.023611,32.69229],[109.023631,32.692252],[109.023654,32.692214],[109.023674,32.692172],[109.023697,32.69213],[109.023718,32.692089],[109.023741,32.69205],[109.023764,32.69201],[109.023787,32.691973],[109.023807,32.691935],[109.023826,32.691898],[109.023849,32.691859],[109.023869,32.69182],[109.023892,32.691781],[109.023915,32.691742],[109.023938,32.691702],[109.023957,32.691662],[109.023979,32.691622],[109.023999,32.691583],[109.024018,32.691546],[109.024038,32.691508],[109.024058,32.691473],[109.024067,32.691442],[109.024074,32.691417],[109.024077,32.691396],[109.024077,32.691381],[109.024074,32.691372],[109.024077,32.691367],[109.024081,32.69136],[109.024087,32.691354],[109.024094,32.691347],[109.024103,32.691336],[109.024113,32.691322],[109.024126,32.691305],[109.024139,32.691282],[109.024152,32.691256],[109.024162,32.691226],[109.024172,32.691198],[109.024182,32.691171],[109.024188,32.691147],[109.024198,32.691125],[109.024208,32.691111],[109.024215,32.691101],[109.024218,32.691096],[109.024221,32.691096],[109.024221,32.6911]]}}]}