{"type":"FeatureCollection","features":[{"type":"Feature","properties":{"id":"2025-10-10_running_16","type":"running","date":"2025-10-10"},"geometry":{"type":"LineString","coordinates":[[121.399522,31.229972],[121.399552,31.229941],[121.399561,31.229932],[121.399578,31.229914],[121.399592,31.229899],[121.399606,31.229883],[121.399622,31.229867],[121.399639,31.22985],[121.399658,31.229833],[121.399679,31.229816],[121.399703,31.229801],[121.399726,31.229788],[121.399752,31.229777],[121.399778,31.229768],[121.399806,31.229761],[121.399832,31.229757],[121.399862,31.229753],[121.399891,31.229751],[121.399919,31.229751],[121.399945,31.229752],[121.399974,31.229754],[121.400003,31.229757],[121.400032,31.229763],[121.40006,31.22977],[121.40009,31.22978],[121.40012,31.229793],[121.400147,31.229807],[121.40017,31.22982],[121.400188,31.229832],[121.400204,31.229846],[121.400221,31.229864],[121.400239,31.229885],[121.400256,31.229907],[121.400272,31.229927],[121.400284,31.229951],[121.400294,31.229975],[121.400302,31.230001],[121.400307,31.230026],[121.400312,31.230055],[121.400316,31.230086],[121.400317,31.230115],[121.400313,31.230145],[121.400307,31.230172],[121.4003,31.230198],[121.400294,31.230221],[121.400288,31.230245],[121.400282,31.230269],[121.400275,31.230293],[121.400268,31.230316],[121.400261,31.23034],[121.400255,31.230361],[121.400247,31.230384],[121.40024,31.230408],[121.400232,31.230432],[121.400225,31.230454],[121.400217,31.230479],[121.400208,31.230505],[121.400199,31.230531],[121.400189,31.230561],[121.40018,31.230589],[121.40017,31.230615],[121.400162,31.230639],[121.400154,31.230661],[121.400147,31.230684],[121.400139,31.230704],[121.400132,31.230727],[121.400124,31.23075],[121.400116,31.230773],[121.400109,31.230794],[121.400101,31.230817],[121.400093,31.23084],[121.400085,31.230863],[121.400077,31.230884],[121.400067,31.230909],[121.400056,31.230936],[121.40004,31.230967],[121.400024,31.230994],[121.400007,31.231019],[121.399991,31.231039],[121.399973,31.231058],[121.399953,31.231076],[121.399932,31.231092],[121.399909,31.231107],[121.399884,31.23112],[121.399859,31.23113],[121.399833,31.231139],[121.399807,31.231146],[121.399777,31.231152],[121.399744,31.231157],[121.399706,31.231158],[121.399668,31.231157],[121.399627,31.231152],[121.399591,31.231147],[121.399557,31.23114],[121.399529,31.231132],[121.399502,31.231121],[121.399476,31.231109],[121.399451,31.231094],[121.399428,31.231077],[121.399408,31.23106],[121.39939,31.23104],[121.399374,31.23102],[121.39936,31.230999],[121.399348,31.230979],[121.399337,31.230956],[121.399327,31.230932],[121.39932,31.230907],[121.399315,31.230882],[121.39931,31.23085],[121.399307,31.230817],[121.399307,31.230786],[121.399311,31.230759],[121.399317,31.230736],[121.399324,31.230713],[121.39933,31.230689],[121.399337,31.230665],[121.399343,31.230641],[121.39935,31.230618],[121.399357,31.230595],[121.399363,31.230572],[121.399369,31.230552],[121.399375,31.230532],[121.399381,31.23051],[121.399389,31.230484],[121.399396,31.230458],[121.399405,31.230429],[121.399413,31.230399],[121.399421,31.230371],[121.399428,31.230346],[121.399434,31.230321],[121.399441,31.230297],[121.399447,31.230273],[121.399454,31.230248],[121.399462,31.230223],[121.39947,31.230198],[121.399477,31.230175],[121.399485,31.23015],[121.399492,31.230126],[121.3995,31.230101],[121.399508,31.230079],[121.399517,31.230052],[121.399527,31.230024],[121.399542,31.229988],[121.399557,31.229954],[121.399575,31.22992],[121.399591,31.229897],[121.399609,31.229875],[121.39963,31.229854],[121.399653,31.229833],[121.399677,31.229814],[121.399702,31.229797],[121.399727,31.229783],[121.399754,31.229771],[121.399781,31.229761],[121.399809,31.229753],[121.399839,31.229748],[121.399873,31.229744],[121.399907,31.229742],[121.39994,31.229742],[121.399977,31.229745],[121.400012,31.22975],[121.400045,31.229758],[121.400075,31.229767],[121.400103,31.229778],[121.40013,31.229791],[121.400154,31.229809],[121.400178,31.229827],[121.400201,31.229845],[121.400221,31.229862],[121.400242,31.229881],[121.40026,31.229901],[121.400276,31.229923],[121.400288,31.229945],[121.400298,31.229969],[121.400306,31.229994],[121.400312,31.23002],[121.400317,31.23005],[121.400321,31.230081],[121.400321,31.230111],[121.400317,31.23014],[121.400312,31.230166],[121.400305,31.23019],[121.400298,31.230212],[121.400291,31.230234],[121.400284,31.230257],[121.400277,31.230277],[121.40027,31.230301],[121.400262,31.230326],[121.400254,31.23035],[121.400246,31.230376],[121.400238,31.230402],[121.400229,31.230429],[121.400222,31.230454],[121.400212,31.230485],[121.400203,31.230516],[121.400193,31.230548],[121.400185,31.230573],[121.400177,31.230599],[121.400169,31.230624],[121.400161,31.23065],[121.400152,31.230676],[121.400143,31.230701],[121.400135,31.230725],[121.400127,31.23075],[121.400119,31.230771],[121.400111,31.230796],[121.400103,31.23082],[121.400094,31.230844],[121.400085,31.23087],[121.400075,31.230896],[121.400061,31.230928],[121.400047,31.230958],[121.400031,31.230989],[121.400016,31.231012],[121.399999,31.231035],[121.39998,31.231056],[121.399959,31.231075],[121.399936,31.231092],[121.399912,31.231107],[121.399887,31.231121],[121.399861,31.231131],[121.399834,31.231139],[121.399806,31.231146],[121.399778,31.23115],[121.399745,31.231154],[121.39971,31.231156],[121.399674,31.231157],[121.399632,31.231157],[121.399593,31.231153],[121.399556,31.231147],[121.399528,31.231139],[121.399499,31.231127],[121.399473,31.231114],[121.399448,31.231097],[121.399427,31.231079],[121.399408,31.231059],[121.399392,31.231039],[121.399376,31.231017],[121.399362,31.230995],[121.399351,31.230971],[121.399341,31.230946],[121.399334,31.23092],[121.399328,31.230892],[121.399324,31.230864],[121.399321,31.23083],[121.399321,31.230797],[121.399323,31.230766],[121.399327,31.230738],[121.399332,31.23071],[121.399338,31.230683],[121.399345,31.230656],[121.399352,31.230632],[121.399358,31.23061],[121.399364,31.230588],[121.39937,31.230566],[121.399376,31.230544],[121.399382,31.230524],[121.399388,31.2305],[121.399395,31.230477],[121.399402,31.230451],[121.399409,31.230428],[121.399417,31.230397],[121.399426,31.230368],[121.399435,31.230338],[121.399443,31.230314],[121.39945,31.230291],[121.399457,31.230271],[121.399463,31.230249],[121.39947,31.230227],[121.399477,31.230204],[121.399485,31.230179],[121.399493,31.230154],[121.3995,31.230129],[121.399508,31.230105],[121.399516,31.230081],[121.399524,31.230056],[121.399532,31.230034],[121.399542,31.230007],[121.399554,31.229978],[121.399569,31.229945],[121.399586,31.229917],[121.399604,31.229892],[121.399623,31.229872],[121.399644,31.229852],[121.399665,31.229834],[121.399688,31.229818],[121.399712,31.229803],[121.399736,31.229791],[121.399761,31.22978],[121.399788,31.229771],[121.399816,31.229762],[121.399845,31.229756],[121.399874,31.229752],[121.399907,31.229749],[121.399939,31.229749],[121.399977,31.22975],[121.400011,31.229752],[121.400041,31.229756],[121.400065,31.229764],[121.40009,31.229775],[121.400114,31.229786],[121.400138,31.229799],[121.400159,31.229813],[121.400181,31.229828],[121.400201,31.229844],[121.400221,31.229862],[121.40024,31.229881],[121.400256,31.229901],[121.400269,31.229921],[121.40028,31.229944],[121.40029,31.229966],[121.400298,31.22999],[121.400306,31.230018],[121.400312,31.230047],[121.400316,31.230077],[121.400315,31.230106],[121.400312,31.230134],[121.400306,31.23016],[121.400299,31.230184],[121.400292,31.230209],[121.400285,31.230234],[121.400276,31.230263],[121.400267,31.230291],[121.400257,31.230321],[121.400249,31.230348],[121.400241,31.230376],[121.400234,31.230402],[121.400225,31.23043],[121.400216,31.23046],[121.400207,31.230491],[121.400198,31.230521],[121.40019,31.230548],[121.400182,31.230573],[121.400175,31.230599],[121.400168,31.230624],[121.40016,31.23065],[121.400151,31.230676],[121.400143,31.230702],[121.400135,31.230728],[121.400127,31.230754],[121.400119,31.230779],[121.40011,31.230804],[121.4001,31.230827],[121.40009,31.230853],[121.40008,31.230879],[121.400067,31.230909],[121.400052,31.230938],[121.400036,31.230968],[121.400021,31.230994],[121.400003,31.231019],[121.399985,31.231042],[121.399964,31.231065],[121.399941,31.231085],[121.399917,31.231103],[121.399892,31.231118],[121.399865,31.23113],[121.399837,31.23114],[121.399808,31.231148],[121.399779,31.231154],[121.399748,31.231158],[121.399716,31.23116],[121.399684,31.231161],[121.399648,31.23116],[121.399614,31.231157],[121.399582,31.231151],[121.399555,31.231144],[121.399528,31.231134],[121.399502,31.231122],[121.399479,31.231108],[121.399456,31.231093],[121.399434,31.231076],[121.399414,31.231057],[121.399396,31.231036],[121.399379,31.231015],[121.399365,31.230992],[121.399354,31.230968],[121.399344,31.230944],[121.399336,31.230919],[121.39933,31.230894],[121.399326,31.230863],[121.399323,31.230832],[121.399322,31.230799],[121.399324,31.23077],[121.399328,31.230743],[121.399333,31.23072],[121.399339,31.230697],[121.399345,31.230673],[121.399351,31.230649],[121.399357,31.230626],[121.399363,31.230602],[121.39937,31.230577],[121.399377,31.230552],[121.399384,31.230528],[121.399391,31.230502],[121.399397,31.230478],[121.399405,31.23045],[121.399412,31.230418],[121.39942,31.230387],[121.399427,31.230357],[121.399434,31.230332],[121.399441,31.230306],[121.399448,31.230282],[121.399455,31.230256],[121.399463,31.230231],[121.399472,31.230204],[121.39948,31.23018],[121.399487,31.230156],[121.399494,31.230135],[121.399502,31.230111],[121.39951,31.230088],[121.399518,31.230064],[121.399527,31.230042],[121.399537,31.230016],[121.399551,31.229983],[121.399568,31.229949],[121.399586,31.229919],[121.399605,31.229894],[121.399624,31.229872],[121.399645,31.229852],[121.399665,31.229834],[121.399688,31.229818],[121.399711,31.229803],[121.399737,31.229789],[121.399763,31.229777],[121.39979,31.229766],[121.399819,31.229758],[121.399848,31.22975],[121.399876,31.229746],[121.399906,31.229746],[121.399939,31.229748],[121.399977,31.229751],[121.400013,31.229755],[121.400048,31.229761],[121.400076,31.22977],[121.400103,31.229782],[121.400131,31.229797],[121.400158,31.229814],[121.400182,31.229832],[121.400204,31.22985],[121.400223,31.229869],[121.40024,31.22989],[121.400256,31.229912],[121.400271,31.229935],[121.400284,31.229959],[121.400294,31.229983],[121.400303,31.23001],[121.40031,31.230038],[121.400315,31.230071],[121.400315,31.230104],[121.400312,31.230137],[121.400307,31.230163],[121.4003,31.23019],[121.400293,31.230213],[121.400286,31.230236],[121.400279,31.23026],[121.400272,31.230284],[121.400264,31.230308],[121.400257,31.230333],[121.400249,31.230357],[121.400241,31.230383],[121.400233,31.230406],[121.400225,31.230432],[121.400216,31.230459],[121.400206,31.230487],[121.400196,31.230518],[121.400186,31.230548],[121.400177,31.230578],[121.400169,31.230601],[121.400161,31.230628],[121.400153,31.230654],[121.400145,31.230681],[121.400138,31.230704],[121.400131,31.230729],[121.400123,31.230753],[121.400115,31.23078],[121.400107,31.230805],[121.400099,31.230831],[121.400091,31.230853],[121.400081,31.23088],[121.400071,31.230906],[121.400058,31.230936],[121.400041,31.230968],[121.400023,31.230999],[121.400005,31.231025],[121.399986,31.231047],[121.399965,31.231067],[121.399943,31.231085],[121.399918,31.231102],[121.399893,31.231117],[121.399866,31.23113],[121.399838,31.231141],[121.399807,31.231151],[121.399776,31.231158],[121.399745,31.231163],[121.399711,31.231166],[121.399678,31.231167],[121.399644,31.231165],[121.399613,31.231161],[121.399577,31.231152],[121.399544,31.231142],[121.399511,31.231128],[121.399485,31.231115],[121.399458,31.231098],[121.399433,31.231081],[121.39941,31.231062],[121.39939,31.231041],[121.399373,31.23102],[121.399359,31.230997],[121.399346,31.230973],[121.399336,31.230948],[121.399328,31.230923],[121.399323,31.230898],[121.39932,31.23087],[121.399319,31.230839],[121.39932,31.230809],[121.399324,31.230778],[121.39933,31.230751],[121.399336,31.230723],[121.399342,31.230699],[121.399348,31.230674],[121.399354,31.230648],[121.399361,31.230623],[121.399368,31.230598],[121.399374,31.230573],[121.399381,31.23055],[121.399387,31.230527],[121.399395,31.230501],[121.399402,31.230474],[121.399409,31.230447],[121.399416,31.230422],[121.399424,31.230394],[121.399431,31.230367],[121.39944,31.230336],[121.399447,31.230309],[121.399455,31.23028],[121.399463,31.230254],[121.399471,31.230229],[121.399478,31.230206],[121.399487,31.23018],[121.399495,31.230154],[121.399504,31.230128],[121.399513,31.230103],[121.399521,31.230077],[121.399531,31.230052],[121.399541,31.230025],[121.399553,31.229998],[121.39957,31.229965],[121.399591,31.229929],[121.399617,31.229892],[121.399642,31.229862],[121.399668,31.229838],[121.399694,31.229817],[121.399722,31.229799],[121.399751,31.229783],[121.399779,31.22977],[121.399807,31.229761],[121.399838,31.229755],[121.399869,31.229751],[121.399901,31.229748],[121.39993,31.229747],[121.39996,31.229748],[121.39999,31.229752],[121.400019,31.229757],[121.40005,31.229765],[121.400078,31.229775],[121.400109,31.229789],[121.400138,31.229806],[121.400165,31.229825],[121.400188,31.229844],[121.40021,31.229865],[121.400231,31.229887],[121.40025,31.229911],[121.400266,31.229934],[121.40028,31.229957],[121.400291,31.229981],[121.400301,31.230005],[121.400307,31.23003],[121.400311,31.230056],[121.400312,31.230082],[121.400311,31.230109],[121.400309,31.230134],[121.400304,31.230161],[121.400297,31.230191],[121.400288,31.23022],[121.400279,31.230248],[121.400271,31.230275],[121.400262,31.230303],[121.400254,31.230331],[121.400246,31.230359],[121.400238,31.230387],[121.400229,31.230413],[121.400221,31.230438],[121.400212,31.230465],[121.400203,31.23049],[121.400194,31.230518],[121.400185,31.230545],[121.400177,31.230572],[121.40017,31.230597],[121.400162,31.230624],[121.400154,31.230653],[121.400146,31.230683],[121.400138,31.230711],[121.40013,31.230737],[121.400122,31.230762],[121.400112,31.230789],[121.400103,31.230816],[121.400094,31.230842],[121.400085,31.230869],[121.400076,31.230895],[121.400064,31.230921],[121.400052,31.230946],[121.400039,31.230972],[121.400024,31.230997],[121.400007,31.231021],[121.399987,31.231044],[121.399965,31.231066],[121.39994,31.231087],[121.399913,31.231106],[121.399887,31.231123],[121.399861,31.231135],[121.399833,31.231146],[121.399803,31.231154],[121.399772,31.23116],[121.39974,31.231166],[121.399708,31.231168],[121.399677,31.231168],[121.399646,31.231165],[121.399617,31.23116],[121.399587,31.231152],[121.399558,31.231143],[121.399528,31.231132],[121.399501,31.231119],[121.399472,31.231103],[121.399442,31.231083],[121.399414,31.231061],[121.399392,31.23104],[121.399374,31.231018],[121.39936,31.230994],[121.399346,31.230969],[121.399334,31.230944],[121.399324,31.23092],[121.399317,31.230898],[121.399316,31.230874],[121.399317,31.230846],[121.399318,31.230817],[121.399319,31.230789],[121.399322,31.23076],[121.399326,31.230732],[121.399333,31.230705],[121.39934,31.230679],[121.39935,31.230651],[121.399358,31.230624],[121.399364,31.230596],[121.399369,31.230569],[121.399376,31.230542],[121.399386,31.230516],[121.399394,31.230489],[121.399402,31.230464],[121.399409,31.230437],[121.399415,31.230413],[121.399421,31.230389],[121.399432,31.230366],[121.399442,31.23034],[121.399451,31.230312],[121.399458,31.230285],[121.399467,31.230258],[121.399477,31.230233],[121.399486,31.230205],[121.399494,31.230177],[121.399501,31.230148],[121.39951,31.230122],[121.39952,31.230094],[121.399529,31.230067],[121.39954,31.230037],[121.399551,31.23001],[121.399565,31.229981],[121.39958,31.229953],[121.399595,31.229926],[121.399611,31.2299],[121.399627,31.229876],[121.399643,31.229855],[121.399661,31.229838],[121.399686,31.229822],[121.399714,31.229807],[121.399746,31.22979],[121.399777,31.229776],[121.399808,31.229765],[121.399838,31.229758],[121.399869,31.229753],[121.399901,31.22975],[121.399932,31.229749],[121.399962,31.229751],[121.399994,31.229755],[121.400026,31.229761],[121.400057,31.229768],[121.400084,31.229776],[121.40011,31.229788],[121.400135,31.229803],[121.40016,31.229822],[121.400185,31.229843],[121.400208,31.229864],[121.400232,31.229888],[121.400253,31.229913],[121.400271,31.229939],[121.400286,31.229964],[121.400298,31.229989],[121.400307,31.230015],[121.400313,31.230039],[121.400316,31.230064],[121.400317,31.230091],[121.400316,31.230115],[121.400312,31.230139],[121.400306,31.230163],[121.400299,31.230189],[121.400292,31.230215],[121.400283,31.230242],[121.400274,31.230269],[121.400265,31.230297],[121.400255,31.230328],[121.400247,31.230357],[121.400238,31.230386],[121.400229,31.230411],[121.400221,31.230438],[121.400212,31.230464],[121.400204,31.23049],[121.400196,31.230516],[121.400188,31.230543],[121.40018,31.23057],[121.400172,31.230597],[121.400165,31.230624],[121.400157,31.230652],[121.400148,31.230679],[121.40014,31.230704],[121.400132,31.230731],[121.400123,31.230757],[121.400112,31.230788],[121.400103,31.230816],[121.400092,31.230846],[121.400082,31.230872],[121.400072,31.2309],[121.400061,31.230927],[121.40005,31.230953],[121.400037,31.230978],[121.400022,31.231001],[121.400006,31.231021],[121.399986,31.231042],[121.399964,31.231061],[121.39994,31.23108],[121.399916,31.231096],[121.399892,31.23111],[121.399867,31.231123],[121.39984,31.231134],[121.399805,31.231143],[121.399767,31.231151],[121.399728,31.231158],[121.399694,31.231162],[121.39966,31.231162],[121.399628,31.231159],[121.399597,31.231154],[121.399568,31.231148],[121.399541,31.23114],[121.399515,31.23113],[121.39949,31.231119],[121.399465,31.231104],[121.399442,31.231088],[121.39942,31.231069],[121.3994,31.231049],[121.399381,31.231026],[121.399365,31.231003],[121.399348,31.230975],[121.399335,31.230949],[121.399324,31.230924],[121.399319,31.230901],[121.399316,31.230877],[121.399314,31.23085],[121.399314,31.230822],[121.399316,31.230793],[121.399319,31.230769],[121.399323,31.230747],[121.399329,31.230725],[121.399335,31.230702],[121.399341,31.230678],[121.399348,31.230656],[121.399355,31.23063],[121.399362,31.230604],[121.39937,31.230576],[121.399379,31.230545],[121.399389,31.230515],[121.399399,31.230483],[121.399406,31.230458],[121.399415,31.230433],[121.399422,31.230411],[121.399429,31.230387],[121.399437,31.230364],[121.399446,31.230338],[121.399454,31.230312],[121.399462,31.230286],[121.399469,31.230261],[121.399477,31.230235],[121.399485,31.230209],[121.399492,31.230187],[121.399501,31.230159],[121.39951,31.23013],[121.399519,31.230101],[121.399526,31.230077],[121.399533,31.230053],[121.399542,31.230028],[121.399552,31.230003],[121.399564,31.229976],[121.399578,31.229949],[121.399593,31.229925],[121.399609,31.229901],[121.399626,31.22988],[121.399647,31.22986],[121.399669,31.22984],[121.399693,31.229821],[121.399715,31.229806],[121.399741,31.229794],[121.399772,31.229782],[121.399805,31.229771],[121.399839,31.229761],[121.39987,31.229755],[121.399902,31.229751],[121.399934,31.22975],[121.399965,31.229753],[121.399996,31.229758],[121.400025,31.229765],[121.400055,31.229774],[121.400083,31.229784],[121.400113,31.229797],[121.40014,31.229811],[121.400166,31.229828],[121.400188,31.229845],[121.400209,31.229866],[121.400229,31.229887],[121.400249,31.229914],[121.400266,31.229942],[121.400281,31.229972],[121.400292,31.229998],[121.400301,31.230025],[121.400306,31.230053],[121.400309,31.230081],[121.400309,31.23011],[121.400307,31.230136],[121.400302,31.230163],[121.400296,31.23019],[121.400288,31.230216],[121.40028,31.230241],[121.400271,31.230266],[121.400263,31.230291],[121.400255,31.230317],[121.400247,31.230343],[121.400237,31.230374],[121.400228,31.230404],[121.400218,31.230435],[121.400211,31.230461],[121.400203,31.230488],[121.400195,31.230515],[121.400188,31.230542],[121.400181,31.23057],[121.400174,31.230597],[121.400166,31.230625],[121.400158,31.23065],[121.40015,31.230677],[121.400142,31.230703],[121.400133,31.230731],[121.400124,31.230758],[121.400115,31.230786],[121.400106,31.230811],[121.400095,31.230843],[121.400084,31.230875],[121.400071,31.230908],[121.400059,31.230937],[121.400048,31.230964],[121.400036,31.230988],[121.400022,31.231009],[121.400001,31.231031],[121.399978,31.231052],[121.399954,31.231072],[121.399929,31.231091],[121.399904,31.231108],[121.399877,31.231123],[121.39985,31.231136],[121.399821,31.231147],[121.399791,31.231157],[121.399762,31.231163],[121.399727,31.231166],[121.39969,31.231166],[121.399652,31.231163],[121.399618,31.231157],[121.399586,31.23115],[121.399554,31.231141],[121.399523,31.231129],[121.399495,31.231115],[121.39947,31.231101],[121.399446,31.231084],[121.399423,31.231065],[121.399402,31.231045],[121.399384,31.231024],[121.399368,31.231003],[121.399354,31.230981],[121.399343,31.230959],[121.399333,31.230936],[121.399325,31.230908],[121.399319,31.23088],[121.399316,31.230849],[121.399315,31.230824],[121.399316,31.230798],[121.399321,31.230767],[121.399327,31.230736],[121.399335,31.230705],[121.399342,31.230678],[121.399348,31.230651],[121.399355,31.230624],[121.399361,31.230598],[121.399368,31.230571],[121.399375,31.230545],[121.399383,31.230517],[121.399391,31.230492],[121.3994,31.230464],[121.399408,31.230438],[121.399417,31.230409],[121.399426,31.230382],[121.399435,31.230355],[121.399444,31.230328],[121.399453,31.230301],[121.399461,31.230275],[121.399469,31.230249],[121.399477,31.230223],[121.399484,31.230197],[121.399491,31.230173],[121.399498,31.230148],[121.399506,31.230122],[121.399515,31.230097],[121.399521,31.230071],[121.399525,31.230047],[121.399534,31.23002],[121.399546,31.229995],[121.399562,31.229967],[121.399577,31.229944],[121.399594,31.22992],[121.399613,31.229897],[121.399633,31.229875],[121.399654,31.229855],[121.399676,31.229836],[121.399699,31.229819],[121.399722,31.229805],[121.399748,31.229792],[121.399775,31.229781],[121.399804,31.229771],[121.399832,31.229763],[121.399862,31.229757],[121.399891,31.229754],[121.399925,31.229753],[121.399958,31.229755],[121.399993,31.229759],[121.400023,31.229765],[121.400055,31.229773],[121.400083,31.229783],[121.400112,31.229795],[121.40014,31.22981],[121.400167,31.229827],[121.400189,31.229843],[121.400212,31.229862],[121.400231,31.229882],[121.400248,31.229903],[121.400263,31.229926],[121.400277,31.22995],[121.400289,31.229974],[121.400298,31.229999],[121.400304,31.230029],[121.400311,31.230061],[121.400315,31.230092],[121.400316,31.230119],[121.400312,31.230144],[121.400306,31.230172],[121.400299,31.230199],[121.400292,31.230224],[121.400282,31.230249],[121.400272,31.230273],[121.400262,31.230298],[121.400254,31.230323],[121.400246,31.23035],[121.400238,31.23038],[121.400229,31.23041],[121.40022,31.230441],[121.400211,31.23047],[121.400201,31.230501],[121.400191,31.230533],[121.400182,31.230565],[121.400174,31.230595],[121.400166,31.230623],[121.400157,31.230651],[121.400149,31.230679],[121.400141,31.230707],[121.400132,31.230734],[121.400124,31.230761],[121.400115,31.230787],[121.400107,31.230812],[121.400099,31.230838],[121.400091,31.230863],[121.400082,31.230888],[121.400073,31.230914],[121.400062,31.230939],[121.400049,31.230966],[121.400034,31.230993],[121.400015,31.231019],[121.399995,31.231041],[121.399973,31.231062],[121.399948,31.231081],[121.399923,31.231099],[121.399898,31.231115],[121.399873,31.231128],[121.399845,31.23114],[121.399816,31.23115],[121.399786,31.231158],[121.399757,31.231163],[121.399725,31.231167],[121.399692,31.231168],[121.39966,31.231166],[121.399629,31.231163],[121.399596,31.231156],[121.399561,31.231147],[121.399527,31.231135],[121.399497,31.231122],[121.399469,31.231107],[121.399444,31.231089],[121.399421,31.23107],[121.3994,31.231049],[121.399383,31.231029],[121.399367,31.231006],[121.399352,31.230983],[121.39934,31.230959],[121.399331,31.230938],[121.399323,31.230913],[121.399317,31.230887],[121.399312,31.230861],[121.39931,31.230835],[121.399311,31.230806],[121.399314,31.230776],[121.39932,31.230746],[121.399326,31.230719],[121.399333,31.230692],[121.399339,31.230667],[121.399345,31.230641],[121.39935,31.230616],[121.399356,31.230591],[121.399362,31.230567],[121.399367,31.230544],[121.399375,31.230519],[121.399382,31.230494],[121.399391,31.230467],[121.3994,31.230443],[121.399409,31.230417],[121.399418,31.23039],[121.399429,31.23036],[121.399441,31.230329],[121.399452,31.230298],[121.399462,31.23027],[121.399472,31.230243],[121.399481,31.230216],[121.399489,31.23019],[121.399497,31.230164],[121.399504,31.230141],[121.399512,31.230116],[121.39952,31.230092],[121.399527,31.230067],[121.399534,31.230045],[121.399543,31.23002],[121.399553,31.229996],[121.399565,31.229971],[121.399578,31.229948],[121.399595,31.229922],[121.399614,31.229897],[121.399636,31.229872],[121.399658,31.22985],[121.399682,31.22983],[121.399708,31.229812],[121.399736,31.229796],[121.399767,31.229783],[121.399796,31.229772],[121.399827,31.229764],[121.399859,31.229758],[121.399891,31.229755],[121.399924,31.229753],[121.399955,31.229753],[121.399986,31.229755],[121.400016,31.229759],[121.400044,31.229767],[121.400076,31.229778],[121.400106,31.229792],[121.400135,31.229809],[121.400161,31.229827],[121.400184,31.229846],[121.400207,31.229867],[121.400225,31.229887],[121.400243,31.229911],[121.40026,31.229936],[121.400276,31.229962],[121.400289,31.229986],[121.400298,31.230009],[121.400303,31.230037],[121.400306,31.230069],[121.400307,31.2301],[121.400307,31.230129],[121.400303,31.230153],[121.400298,31.230178],[121.400292,31.230203],[121.400284,31.230231],[121.400277,31.230257],[121.400269,31.230283],[121.400262,31.230308],[121.400254,31.230334],[121.400246,31.23036],[121.400239,31.230383],[121.400231,31.230409],[121.400223,31.230434],[121.400215,31.23046],[121.400206,31.230486],[121.400198,31.230513],[121.400189,31.230539],[121.400181,31.230564],[121.400173,31.230588],[121.400164,31.230618],[121.400153,31.23065],[121.400143,31.230682],[121.400134,31.230708],[121.400126,31.230735],[121.400118,31.23076],[121.400109,31.230786],[121.400101,31.230811],[121.400093,31.230836],[121.400085,31.23086],[121.400078,31.230881],[121.400069,31.230904],[121.400058,31.23093],[121.400044,31.230959],[121.400029,31.230987],[121.400011,31.231013],[121.399992,31.231036],[121.399967,31.231059],[121.399941,31.231081],[121.399912,31.231101],[121.399885,31.231117],[121.399854,31.231131],[121.399823,31.231143],[121.399791,31.231153],[121.399759,31.23116],[121.399725,31.231164],[121.399691,31.231166],[121.399657,31.231166],[121.399626,31.231163],[121.399595,31.231157],[121.399566,31.231148],[121.399537,31.231138],[121.39951,31.231126],[121.399483,31.231113],[121.399454,31.231095],[121.399428,31.231075],[121.399403,31.231053],[121.399384,31.231033],[121.399366,31.23101],[121.399351,31.230987],[121.399338,31.230965],[121.399328,31.230942],[121.399321,31.230919],[121.399315,31.230896],[121.399311,31.230874],[121.399307,31.230851],[121.399305,31.230826],[121.399305,31.2308],[121.39931,31.230768],[121.399315,31.230739],[121.399322,31.230712],[121.399329,31.230686],[121.399337,31.230658],[121.399347,31.230628],[121.399355,31.230601],[121.399363,31.230576],[121.39937,31.230553],[121.399379,31.230527],[121.399387,31.230501],[121.399396,31.230474],[121.399404,31.230451],[121.399412,31.230426],[121.399421,31.2304],[121.39943,31.230372],[121.399438,31.230346],[121.399447,31.23032],[121.399454,31.230297],[121.399462,31.230272],[121.39947,31.230243],[121.399481,31.230211],[121.39949,31.230179],[121.399499,31.230151],[121.399508,31.230124],[121.399516,31.230099],[121.399523,31.230074],[121.39953,31.230052],[121.399537,31.230027],[121.399546,31.230002],[121.399557,31.229974],[121.39957,31.229948],[121.399586,31.229923],[121.399605,31.229898],[121.399624,31.229876],[121.399646,31.229855],[121.399668,31.229836],[121.399697,31.229817],[121.399729,31.2298],[121.399763,31.229785],[121.399794,31.229774],[121.399826,31.229766],[121.399857,31.229761],[121.39989,31.229759],[121.39992,31.229758],[121.399952,31.22976],[121.399983,31.229762],[121.400014,31.229766],[121.400043,31.229771],[121.400073,31.229781],[121.400102,31.229793],[121.40013,31.229809],[121.400156,31.229825],[121.400179,31.22984],[121.400201,31.229861],[121.40022,31.229885],[121.400239,31.229913],[121.400255,31.229937],[121.400269,31.229964],[121.40028,31.22999],[121.400288,31.230018],[121.400294,31.230045],[121.400298,31.230071],[121.400299,31.230097],[121.400299,31.230125],[121.400296,31.230154],[121.400291,31.230183],[121.400284,31.230211],[121.400278,31.230236],[121.400271,31.230262],[121.400264,31.230287],[121.400255,31.230316],[121.400246,31.23035],[121.400237,31.230382],[121.400229,31.23041],[121.400221,31.230438],[121.400213,31.230464],[121.400205,31.230491],[121.400198,31.230515],[121.40019,31.230541],[121.400182,31.230566],[121.400174,31.230592],[121.400166,31.230617],[121.400158,31.230643],[121.40015,31.230668],[121.400143,31.23069],[121.400135,31.230715],[121.400126,31.230739],[121.400116,31.23077],[121.400106,31.230799],[121.400095,31.230829],[121.400086,31.230856],[121.400077,31.23088],[121.400067,31.230906],[121.400056,31.230931],[121.400043,31.230959],[121.400029,31.230985],[121.400013,31.231009],[121.399998,31.231031],[121.39998,31.231051],[121.399961,31.23107],[121.39994,31.231089],[121.399916,31.231106],[121.399892,31.231122],[121.399866,31.231137],[121.399837,31.231149],[121.399805,31.23116],[121.39977,31.231169],[121.399738,31.231174],[121.399706,31.231177],[121.399675,31.231177],[121.399645,31.231175],[121.399616,31.231171],[121.399587,31.231164],[121.399559,31.231156],[121.39953,31.231145],[121.399502,31.231131],[121.399475,31.231116],[121.39945,31.231099],[121.399427,31.23108],[121.399406,31.231061],[121.399387,31.23104],[121.399368,31.231014],[121.39935,31.230987],[121.399335,31.23096],[121.399325,31.230937],[121.399317,31.230911],[121.399312,31.230885],[121.399309,31.230859],[121.399307,31.230833],[121.399308,31.230809],[121.399312,31.230782],[121.399317,31.230756],[121.399323,31.23073],[121.399328,31.230707],[121.399334,31.230682],[121.399341,31.230656],[121.399348,31.230628],[121.399355,31.230602],[121.399362,31.230573],[121.399372,31.230541],[121.399382,31.230509],[121.399391,31.23048],[121.3994,31.230452],[121.399409,31.230426],[121.399418,31.230399],[121.399427,31.230371],[121.399436,31.230344],[121.399445,31.230317],[121.399453,31.230293],[121.399461,31.230265],[121.399468,31.230239],[121.399477,31.23021],[121.399484,31.230184],[121.399493,31.230156],[121.399501,31.230129],[121.399511,31.230099],[121.399521,31.230069],[121.399531,31.230039],[121.399541,31.230012],[121.399551,31.229986],[121.399563,31.22996],[121.399576,31.229935],[121.399591,31.229912],[121.39961,31.229888],[121.399633,31.229865],[121.399657,31.229843],[121.399687,31.229822],[121.399719,31.229803],[121.399755,31.229786],[121.399786,31.229774],[121.399817,31.229764],[121.399853,31.229759],[121.399888,31.229756],[121.399925,31.229757],[121.399957,31.22976],[121.39999,31.229764],[121.400022,31.229768],[121.400052,31.229774],[121.400078,31.229783],[121.400105,31.229796],[121.400132,31.229812],[121.400157,31.229827],[121.400179,31.229844],[121.400202,31.229863],[121.400222,31.229885],[121.400241,31.229908],[121.400257,31.229933],[121.40027,31.229959],[121.400282,31.229992],[121.40029,31.230024],[121.400296,31.230058],[121.400298,31.230088],[121.400299,31.230118],[121.400297,31.230148],[121.400294,31.230177],[121.400289,31.230203],[121.400282,31.23023],[121.400275,31.230256],[121.400267,31.230282],[121.400258,31.230307],[121.40025,31.230334],[121.400241,31.23036],[121.400232,31.230386],[121.400223,31.230414],[121.400214,31.230442],[121.400206,31.230475],[121.400197,31.230507],[121.400188,31.23054],[121.40018,31.23057],[121.400172,31.230597],[121.400164,31.230626],[121.400154,31.230656],[121.400145,31.230686],[121.400136,31.230715],[121.400127,31.230743],[121.400118,31.230771],[121.400109,31.2308],[121.4001,31.230828],[121.400091,31.230855],[121.400082,31.230882],[121.400073,31.230908],[121.400062,31.230934],[121.400049,31.230962],[121.400035,31.23099],[121.400018,31.231018],[121.400001,31.231041],[121.399981,31.231063],[121.399962,31.231081],[121.399938,31.231099],[121.399913,31.231115],[121.399887,31.23113],[121.399861,31.231143],[121.399833,31.231154],[121.399803,31.231163],[121.39977,31.231171],[121.399739,31.231175],[121.399705,31.231177],[121.399671,31.231176],[121.399634,31.231172],[121.399597,31.231165],[121.39956,31.231157],[121.399526,31.231146],[121.399496,31.231133],[121.39947,31.231119],[121.399445,31.231102],[121.399423,31.231084],[121.399402,31.231064],[121.399386,31.231045],[121.39937,31.231026],[121.399356,31.231003],[121.399343,31.23098],[121.399331,31.230956],[121.399322,31.230933],[121.399313,31.230908],[121.399307,31.230884],[121.399304,31.230857],[121.399305,31.230827],[121.399308,31.230796],[121.399314,31.230764],[121.399321,31.230737],[121.399328,31.23071],[121.399335,31.230684],[121.399342,31.230658],[121.399349,31.230631],[121.399356,31.230604],[121.399362,31.230578],[121.399368,31.230554],[121.399376,31.230529],[121.399384,31.230504],[121.399392,31.230477],[121.399401,31.230451],[121.399411,31.230424],[121.399419,31.230398],[121.399429,31.230367],[121.399439,31.230336],[121.399449,31.230302],[121.399458,31.230273],[121.399466,31.230243],[121.399472,31.230214],[121.399479,31.230186],[121.399486,31.230158],[121.399494,31.230131],[121.399502,31.230105],[121.39951,31.230082],[121.39952,31.230057],[121.399529,31.230031],[121.399537,31.230005],[121.399547,31.22998],[121.399558,31.229955],[121.399571,31.229932],[121.399586,31.229911],[121.399603,31.22989],[121.399622,31.229871],[121.399642,31.229853],[121.399665,31.229836],[121.399692,31.229819],[121.39972,31.229805],[121.399749,31.229791],[121.399779,31.229779],[121.399812,31.229767],[121.399842,31.229758],[121.399871,31.22975],[121.399898,31.229749],[121.399927,31.229752],[121.399959,31.229757],[121.399989,31.229761],[121.400021,31.229767],[121.40005,31.229774],[121.400084,31.229787],[121.400116,31.229803],[121.400149,31.229821],[121.400177,31.22984],[121.400202,31.22986],[121.400225,31.229882],[121.400245,31.229905],[121.400261,31.229929],[121.400275,31.229953],[121.400285,31.229978],[121.400293,31.230005],[121.400298,31.230033],[121.400301,31.230059],[121.400302,31.230088],[121.400301,31.230115],[121.400298,31.230144],[121.400293,31.230172],[121.400288,31.230199],[121.400281,31.230225],[121.400273,31.230251],[121.400265,31.230277],[121.400257,31.230303],[121.400249,31.23033],[121.40024,31.230357],[121.400232,31.230384],[121.400224,31.230408],[121.400217,31.230432],[121.400209,31.230458],[121.400202,31.230485],[121.400194,31.230512],[121.400187,31.230541],[121.400179,31.230568],[121.400171,31.230596],[121.400164,31.230622],[121.400155,31.230648],[121.400148,31.230674],[121.400141,31.230699],[121.400134,31.230725],[121.400127,31.230749],[121.400119,31.230774],[121.400111,31.2308],[121.400102,31.230826],[121.400094,31.230851],[121.400085,31.230874],[121.400077,31.230897],[121.400068,31.23092],[121.400059,31.230943],[121.400048,31.230966],[121.400035,31.23099],[121.400021,31.231013],[121.400004,31.231035],[121.399986,31.231056],[121.399968,31.231074],[121.399943,31.231094],[121.399916,31.231112],[121.399885,31.23113],[121.399858,31.231143],[121.39983,31.231154],[121.399801,31.231163],[121.399771,31.231168],[121.39974,31.231172],[121.399709,31.231173],[121.39968,31.231172],[121.39965,31.231169],[121.39962,31.231165],[121.399589,31.231159],[121.399557,31.231152],[121.399528,31.231144],[121.3995,31.231134],[121.399474,31.231122],[121.399445,31.231103],[121.39942,31.231082],[121.399395,31.231058],[121.399375,31.231034],[121.399357,31.231008],[121.399343,31.230983],[121.399331,31.230958],[121.399322,31.230933],[121.399316,31.230906],[121.399311,31.23088],[121.39931,31.230854],[121.399311,31.230826],[121.399314,31.230797],[121.39932,31.230768],[121.399326,31.230741],[121.399333,31.230716],[121.39934,31.230691],[121.399348,31.230661],[121.399356,31.230631],[121.399363,31.230601],[121.399371,31.230572],[121.39938,31.230542],[121.39939,31.230512],[121.3994,31.230483],[121.399409,31.230453],[121.399418,31.230424],[121.399426,31.230395],[121.399435,31.230367],[121.399444,31.23034],[121.399453,31.230313],[121.399462,31.230288],[121.399469,31.23026],[121.399475,31.230233],[121.399479,31.230205],[121.399485,31.230171],[121.399491,31.230136],[121.399499,31.230099],[121.399504,31.230069],[121.399507,31.230053],[121.399509,31.230044]]}}]}