{"type":"FeatureCollection","features":[{"type":"Feature","properties":{"id":"2025-11-04_running_18","type":"running","date":"2025-11-04"},"geometry":{"type":"LineString","coordinates":[[121.39998,31.230816],[121.399554,31.230835],[121.399493,31.23083],[121.399371,31.230819],[121.399372,31.230788],[121.399375,31.230757],[121.399379,31.230725],[121.399385,31.230696],[121.399393,31.230666],[121.399406,31.230636],[121.399424,31.230604],[121.399445,31.230571],[121.399466,31.230537],[121.399489,31.2305],[121.399509,31.230461],[121.399533,31.230418],[121.399555,31.23038],[121.399577,31.230341],[121.399595,31.230306],[121.399614,31.230269],[121.399632,31.230232],[121.399648,31.230196],[121.39966,31.23016],[121.399669,31.230125],[121.399677,31.230093],[121.399682,31.230061],[121.399689,31.230028],[121.399699,31.229997],[121.399715,31.229968],[121.399737,31.229941],[121.399764,31.229914],[121.399795,31.229888],[121.39983,31.229865],[121.399865,31.229845],[121.399903,31.229828],[121.399939,31.229815],[121.399977,31.229804],[121.400014,31.229795],[121.40005,31.22979],[121.400087,31.229789],[121.400123,31.229792],[121.40016,31.229799],[121.400193,31.229812],[121.400228,31.229829],[121.400261,31.229847],[121.400292,31.229867],[121.40032,31.229884],[121.400343,31.229901],[121.400361,31.229923],[121.400375,31.22995],[121.400389,31.229978],[121.400401,31.230005],[121.400408,31.230031],[121.400412,31.230058],[121.400413,31.230083],[121.400412,31.230109],[121.40041,31.230135],[121.400406,31.230164],[121.4004,31.230194],[121.400393,31.230225],[121.400385,31.23026],[121.400377,31.230293],[121.400367,31.230328],[121.400351,31.230365],[121.400332,31.230403],[121.40031,31.230442],[121.400287,31.23048],[121.400261,31.23052],[121.400232,31.230559],[121.400204,31.230598],[121.400179,31.230639],[121.400163,31.230681],[121.400148,31.23072],[121.400132,31.230756],[121.400117,31.230787],[121.400102,31.230817],[121.40009,31.230846],[121.400077,31.230876],[121.400062,31.230905],[121.400047,31.230934],[121.400033,31.230963],[121.400017,31.230993],[121.4,31.231023],[121.399981,31.231053],[121.399961,31.231081],[121.399937,31.231106],[121.399912,31.23113],[121.399885,31.231151],[121.399859,31.231167],[121.399827,31.231181],[121.399793,31.231193],[121.399757,31.231202],[121.39972,31.231209],[121.399682,31.231213],[121.399643,31.231212],[121.399606,31.231205],[121.399569,31.231195],[121.399533,31.231181],[121.399499,31.231162],[121.399469,31.23114],[121.399439,31.231115],[121.399412,31.231088],[121.399388,31.231059],[121.399368,31.231027],[121.399351,31.230992],[121.399337,31.230957],[121.399327,31.230925],[121.399316,31.230891],[121.399308,31.230858],[121.399304,31.230824],[121.399308,31.230792],[121.39932,31.230762],[121.399335,31.230735],[121.399352,31.230709],[121.39937,31.23068],[121.399388,31.230648],[121.399406,31.230617],[121.399425,31.230586],[121.399442,31.230555],[121.399457,31.230525],[121.399469,31.230497],[121.399482,31.230467],[121.399493,31.230437],[121.399502,31.230409],[121.399507,31.230381],[121.399513,31.230356],[121.399521,31.230331],[121.399532,31.230308],[121.399547,31.230283],[121.399561,31.230257],[121.399576,31.230229],[121.39959,31.2302],[121.399605,31.230172],[121.399621,31.230141],[121.399637,31.230111],[121.399654,31.230081],[121.399672,31.230053],[121.399694,31.230022],[121.399717,31.229992],[121.399742,31.229962],[121.399768,31.229933],[121.399795,31.229906],[121.399825,31.229881],[121.399858,31.229861],[121.399891,31.229845],[121.399925,31.229831],[121.399957,31.229819],[121.399991,31.229809],[121.400025,31.229801],[121.400062,31.229795],[121.400096,31.229793],[121.40013,31.229795],[121.40016,31.229802],[121.400194,31.229813],[121.400227,31.229826],[121.400259,31.229837],[121.400283,31.229853],[121.400304,31.229874],[121.400322,31.229901],[121.400341,31.22993],[121.400357,31.22996],[121.400371,31.22999],[121.400381,31.230019],[121.400389,31.230052],[121.400395,31.230087],[121.400398,31.230121],[121.400396,31.230154],[121.400392,31.230186],[121.400385,31.230218],[121.400379,31.230248],[121.400373,31.230278],[121.400367,31.230306],[121.400357,31.230335],[121.400344,31.230361],[121.400329,31.230388],[121.400315,31.230415],[121.400298,31.230443],[121.400281,31.23047],[121.400264,31.230497],[121.400249,31.230525],[121.400235,31.230554],[121.40022,31.230584],[121.400203,31.230613],[121.400185,31.230643],[121.40017,31.230672],[121.400155,31.2307],[121.400139,31.23073],[121.400123,31.23076],[121.400109,31.230792],[121.400097,31.230823],[121.400087,31.230856],[121.400076,31.230889],[121.400063,31.230923],[121.400047,31.230958],[121.400029,31.230992],[121.400009,31.231025],[121.399987,31.231055],[121.399964,31.231084],[121.399939,31.231111],[121.399915,31.231135],[121.399887,31.231157],[121.399858,31.231177],[121.399825,31.231194],[121.399793,31.231207],[121.399761,31.231218],[121.399729,31.231224],[121.3997,31.231228],[121.399672,31.231229],[121.399647,31.231227],[121.39962,31.231223],[121.399593,31.231215],[121.399566,31.231206],[121.39954,31.231195],[121.399515,31.231183],[121.399491,31.23117],[121.399467,31.231156],[121.399444,31.23114],[121.399422,31.231122],[121.399404,31.231103],[121.399387,31.23108],[121.399372,31.231055],[121.399355,31.231026],[121.399341,31.230997],[121.399328,31.230966],[121.399318,31.230938],[121.399309,31.230909],[121.399302,31.230881],[121.399298,31.230854],[121.399298,31.230826],[121.3993,31.230797],[121.399304,31.230768],[121.399312,31.230739],[121.399323,31.230709],[121.399338,31.230679],[121.399355,31.230649],[121.399374,31.230617],[121.399396,31.230583],[121.399419,31.230548],[121.399441,31.230513],[121.399458,31.230479],[121.399471,31.230445],[121.399481,31.230414],[121.399491,31.230383],[121.399502,31.230357],[121.399515,31.230329],[121.399529,31.230301],[121.399544,31.230274],[121.399557,31.230247],[121.399568,31.230219],[121.399577,31.23019],[121.399583,31.230163],[121.399589,31.230132],[121.399595,31.2301],[121.399603,31.230064],[121.399611,31.230032],[121.39962,31.230002],[121.399637,31.22997],[121.399659,31.229938],[121.399687,31.229905],[121.399711,31.229879],[121.399738,31.229854],[121.399763,31.229832],[121.399793,31.229812],[121.399825,31.229794],[121.399858,31.229778],[121.399891,31.229765],[121.399923,31.229755],[121.399955,31.229748],[121.399984,31.229746],[121.400012,31.229746],[121.400042,31.229745],[121.400068,31.229743],[121.40009,31.229742],[121.40011,31.229746],[121.400132,31.229754],[121.400158,31.229766],[121.400184,31.22978],[121.400208,31.229796],[121.400232,31.229817],[121.400253,31.229842],[121.400273,31.22987],[121.40029,31.2299],[121.400306,31.229928],[121.400322,31.229958],[121.400338,31.229984],[121.400355,31.230012],[121.400369,31.230041],[121.400379,31.230072],[121.400383,31.230105],[121.400383,31.230135],[121.40038,31.230164],[121.400374,31.230192],[121.400367,31.230219],[121.400357,31.230244],[121.400347,31.230267],[121.400335,31.230291],[121.400322,31.230314],[121.400308,31.230338],[121.400296,31.230359],[121.400283,31.230381],[121.400269,31.230402],[121.400254,31.230423],[121.400237,31.230445],[121.400219,31.230469],[121.4002,31.230496],[121.400182,31.230523],[121.400162,31.230552],[121.400141,31.230583],[121.400121,31.230615],[121.400105,31.230644],[121.400093,31.230671],[121.400082,31.230696],[121.400071,31.230717],[121.400063,31.230737],[121.400059,31.230757],[121.400059,31.230774],[121.400062,31.230792],[121.400065,31.230806],[121.400067,31.230821],[121.400067,31.230832],[121.400063,31.23084],[121.400055,31.230846],[121.400046,31.230848],[121.400035,31.230848],[121.400025,31.230848],[121.400016,31.230846],[121.400009,31.230846],[121.400005,31.230845],[121.400003,31.230845],[121.400002,31.230843],[121.400001,31.230842],[121.400001,31.230845],[121.400001,31.230848],[121.400001,31.230851]]}}]}