{"type":"FeatureCollection","features":[{"type":"Feature","properties":{"id":"2025-05-07_running_14","type":"running","date":"2025-05-07"},"geometry":{"type":"LineString","coordinates":[[121.399557,31.229977],[121.399585,31.229938],[121.399593,31.229927],[121.39961,31.229904],[121.399627,31.229885],[121.399645,31.229866],[121.399666,31.229847],[121.39969,31.229829],[121.399718,31.229813],[121.399751,31.229799],[121.399785,31.229786],[121.399821,31.229776],[121.399857,31.229768],[121.399893,31.229763],[121.39993,31.229761],[121.399965,31.229761],[121.400001,31.229764],[121.400036,31.22977],[121.400071,31.229779],[121.400105,31.229791],[121.400138,31.229805],[121.40017,31.229823],[121.400198,31.229843],[121.400226,31.229868],[121.400253,31.229895],[121.400276,31.229924],[121.400295,31.229955],[121.40031,31.229988],[121.400321,31.230022],[121.400327,31.230059],[121.400327,31.230099],[121.400323,31.230144],[121.400315,31.230187],[121.400306,31.230225],[121.400297,31.230257],[121.400289,31.230286],[121.40028,31.230316],[121.400271,31.230346],[121.400262,31.230377],[121.400253,31.230408],[121.400244,31.230439],[121.400235,31.23047],[121.400225,31.230502],[121.400217,31.230531],[121.400207,31.230564],[121.400197,31.230596],[121.400188,31.230629],[121.400177,31.230664],[121.400166,31.230699],[121.400154,31.230741],[121.400142,31.230778],[121.40013,31.230813],[121.40012,31.230845],[121.400109,31.230875],[121.400098,31.230904],[121.400087,31.23093],[121.400076,31.230955],[121.400062,31.230983],[121.400047,31.231011],[121.400025,31.231043],[121.399999,31.231072],[121.39997,31.2311],[121.399942,31.23112],[121.39991,31.231138],[121.399876,31.231153],[121.399839,31.231165],[121.399793,31.231175],[121.399747,31.231183],[121.3997,31.231187],[121.399658,31.231185],[121.399618,31.23118],[121.399578,31.231172],[121.399539,31.231162],[121.399502,31.231148],[121.399466,31.231131],[121.399435,31.231112],[121.399405,31.23109],[121.399378,31.231065],[121.399356,31.23104],[121.399338,31.231014],[121.399322,31.230985],[121.399309,31.230954],[121.3993,31.230918],[121.399296,31.230879],[121.399296,31.230838],[121.399301,31.230799],[121.399309,31.230765],[121.399319,31.230732],[121.399329,31.230699],[121.399339,31.230667],[121.399349,31.230634],[121.399358,31.230603],[121.399366,31.230571],[121.399375,31.23054],[121.399383,31.230509],[121.399392,31.230479],[121.399401,31.230448],[121.39941,31.230418],[121.39942,31.230386],[121.39943,31.230355],[121.399442,31.230318],[121.399454,31.230281],[121.399465,31.230246],[121.399474,31.230215],[121.399484,31.230184],[121.399494,31.230154],[121.399505,31.230123],[121.399516,31.230093],[121.399527,31.230062],[121.399538,31.230033],[121.399551,31.230003],[121.399565,31.229974],[121.39958,31.229946],[121.399598,31.22992],[121.399618,31.229894],[121.399643,31.229869],[121.39967,31.229845],[121.399706,31.229821],[121.399745,31.229801],[121.399787,31.229785],[121.399826,31.229773],[121.399864,31.229765],[121.399902,31.229761],[121.399941,31.22976],[121.399979,31.229761],[121.400014,31.229764],[121.40005,31.22977],[121.400083,31.229779],[121.400114,31.22979],[121.400144,31.229804],[121.400171,31.229821],[121.400198,31.22984],[121.400226,31.229864],[121.400253,31.229892],[121.400279,31.229925],[121.400299,31.229958],[121.400314,31.229993],[121.400323,31.230025],[121.400328,31.230059],[121.400329,31.230093],[121.400327,31.23013],[121.400323,31.230166],[121.400317,31.2302],[121.40031,31.230232],[121.400303,31.230263],[121.400295,31.230293],[121.400287,31.230322],[121.400278,31.230351],[121.400268,31.230382],[121.400257,31.230415],[121.400246,31.230452],[121.400234,31.23049],[121.400222,31.230531],[121.40021,31.230569],[121.400199,31.230603],[121.40019,31.230634],[121.400181,31.230668],[121.400172,31.230702],[121.400163,31.230736],[121.400155,31.230767],[121.400146,31.230798],[121.400136,31.230829],[121.400127,31.230858],[121.400116,31.230889],[121.400104,31.230919],[121.40009,31.230949],[121.400075,31.23098],[121.400056,31.23101],[121.400032,31.231044],[121.400005,31.231074],[121.399976,31.231101],[121.399947,31.231122],[121.399914,31.231142],[121.39988,31.231158],[121.399843,31.231172],[121.399806,31.231182],[121.399767,31.231189],[121.399728,31.231193],[121.399691,31.231193],[121.399654,31.231191],[121.399616,31.231185],[121.399577,31.231177],[121.399541,31.231166],[121.399503,31.231151],[121.399469,31.231134],[121.399433,31.231111],[121.399403,31.231088],[121.399374,31.231062],[121.399354,31.231038],[121.399335,31.231012],[121.399321,31.230986],[121.399309,31.230958],[121.3993,31.23093],[121.399295,31.230902],[121.399293,31.230875],[121.399294,31.230846],[121.399297,31.230817],[121.399302,31.230789],[121.399309,31.230761],[121.399316,31.230731],[121.399325,31.2307],[121.399334,31.230668],[121.399345,31.230631],[121.399355,31.230596],[121.399364,31.230562],[121.399373,31.230532],[121.399382,31.230502],[121.399392,31.230471],[121.399401,31.230442],[121.39941,31.230412],[121.399418,31.23038],[121.399427,31.230349],[121.399437,31.230316],[121.399446,31.230283],[121.399456,31.23025],[121.399466,31.23022],[121.399476,31.230189],[121.399487,31.230157],[121.399497,31.230126],[121.39951,31.230091],[121.399523,31.23006],[121.399536,31.23003],[121.39955,31.230003],[121.399565,31.229975],[121.399581,31.229946],[121.399599,31.229919],[121.39962,31.229892],[121.399645,31.229867],[121.399672,31.229844],[121.3997,31.229822],[121.39973,31.229804],[121.39976,31.22979],[121.399792,31.22978],[121.399828,31.229771],[121.399866,31.229764],[121.399905,31.22976],[121.399945,31.22976],[121.399985,31.229763],[121.400024,31.22977],[121.400059,31.22978],[121.400093,31.229792],[121.400124,31.229806],[121.400155,31.229822],[121.400184,31.22984],[121.400212,31.22986],[121.400237,31.229882],[121.400258,31.229904],[121.400277,31.229928],[121.400293,31.229954],[121.400309,31.229985],[121.400321,31.230018],[121.400329,31.230051],[121.400331,31.230085],[121.40033,31.230122],[121.400325,31.230159],[121.400319,31.230194],[121.400311,31.230226],[121.400301,31.230256],[121.400291,31.230286],[121.400281,31.230316],[121.400271,31.230346],[121.400262,31.230378],[121.400252,31.230409],[121.400244,31.230441],[121.400234,31.230473],[121.400225,31.230505],[121.400215,31.230538],[121.400204,31.230571],[121.400193,31.230606],[121.400182,31.230641],[121.400172,31.23068],[121.400162,31.230719],[121.400153,31.230757],[121.400143,31.23079],[121.400132,31.230822],[121.400121,31.230854],[121.40011,31.230885],[121.400098,31.230914],[121.400086,31.230943],[121.400074,31.230972],[121.40006,31.230999],[121.400044,31.231024],[121.400026,31.231048],[121.400005,31.231071],[121.39998,31.231094],[121.399952,31.231115],[121.399921,31.231135],[121.399884,31.231155],[121.399847,31.231171],[121.399807,31.231185],[121.399771,31.231193],[121.399734,31.231197],[121.399699,31.231199],[121.399663,31.231198],[121.399628,31.231194],[121.399593,31.231188],[121.399561,31.23118],[121.399528,31.231168],[121.399497,31.231153],[121.399466,31.231136],[121.399437,31.231115],[121.399409,31.231092],[121.399384,31.231066],[121.399363,31.23104],[121.399343,31.231007],[121.399327,31.230974],[121.399314,31.230939],[121.399306,31.230908],[121.3993,31.230874],[121.399299,31.230842],[121.399302,31.230813],[121.399307,31.230788],[121.399313,31.230762],[121.399319,31.230736],[121.399326,31.230709],[121.399333,31.230681],[121.399341,31.230653],[121.399349,31.230624],[121.399357,31.230595],[121.399366,31.230564],[121.399376,31.230532],[121.399387,31.230497],[121.399397,31.230462],[121.399407,31.230429],[121.399415,31.230402],[121.399423,31.230374],[121.399431,31.230346],[121.39944,31.230316],[121.399449,31.230286],[121.399458,31.230255],[121.399468,31.230225],[121.399477,31.230196],[121.399486,31.230167],[121.399496,31.230139],[121.399506,31.230111],[121.399517,31.230082],[121.399528,31.230055],[121.399543,31.23002],[121.399562,31.229981],[121.399583,31.229943],[121.399604,31.229913],[121.399625,31.229889],[121.39965,31.229866],[121.399677,31.229845],[121.399706,31.229827],[121.399737,31.229811],[121.399768,31.229797],[121.399801,31.229786],[121.399834,31.229779],[121.399869,31.229773],[121.399906,31.22977],[121.399942,31.229769],[121.399979,31.229772],[121.400017,31.229778],[121.400054,31.229787],[121.400094,31.229799],[121.40013,31.229811],[121.400163,31.229828],[121.400189,31.229846],[121.400216,31.229869],[121.400243,31.229891],[121.400264,31.229915],[121.400281,31.229939],[121.400295,31.229964],[121.400307,31.229991],[121.400316,31.23002],[121.400322,31.230051],[121.400325,31.230083],[121.400325,31.230112],[121.400323,31.230143],[121.400319,31.230175],[121.400312,31.230209],[121.400304,31.230243],[121.400296,31.230276],[121.400288,31.230308],[121.400279,31.230341],[121.400271,31.230371],[121.400261,31.230404],[121.400251,31.230436],[121.400241,31.230469],[121.400231,31.2305],[121.400221,31.230529],[121.400211,31.230559],[121.400201,31.230587],[121.400191,31.230618],[121.400181,31.23065],[121.400172,31.230682],[121.400162,31.230718],[121.400152,31.230755],[121.400141,31.230792],[121.400131,31.230827],[121.400122,31.230859],[121.400113,31.230891],[121.400103,31.230919],[121.400093,31.230949],[121.40008,31.230977],[121.400066,31.231004],[121.400049,31.23103],[121.400029,31.231054],[121.400006,31.231077],[121.399981,31.231098],[121.399951,31.23112],[121.39992,31.231139],[121.399887,31.231157],[121.399847,31.231171],[121.399803,31.231182],[121.399756,31.23119],[121.399714,31.231193],[121.399675,31.231194],[121.399638,31.231191],[121.399602,31.231186],[121.399568,31.231177],[121.399535,31.231166],[121.399504,31.231151],[121.399473,31.231133],[121.399445,31.231115],[121.399419,31.231093],[121.399395,31.23107],[121.399374,31.231045],[121.399357,31.231018],[121.399343,31.230989],[121.399331,31.230955],[121.399323,31.230921],[121.399317,31.230887],[121.399316,31.230857],[121.399317,31.230827],[121.399321,31.230796],[121.399326,31.230766],[121.399332,31.230736],[121.399339,31.230706],[121.399347,31.230679],[121.399355,31.23065],[121.399363,31.23062],[121.399371,31.230589],[121.39938,31.230558],[121.399388,31.230526],[121.399398,31.230495],[121.399406,31.230468],[121.399416,31.230437],[121.399426,31.230404],[121.399435,31.230368],[121.399444,31.230336],[121.399452,31.230307],[121.39946,31.230278],[121.399469,31.230248],[121.399478,31.230219],[121.399488,31.23019],[121.399497,31.23016],[121.399507,31.230131],[121.399516,31.230103],[121.399527,31.230074],[121.399539,31.230044],[121.399553,31.230014],[121.399568,31.229983],[121.399584,31.229955],[121.399604,31.229925],[121.399626,31.229898],[121.399651,31.229873],[121.399676,31.229851],[121.399703,31.229832],[121.399733,31.229815],[121.399762,31.229801],[121.399795,31.229788],[121.399828,31.229778],[121.399863,31.229771],[121.399896,31.229767],[121.39993,31.229766],[121.399963,31.229766],[121.399996,31.229769],[121.40003,31.229774],[121.400063,31.229782],[121.400096,31.229791],[121.400127,31.229803],[121.400156,31.229817],[121.400184,31.229836],[121.400208,31.229856],[121.400231,31.229877],[121.40025,31.229896],[121.400268,31.229918],[121.400283,31.229941],[121.400295,31.229967],[121.400305,31.229994],[121.400313,31.230022],[121.400318,31.230052],[121.400321,31.230081],[121.400323,31.23011],[121.400323,31.230138],[121.400319,31.230169],[121.400313,31.2302],[121.400305,31.230235],[121.400297,31.230268],[121.400289,31.230303],[121.400281,31.230336],[121.400272,31.230368],[121.400262,31.230402],[121.40025,31.230433],[121.400239,31.230465],[121.400228,31.230497],[121.400217,31.230528],[121.400206,31.230559],[121.400196,31.230587],[121.400187,31.230616],[121.400176,31.230647],[121.400165,31.230678],[121.400154,31.23071],[121.400144,31.23074],[121.400134,31.230775],[121.400123,31.230811],[121.400113,31.230848],[121.400105,31.230881],[121.400098,31.23091],[121.400089,31.230939],[121.400079,31.230966],[121.400068,31.230992],[121.400056,31.231015],[121.400041,31.231037],[121.400023,31.231058],[121.400001,31.231079],[121.399978,31.231099],[121.399951,31.231119],[121.399924,31.231137],[121.399894,31.231153],[121.399865,31.231166],[121.399829,31.231178],[121.399792,31.231187],[121.399752,31.231194],[121.399714,31.231198],[121.399677,31.231198],[121.399642,31.231196],[121.399607,31.231191],[121.399574,31.231183],[121.399541,31.231173],[121.399512,31.231161],[121.399485,31.231148],[121.399461,31.231133],[121.399436,31.231116],[121.399412,31.231097],[121.39939,31.231075],[121.399371,31.231051],[121.399355,31.231027],[121.399341,31.230999],[121.399331,31.230972],[121.399323,31.230943],[121.399319,31.230918],[121.399317,31.230891],[121.399317,31.230865],[121.39932,31.230837],[121.399323,31.23081],[121.399327,31.230783],[121.399332,31.230756],[121.399337,31.230729],[121.399342,31.230701],[121.399347,31.230675],[121.399354,31.230646],[121.399361,31.230617],[121.399369,31.230587],[121.399377,31.230558],[121.399386,31.230526],[121.399395,31.230494],[121.399405,31.230463],[121.399413,31.230435],[121.399422,31.230406],[121.39943,31.230378],[121.399437,31.230352],[121.399444,31.230329],[121.39945,31.230304],[121.399457,31.230278],[121.399465,31.23025],[121.399474,31.230221],[121.399483,31.23019],[121.399492,31.230158],[121.399501,31.230127],[121.399511,31.230096],[121.399521,31.230065],[121.399533,31.230032],[121.399547,31.230001],[121.399562,31.22997],[121.399578,31.229943],[121.399595,31.229915],[121.399613,31.22989],[121.399635,31.229865],[121.399658,31.229842],[121.399684,31.22982],[121.399711,31.229803],[121.39974,31.229787],[121.39977,31.229775],[121.399801,31.229766],[121.399831,31.22976],[121.399863,31.229758],[121.399896,31.229758],[121.399929,31.229761],[121.399966,31.229764],[121.400002,31.229768],[121.400039,31.229774],[121.400071,31.229783],[121.400101,31.229795],[121.400128,31.229807],[121.400155,31.229824],[121.40018,31.229842],[121.400205,31.229863],[121.400227,31.229883],[121.400249,31.229907],[121.400269,31.229934],[121.400285,31.229963],[121.400299,31.229994],[121.400309,31.230025],[121.400316,31.230058],[121.40032,31.23009],[121.400321,31.230126],[121.400317,31.230161],[121.40031,31.230199],[121.400302,31.230231],[121.400294,31.230264],[121.400287,31.230296],[121.40028,31.230328],[121.400273,31.230358],[121.400266,31.230386],[121.400257,31.230415],[121.400248,31.230444],[121.400237,31.230473],[121.400226,31.230502],[121.400215,31.230531],[121.400204,31.23056],[121.400193,31.230589],[121.400183,31.230618],[121.400172,31.230652],[121.400162,31.230685],[121.40015,31.230719],[121.40014,31.230749],[121.400129,31.230779],[121.400118,31.23081],[121.400107,31.230842],[121.400097,31.230872],[121.400088,31.2309],[121.400078,31.230928],[121.400068,31.230956],[121.400057,31.230983],[121.400046,31.231007],[121.400032,31.231029],[121.400014,31.231051],[121.399994,31.231071],[121.399972,31.231091],[121.399947,31.231112],[121.399917,31.231133],[121.399884,31.231153],[121.399852,31.231168],[121.39982,31.23118],[121.399785,31.23119],[121.39975,31.231196],[121.399715,31.231199],[121.399681,31.2312],[121.399647,31.231198],[121.399613,31.231194],[121.399581,31.231187],[121.399548,31.231178],[121.39952,31.231167],[121.399492,31.231154],[121.399468,31.231139],[121.399443,31.231122],[121.399418,31.231101],[121.399394,31.231075],[121.399371,31.231047],[121.399354,31.231021],[121.399341,31.230996],[121.399331,31.23097],[121.399324,31.230943],[121.39932,31.230917],[121.399319,31.230891],[121.39932,31.230866],[121.399323,31.230839],[121.399327,31.230815],[121.399332,31.230788],[121.399337,31.230762],[121.399342,31.230735],[121.399347,31.230708],[121.399354,31.230681],[121.399361,31.230647],[121.399369,31.230614],[121.399376,31.23058],[121.399384,31.230549],[121.399393,31.230519],[121.399402,31.23049],[121.399411,31.230461],[121.39942,31.230433],[121.399429,31.230405],[121.399438,31.230376],[121.399447,31.230346],[121.399457,31.230315],[121.399467,31.230286],[121.399476,31.230254],[121.399485,31.230223],[121.399493,31.230191],[121.3995,31.23016],[121.399509,31.230125],[121.399517,31.230091],[121.399526,31.230059],[121.399534,31.230035],[121.399542,31.230015],[121.399548,31.229998],[121.399555,31.229983],[121.399561,31.22997],[121.399568,31.229957],[121.399575,31.229946],[121.39958,31.229933],[121.399586,31.229919],[121.399593,31.229904],[121.399602,31.229889],[121.399612,31.229874],[121.399623,31.22986],[121.399635,31.229846],[121.399651,31.229832],[121.399667,31.229815],[121.399686,31.229796],[121.399704,31.229781],[121.399725,31.229768],[121.399753,31.229763],[121.399783,31.22976],[121.3998,31.22976],[121.399809,31.229759]]}}]}