{"type":"FeatureCollection","features":[{"type":"Feature","properties":{"id":"2025-10-13_running_17","type":"running","date":"2025-10-13"},"geometry":{"type":"LineString","coordinates":[[121.39955,31.22993],[121.399583,31.229886],[121.399592,31.229875],[121.399612,31.229853],[121.39963,31.229836],[121.399651,31.22982],[121.399677,31.229804],[121.399706,31.229789],[121.399738,31.229775],[121.399769,31.229762],[121.399799,31.229752],[121.399825,31.229745],[121.399852,31.229744],[121.39988,31.229744],[121.399909,31.229743],[121.39994,31.229741],[121.399972,31.229741],[121.400004,31.229745],[121.400036,31.229752],[121.400067,31.229759],[121.400098,31.229768],[121.400127,31.22978],[121.400157,31.229797],[121.400185,31.229816],[121.40021,31.229836],[121.400231,31.229855],[121.400248,31.229875],[121.400263,31.229894],[121.400275,31.229912],[121.400286,31.229931],[121.400295,31.22995],[121.400303,31.22997],[121.400308,31.22999],[121.400313,31.230014],[121.400316,31.230038],[121.40032,31.230065],[121.400322,31.230092],[121.400322,31.23012],[121.400321,31.230149],[121.400319,31.230177],[121.400316,31.230205],[121.400312,31.230229],[121.400308,31.230251],[121.400304,31.230272],[121.400299,31.23029],[121.400293,31.230308],[121.400286,31.230329],[121.400279,31.230351],[121.400272,31.230373],[121.400266,31.230397],[121.40026,31.230421],[121.400254,31.230448],[121.400247,31.230473],[121.40024,31.230498],[121.400233,31.230519],[121.400227,31.230539],[121.40022,31.230561],[121.400213,31.230584],[121.400206,31.230608],[121.400199,31.230631],[121.400194,31.230653],[121.400186,31.230675],[121.400179,31.230697],[121.400172,31.230719],[121.400168,31.230742],[121.400163,31.230763],[121.400157,31.230783],[121.400147,31.230804],[121.400134,31.230831],[121.400123,31.230858],[121.400112,31.230885],[121.400104,31.230909],[121.400095,31.230932],[121.400085,31.230955],[121.400074,31.230976],[121.400061,31.231],[121.400046,31.231022],[121.400032,31.231044],[121.400017,31.231063],[121.4,31.231081],[121.399979,31.231097],[121.399951,31.231113],[121.399923,31.231129],[121.399893,31.231144],[121.399867,31.231157],[121.399835,31.23117],[121.399804,31.231181],[121.399773,31.231189],[121.399744,31.231194],[121.399714,31.231197],[121.399685,31.231199],[121.399658,31.231198],[121.399631,31.231193],[121.3996,31.231184],[121.399566,31.231175],[121.399531,31.231165],[121.399497,31.231157],[121.399466,31.231148],[121.399438,31.231135],[121.399414,31.231118],[121.39939,31.231097],[121.399366,31.231075],[121.399343,31.231049],[121.399322,31.231024],[121.399304,31.231001],[121.399294,31.230981],[121.39929,31.23096],[121.399288,31.230938],[121.399286,31.230914],[121.399283,31.230889],[121.399283,31.230861],[121.399283,31.230833],[121.399285,31.230805],[121.399287,31.230778],[121.399291,31.230751],[121.399295,31.230723],[121.399301,31.230695],[121.399309,31.230665],[121.399318,31.230634],[121.399327,31.2306],[121.399335,31.230565],[121.399343,31.230528],[121.399351,31.230497],[121.399361,31.230471],[121.399369,31.230447],[121.399377,31.230424],[121.399385,31.230401],[121.399392,31.230379],[121.399398,31.230357],[121.399405,31.230334],[121.399413,31.230309],[121.399421,31.230283],[121.399429,31.230258],[121.399437,31.230235],[121.399445,31.230209],[121.399454,31.230183],[121.399463,31.230154],[121.399473,31.230125],[121.399482,31.230098],[121.399492,31.230073],[121.399501,31.230049],[121.399513,31.230019],[121.399525,31.229991],[121.399537,31.229964],[121.399548,31.229944],[121.399559,31.229924],[121.399571,31.229904],[121.399586,31.229882],[121.399601,31.229862],[121.399618,31.229842],[121.399638,31.229824],[121.399662,31.229805],[121.399698,31.229786],[121.399739,31.229768],[121.399781,31.229756],[121.399814,31.229747],[121.399844,31.229741],[121.399874,31.229738],[121.399907,31.229739],[121.39994,31.22974],[121.399974,31.229741],[121.400005,31.229743],[121.400034,31.229748],[121.400061,31.229754],[121.400088,31.229763],[121.400114,31.229775],[121.400138,31.229789],[121.400161,31.229805],[121.400185,31.229819],[121.400213,31.229838],[121.400239,31.22986],[121.400262,31.229882],[121.400277,31.229903],[121.400291,31.229924],[121.400302,31.229946],[121.400311,31.229968],[121.400318,31.229991],[121.400323,31.230015],[121.400327,31.230039],[121.400329,31.230064],[121.400331,31.23009],[121.40033,31.230118],[121.400328,31.230146],[121.400326,31.230173],[121.400322,31.230201],[121.400317,31.230229],[121.40031,31.230259],[121.400303,31.230286],[121.400294,31.230313],[121.400286,31.230336],[121.400278,31.230362],[121.400269,31.230388],[121.400261,31.230415],[121.400253,31.230441],[121.400245,31.230469],[121.400239,31.230495],[121.400233,31.230518],[121.400225,31.230538],[121.400214,31.230561],[121.400204,31.230585],[121.400196,31.230611],[121.400188,31.230636],[121.400181,31.230662],[121.400175,31.230687],[121.40017,31.230711],[121.400163,31.230736],[121.400155,31.23076],[121.400147,31.230783],[121.400139,31.230804],[121.40013,31.230829],[121.400122,31.230853],[121.400113,31.230879],[121.400105,31.230902],[121.400095,31.230927],[121.400085,31.230951],[121.400073,31.230973],[121.40006,31.230996],[121.400045,31.231018],[121.400029,31.23104],[121.400013,31.231061],[121.399996,31.231081],[121.399974,31.2311],[121.399947,31.231116],[121.399918,31.231131],[121.399888,31.231146],[121.399862,31.231158],[121.399833,31.231169],[121.399805,31.231178],[121.399775,31.231185],[121.399747,31.231189],[121.399716,31.231192],[121.399686,31.231193],[121.399657,31.231191],[121.399628,31.231188],[121.399597,31.231182],[121.399567,31.231175],[121.399536,31.231167],[121.399505,31.231156],[121.399472,31.231143],[121.399439,31.231127],[121.39941,31.231109],[121.399385,31.231089],[121.399364,31.231068],[121.399345,31.231044],[121.399327,31.23102],[121.399313,31.230996],[121.399301,31.230972],[121.399293,31.230946],[121.399286,31.230918],[121.399282,31.230891],[121.399279,31.230861],[121.399279,31.230832],[121.39928,31.230804],[121.399283,31.230777],[121.399288,31.230749],[121.399294,31.23072],[121.399302,31.230689],[121.399311,31.230658],[121.39932,31.230629],[121.399329,31.230598],[121.399339,31.230567],[121.399349,31.230537],[121.399358,31.230509],[121.399367,31.230482],[121.399376,31.230456],[121.399385,31.23043],[121.399393,31.230406],[121.399402,31.23038],[121.399411,31.230355],[121.39942,31.23033],[121.399429,31.230306],[121.399438,31.230279],[121.399447,31.230252],[121.399455,31.230225],[121.399462,31.230198],[121.39947,31.230172],[121.399477,31.230147],[121.399485,31.230121],[121.399493,31.230095],[121.399502,31.230069],[121.399512,31.230044],[121.399522,31.230018],[121.399532,31.229993],[121.399542,31.229971],[121.399554,31.229948],[121.399567,31.229926],[121.399581,31.229905],[121.399597,31.229884],[121.399615,31.229863],[121.399635,31.229843],[121.399659,31.229822],[121.399686,31.229802],[121.399717,31.229784],[121.39975,31.22977],[121.399784,31.229758],[121.399817,31.22975],[121.399846,31.229744],[121.399876,31.229741],[121.399905,31.229738],[121.399936,31.229737],[121.399965,31.229736],[121.399996,31.229738],[121.400025,31.229742],[121.400056,31.229747],[121.400083,31.229755],[121.400113,31.229766],[121.400141,31.229779],[121.400173,31.229796],[121.400202,31.229814],[121.400229,31.229835],[121.400252,31.229856],[121.400274,31.229877],[121.400294,31.229898],[121.400308,31.229918],[121.400317,31.22994],[121.400324,31.229963],[121.40033,31.229989],[121.400337,31.230014],[121.400342,31.23004],[121.400345,31.230066],[121.400347,31.230094],[121.400347,31.230122],[121.400345,31.230152],[121.400341,31.230181],[121.400334,31.230215],[121.400325,31.230249],[121.400315,31.230283],[121.400306,31.230312],[121.400297,31.23034],[121.400288,31.230366],[121.400279,31.230392],[121.400271,31.230417],[121.400263,31.230441],[121.400255,31.230466],[121.400248,31.230492],[121.400241,31.230517],[121.400234,31.230541],[121.400225,31.230568],[121.400216,31.230594],[121.400207,31.230622],[121.400198,31.230649],[121.400188,31.230681],[121.400178,31.230715],[121.400167,31.230747],[121.400158,31.230775],[121.400149,31.2308],[121.400139,31.230827],[121.40013,31.230852],[121.400122,31.230876],[121.400114,31.2309],[121.400105,31.230924],[121.400094,31.230947],[121.400082,31.230969],[121.400068,31.230992],[121.400053,31.231016],[121.400037,31.231039],[121.40002,31.231061],[121.400001,31.231081],[121.39998,31.231101],[121.399955,31.231118],[121.399928,31.231135],[121.3999,31.231149],[121.399871,31.231162],[121.399841,31.231172],[121.39981,31.231181],[121.399781,31.231187],[121.39975,31.231191],[121.399719,31.231193],[121.399687,31.231194],[121.399657,31.231194],[121.399624,31.231192],[121.399593,31.231188],[121.399562,31.231182],[121.399534,31.231174],[121.399505,31.231164],[121.399477,31.231153],[121.399449,31.231141],[121.399423,31.231126],[121.3994,31.231109],[121.399379,31.23109],[121.39936,31.231069],[121.399343,31.231046],[121.399328,31.231022],[121.399316,31.230999],[121.399305,31.230973],[121.399297,31.230947],[121.39929,31.230921],[121.399286,31.230895],[121.399284,31.230866],[121.399283,31.230838],[121.399285,31.230809],[121.399288,31.230782],[121.399294,31.230753],[121.3993,31.230724],[121.399309,31.23069],[121.399319,31.230656],[121.399329,31.230623],[121.399339,31.230595],[121.399348,31.230567],[121.399357,31.230537],[121.399366,31.230509],[121.399374,31.230481],[121.399382,31.230455],[121.39939,31.23043],[121.399397,31.230404],[121.399404,31.230379],[121.399412,31.230353],[121.399421,31.230326],[121.399431,31.2303],[121.39944,31.230273],[121.39945,31.230244],[121.39946,31.230215],[121.399469,31.230185],[121.399478,31.230156],[121.399488,31.230126],[121.399498,31.230097],[121.399508,31.230068],[121.399517,31.230042],[121.399526,31.230017],[121.399535,31.229994],[121.399545,31.22997],[121.399556,31.229948],[121.399569,31.229925],[121.399583,31.229904],[121.399599,31.229882],[121.399617,31.229861],[121.399638,31.22984],[121.399662,31.22982],[121.399689,31.229802],[121.399722,31.229783],[121.399758,31.229767],[121.399795,31.229755],[121.399829,31.229747],[121.399862,31.229741],[121.399894,31.229738],[121.399927,31.229735],[121.399959,31.229733],[121.39999,31.229734],[121.400018,31.229737],[121.400048,31.229743],[121.400078,31.229751],[121.400106,31.229761],[121.400134,31.229773],[121.400159,31.229785],[121.400182,31.229799],[121.400203,31.229816],[121.400225,31.229837],[121.400247,31.229859],[121.400268,31.22988],[121.400288,31.229903],[121.400304,31.229926],[121.400318,31.229951],[121.400328,31.229975],[121.400337,31.230003],[121.400344,31.23003],[121.400349,31.230058],[121.400353,31.230086],[121.400354,31.230114],[121.400353,31.230143],[121.400351,31.23017],[121.400346,31.2302],[121.400339,31.230231],[121.40033,31.230264],[121.40032,31.230294],[121.400309,31.230328],[121.400299,31.230356],[121.400289,31.230388],[121.40028,31.230413],[121.400272,31.230439],[121.400264,31.230466],[121.400256,31.230492],[121.400248,31.230518],[121.40024,31.230541],[121.400232,31.230567],[121.400224,31.230593],[121.400215,31.230618],[121.400207,31.230644],[121.400198,31.230669],[121.40019,31.230695],[121.400181,31.230719],[121.400172,31.230746],[121.400161,31.230777],[121.400151,31.230806],[121.400142,31.230831],[121.400133,31.230853],[121.400125,31.230874],[121.400116,31.230896],[121.400105,31.230921],[121.400094,31.230945],[121.400083,31.230969],[121.400072,31.230989],[121.400059,31.231012],[121.400045,31.231034],[121.400031,31.231056],[121.400017,31.231075],[121.399999,31.231096],[121.399976,31.231117],[121.399949,31.231136],[121.399919,31.231153],[121.399891,31.231167],[121.399864,31.231179],[121.399837,31.231189],[121.399808,31.231196],[121.399777,31.231202],[121.399746,31.231205],[121.399712,31.231206],[121.399679,31.231205],[121.399646,31.231202],[121.399613,31.231197],[121.39958,31.23119],[121.399546,31.231182],[121.399515,31.231173],[121.399481,31.23116],[121.39945,31.231146],[121.399421,31.23113],[121.399397,31.231112],[121.399376,31.231089],[121.399358,31.231066],[121.399341,31.23104],[121.399327,31.231016],[121.399315,31.230988],[121.399307,31.230958],[121.399301,31.230929],[121.399295,31.230899],[121.399292,31.230872],[121.399291,31.230844],[121.399291,31.230816],[121.399295,31.230788],[121.3993,31.230762],[121.399306,31.230735],[121.399313,31.230707],[121.399321,31.230679],[121.399328,31.230651],[121.399336,31.230623],[121.399344,31.230593],[121.399352,31.230565],[121.399361,31.230534],[121.39937,31.230503],[121.399378,31.230475],[121.399386,31.230448],[121.399394,31.230425],[121.399402,31.2304],[121.39941,31.230375],[121.399418,31.23035],[121.399426,31.230324],[121.399433,31.230301],[121.399441,31.230274],[121.399449,31.230248],[121.399458,31.230221],[121.399466,31.230195],[121.399476,31.230166],[121.399487,31.230134],[121.399499,31.2301],[121.399509,31.23007],[121.399519,31.230045],[121.39953,31.23002],[121.39954,31.229996],[121.399552,31.229972],[121.399564,31.229948],[121.399576,31.229925],[121.39959,31.229903],[121.399603,31.229883],[121.399618,31.229863],[121.399635,31.229841],[121.399653,31.229821],[121.399674,31.229801],[121.399699,31.229783],[121.399732,31.229766],[121.399774,31.22975],[121.399816,31.229741],[121.399854,31.229735],[121.399887,31.229732],[121.399922,31.229731],[121.399957,31.229731],[121.39999,31.229732],[121.400021,31.229737],[121.400054,31.229745],[121.400087,31.229755],[121.40012,31.229765],[121.400149,31.229777],[121.400179,31.229792],[121.400207,31.22981],[121.400232,31.229828],[121.400255,31.229849],[121.400274,31.22987],[121.400293,31.229896],[121.400309,31.229921],[121.400324,31.229948],[121.400333,31.229972],[121.400341,31.229998],[121.400348,31.230024],[121.400352,31.230052],[121.400355,31.230079],[121.400356,31.230108],[121.400355,31.230135],[121.400352,31.230163],[121.400348,31.230191],[121.400341,31.23022],[121.400333,31.230249],[121.400324,31.230279],[121.400314,31.23031],[121.400304,31.23034],[121.400292,31.230374],[121.400282,31.230405],[121.400273,31.230436],[121.400264,31.230464],[121.400256,31.230492],[121.400248,31.230522],[121.400241,31.230548],[121.400233,31.230575],[121.400226,31.2306],[121.400217,31.230626],[121.400209,31.230652],[121.400201,31.230678],[121.400193,31.230703],[121.400185,31.230729],[121.400176,31.230755],[121.400168,31.230782],[121.400159,31.230807],[121.400152,31.230831],[121.400144,31.230852],[121.400136,31.230875],[121.400127,31.230898],[121.400117,31.230922],[121.400106,31.230945],[121.400093,31.230968],[121.40008,31.230991],[121.400065,31.231014],[121.40005,31.231036],[121.400033,31.231058],[121.400016,31.231078],[121.399994,31.231099],[121.39997,31.231119],[121.399942,31.231138],[121.399911,31.231154],[121.399878,31.23117],[121.399844,31.231184],[121.399805,31.231194],[121.399769,31.231201],[121.399732,31.231205],[121.399701,31.231206],[121.39967,31.231205],[121.399638,31.231201],[121.399607,31.231196],[121.399575,31.23119],[121.399545,31.231181],[121.399513,31.231171],[121.399482,31.231158],[121.399452,31.231143],[121.399425,31.231126],[121.3994,31.231106],[121.399378,31.231084],[121.399357,31.231061],[121.399341,31.231039],[121.399326,31.231014],[121.399314,31.230988],[121.399305,31.230961],[121.399297,31.230934],[121.399291,31.230906],[121.399287,31.230878],[121.399286,31.23085],[121.399286,31.230823],[121.39929,31.230796],[121.399295,31.23077],[121.399303,31.230746],[121.399308,31.230724],[121.399315,31.230702],[121.399322,31.230677],[121.39933,31.23065],[121.399338,31.230623],[121.399346,31.230596],[121.399353,31.230569],[121.399362,31.23054],[121.39937,31.230513],[121.399379,31.230485],[121.399388,31.230457],[121.399396,31.23043],[121.399404,31.230402],[121.399412,31.230375],[121.39942,31.230349],[121.399428,31.230323],[121.399435,31.230297],[121.399444,31.23027],[121.399452,31.230242],[121.399461,31.230214],[121.39947,31.230187],[121.399478,31.230159],[121.399487,31.23013],[121.399496,31.230102],[121.399505,31.230075],[121.399513,31.230051],[121.399521,31.230028],[121.399528,31.230006],[121.399536,31.229985],[121.399546,31.229963],[121.399557,31.229941],[121.39957,31.229918],[121.399585,31.229897],[121.399602,31.229875],[121.399621,31.229855],[121.399642,31.229834],[121.399664,31.229815],[121.399689,31.229798],[121.399716,31.229784],[121.399748,31.22977],[121.399783,31.229758],[121.399818,31.229749],[121.399853,31.229741],[121.399889,31.229735],[121.399926,31.229733],[121.399963,31.229734],[121.399998,31.229738],[121.400033,31.229743],[121.400065,31.22975],[121.400098,31.22976],[121.40013,31.229771],[121.400161,31.229785],[121.400189,31.2298],[121.400215,31.229817],[121.400238,31.229835],[121.400258,31.229854],[121.400276,31.229875],[121.400294,31.229898],[121.40031,31.229922],[121.400324,31.229948],[121.400334,31.229972],[121.400341,31.229999],[121.400347,31.230025],[121.40035,31.230052],[121.400351,31.230078],[121.400351,31.230105],[121.400349,31.230132],[121.400346,31.230162],[121.400342,31.23019],[121.400336,31.23022],[121.400329,31.230248],[121.400321,31.230278],[121.400312,31.230307],[121.400303,31.230337],[121.400293,31.23037],[121.400285,31.2304],[121.400277,31.230427],[121.400269,31.23045],[121.40026,31.230479],[121.400251,31.230506],[121.400242,31.230536],[121.400234,31.23056],[121.400226,31.230584],[121.400219,31.230606],[121.400211,31.230632],[121.400202,31.230658],[121.400193,31.230686],[121.400185,31.230711],[121.400176,31.230737],[121.400168,31.23076],[121.400159,31.230786],[121.40015,31.230813],[121.400141,31.230839],[121.400131,31.230865],[121.400121,31.230891],[121.40011,31.230915],[121.4001,31.230937],[121.400088,31.230961],[121.400076,31.230984],[121.400064,31.231006],[121.400052,31.231026],[121.400038,31.231048],[121.400023,31.231069],[121.400007,31.23109],[121.399985,31.23111],[121.39996,31.231129],[121.399931,31.231146],[121.399903,31.231158],[121.399874,31.231169],[121.399844,31.231179],[121.399814,31.231187],[121.399783,31.231193],[121.399752,31.231196],[121.399722,31.231198],[121.399693,31.231198],[121.399662,31.231197],[121.399632,31.231194],[121.399601,31.231189],[121.39957,31.231183],[121.399541,31.231175],[121.399512,31.231165],[121.399484,31.231153],[121.399457,31.231139],[121.399432,31.231123],[121.399408,31.231105],[121.399385,31.231083],[121.399365,31.23106],[121.399348,31.231036],[121.399334,31.231012],[121.399321,31.230986],[121.399311,31.230959],[121.399303,31.230929],[121.399299,31.230899],[121.399297,31.230867],[121.3993,31.230838],[121.399304,31.230808],[121.399309,31.230779],[121.399315,31.230751],[121.399321,31.230725],[121.399327,31.230699],[121.399334,31.230672],[121.399341,31.230646],[121.399348,31.230619],[121.399356,31.230593],[121.399364,31.230565],[121.399371,31.230538],[121.399379,31.230511],[121.399387,31.230484],[121.399394,31.230458],[121.399402,31.230431],[121.399409,31.230405],[121.399418,31.230379],[121.399424,31.230352],[121.399431,31.230325],[121.399438,31.230296],[121.399446,31.230267],[121.399455,31.230239],[121.399465,31.230209],[121.399474,31.230179],[121.399483,31.23015],[121.399493,31.230122],[121.399503,31.230096],[121.399512,31.23007],[121.39952,31.230047],[121.39953,31.230018],[121.399541,31.229988],[121.399553,31.229958],[121.399566,31.229931],[121.399582,31.229905],[121.399601,31.229879],[121.39962,31.229854],[121.399638,31.229832],[121.399658,31.229813],[121.399683,31.229797],[121.399713,31.229782],[121.399743,31.229768],[121.39977,31.229756],[121.399799,31.229746],[121.399828,31.229739],[121.39986,31.229733],[121.399891,31.229731],[121.399927,31.229731],[121.399966,31.229732],[121.400005,31.229735],[121.400042,31.229741],[121.400074,31.229747],[121.400107,31.229758],[121.400138,31.229772],[121.400167,31.229788],[121.400194,31.229805],[121.400217,31.229823],[121.40024,31.229841],[121.400262,31.229862],[121.400281,31.229882],[121.400298,31.229904],[121.400312,31.229927],[121.400324,31.229953],[121.400332,31.229978],[121.40034,31.230009],[121.400345,31.230039],[121.400348,31.230071],[121.400349,31.230099],[121.400349,31.230128],[121.400347,31.230156],[121.400343,31.230184],[121.400338,31.230212],[121.400331,31.230241],[121.400323,31.230268],[121.400315,31.230296],[121.400308,31.230322],[121.400301,31.23035],[121.400292,31.230381],[121.400282,31.230412],[121.400273,31.230441],[121.400265,31.230464],[121.400257,31.230486],[121.400248,31.23051],[121.400239,31.230533],[121.400229,31.230559],[121.400221,31.230582],[121.40021,31.230608],[121.400202,31.230632],[121.400192,31.230656],[121.400185,31.230678],[121.400176,31.230702],[121.400167,31.230728],[121.400157,31.230755],[121.400148,31.230783],[121.400139,31.230808],[121.40013,31.230832],[121.400121,31.230857],[121.400112,31.230882],[121.400102,31.230907],[121.400092,31.23093],[121.400081,31.230954],[121.400069,31.230977],[121.400057,31.231],[121.400045,31.23102],[121.400031,31.231042],[121.400016,31.231063],[121.400001,31.231086],[121.399982,31.231106],[121.399957,31.231126],[121.399929,31.231141],[121.399899,31.231156],[121.399871,31.231168],[121.39984,31.231178],[121.399811,31.231185],[121.399779,31.231191],[121.399749,31.231195],[121.399717,31.231198],[121.399685,31.231198],[121.399653,31.231196],[121.399621,31.231193],[121.399589,31.231187],[121.399557,31.231179],[121.399525,31.231167],[121.399494,31.231153],[121.399465,31.231138],[121.399439,31.231122],[121.399414,31.231103],[121.399391,31.231084],[121.399371,31.231062],[121.399353,31.23104],[121.399338,31.231017],[121.399326,31.230992],[121.399315,31.230966],[121.399308,31.230938],[121.399303,31.230909],[121.399299,31.230876],[121.399297,31.230843],[121.399298,31.230812],[121.399305,31.230784],[121.399313,31.230755],[121.399319,31.230724],[121.399323,31.230697],[121.399329,31.230669],[121.399337,31.230639],[121.399348,31.230607],[121.399358,31.230575],[121.399366,31.230547],[121.399374,31.230523],[121.399382,31.230497],[121.39939,31.230472],[121.399398,31.230447],[121.399406,31.230421],[121.399414,31.230396],[121.399423,31.23037],[121.39943,31.230347],[121.399438,31.230321],[121.399446,31.230297],[121.399454,31.230272],[121.399462,31.23025],[121.39947,31.230225],[121.399479,31.230199],[121.399489,31.230173],[121.399499,31.230146],[121.399509,31.23012],[121.399519,31.230094],[121.399528,31.230071],[121.399538,31.230046],[121.399549,31.230021],[121.39956,31.229996],[121.399571,31.229974],[121.399585,31.229947],[121.3996,31.22992],[121.399615,31.229893],[121.399628,31.229872],[121.39964,31.229854],[121.399656,31.229836],[121.399679,31.229817],[121.399708,31.229798],[121.399739,31.229782],[121.39977,31.229768],[121.399801,31.229756],[121.399831,31.229747],[121.399863,31.229739],[121.399894,31.229735],[121.399927,31.229732],[121.399956,31.22973],[121.399988,31.229731],[121.400019,31.229732],[121.400051,31.229736],[121.40008,31.229741],[121.400109,31.229751],[121.400139,31.229763],[121.400168,31.229778],[121.400194,31.229795],[121.400218,31.229814],[121.40024,31.229834],[121.40026,31.229855],[121.400279,31.229877],[121.400296,31.2299],[121.40031,31.229922],[121.400324,31.229946],[121.400336,31.229969],[121.400346,31.229993],[121.400353,31.230017],[121.400359,31.230043],[121.400363,31.23007],[121.400365,31.230095],[121.400365,31.230122],[121.400362,31.230149],[121.400356,31.230178],[121.400349,31.230208],[121.40034,31.230239],[121.40033,31.23027],[121.400321,31.230301],[121.400312,31.230332],[121.400302,31.230363],[121.400293,31.230394],[121.400284,31.230424],[121.400275,31.230452],[121.400267,31.230478],[121.400258,31.230505],[121.40025,31.230531],[121.400241,31.230557],[121.400232,31.23058],[121.400223,31.230603],[121.400213,31.230626],[121.400203,31.23065],[121.400194,31.230675],[121.400185,31.230703],[121.400176,31.23073],[121.400168,31.230757],[121.40016,31.230783],[121.400153,31.230808],[121.400146,31.23083],[121.400139,31.230852],[121.400131,31.230874],[121.400122,31.230898],[121.400112,31.23092],[121.400102,31.230941],[121.40009,31.230964],[121.400076,31.230986],[121.400058,31.231014],[121.400037,31.231042],[121.400012,31.231071],[121.399987,31.231097],[121.399959,31.23112],[121.39993,31.231141],[121.399898,31.231159],[121.399868,31.231172],[121.399838,31.231182],[121.399806,31.23119],[121.399776,31.231195],[121.399743,31.231199],[121.399713,31.2312],[121.399681,31.231199],[121.39965,31.231195],[121.39962,31.231191],[121.39959,31.231184],[121.399556,31.231175],[121.399523,31.231162],[121.39949,31.231147],[121.399459,31.23113],[121.399431,31.231113],[121.399405,31.231095],[121.399382,31.231076],[121.399363,31.231056],[121.399346,31.231034],[121.399332,31.231012],[121.39932,31.230989],[121.39931,31.230965],[121.399304,31.230939],[121.3993,31.230911],[121.399296,31.230882],[121.399293,31.230854],[121.399293,31.230825],[121.399298,31.230797],[121.399305,31.230766],[121.399312,31.230735],[121.399319,31.230705],[121.399326,31.230677],[121.399333,31.23065],[121.399342,31.230624],[121.399351,31.230595],[121.39936,31.230566],[121.399368,31.230538],[121.399377,31.230513],[121.399385,31.230488],[121.399393,31.230463],[121.3994,31.230441],[121.399408,31.230417],[121.399416,31.230393],[121.399424,31.230367],[121.399431,31.230344],[121.39944,31.230315],[121.399449,31.230286],[121.399459,31.230254],[121.399467,31.230228],[121.399476,31.2302],[121.399485,31.230172],[121.399495,31.230143],[121.399504,31.230117],[121.399514,31.230092],[121.399523,31.230068],[121.399534,31.230041],[121.399545,31.230015],[121.399557,31.229989],[121.39957,31.229964],[121.399583,31.22994],[121.399596,31.229916],[121.399609,31.229896],[121.399626,31.229871],[121.399642,31.229847],[121.399668,31.22982],[121.399696,31.2298],[121.39973,31.229781],[121.399761,31.229767],[121.399794,31.229756],[121.399827,31.229747],[121.399862,31.22974],[121.399896,31.229735],[121.39993,31.229733],[121.399961,31.229731],[121.399993,31.229732],[121.400023,31.229735],[121.400052,31.229739],[121.40008,31.229744],[121.400109,31.229753],[121.400138,31.229764],[121.400166,31.229776],[121.400194,31.229792],[121.40022,31.22981],[121.400245,31.229829],[121.400267,31.229848],[121.400287,31.22987],[121.400304,31.229892],[121.40032,31.229916],[121.400334,31.229941],[121.400347,31.229967],[121.400357,31.22999],[121.400365,31.230014],[121.400369,31.230039],[121.400372,31.230066],[121.400373,31.230091],[121.400372,31.230116],[121.400368,31.230143],[121.400362,31.230171],[121.400354,31.230199],[121.400345,31.230227],[121.400336,31.230255],[121.400327,31.230282],[121.400318,31.230311],[121.40031,31.23034],[121.400302,31.230369],[121.400294,31.230397],[121.400286,31.230425],[121.400278,31.230452],[121.40027,31.230481],[121.400262,31.230509],[121.400253,31.230537],[121.400245,31.230563],[121.400235,31.230591],[121.400226,31.230618],[121.400216,31.230644],[121.400205,31.230674],[121.400195,31.230704],[121.400184,31.230737],[121.400176,31.230766],[121.400167,31.230795],[121.40016,31.230821],[121.400152,31.230847],[121.400144,31.230874],[121.400135,31.2309],[121.400126,31.230925],[121.400114,31.230951],[121.400101,31.230976],[121.400085,31.231001],[121.400068,31.231026],[121.400049,31.23105],[121.40003,31.231072],[121.40001,31.231094],[121.399989,31.231113],[121.399965,31.231132],[121.39994,31.23115],[121.399914,31.231165],[121.399888,31.231177],[121.39986,31.231187],[121.399833,31.231194],[121.399802,31.231198],[121.39977,31.231201],[121.399738,31.231202],[121.399706,31.231201],[121.399676,31.231198],[121.399645,31.231194],[121.399614,31.23119],[121.399581,31.231185],[121.399547,31.231177],[121.399515,31.231165],[121.399484,31.23115],[121.399452,31.231128],[121.399417,31.231104],[121.399387,31.23108],[121.399364,31.231057],[121.399349,31.231033],[121.399335,31.231004],[121.399321,31.230975],[121.399309,31.230946],[121.399302,31.230918],[121.399299,31.230891],[121.3993,31.230863],[121.399301,31.230835],[121.399305,31.230808],[121.39931,31.230782],[121.399316,31.230756],[121.399324,31.230729],[121.399332,31.230701],[121.39934,31.230675],[121.399348,31.230647],[121.399356,31.230622],[121.399364,31.230596],[121.399372,31.230569],[121.39938,31.230542],[121.399388,31.230514],[121.399395,31.230489],[121.399403,31.230461],[121.399411,31.230433],[121.399419,31.230405],[121.399427,31.230377],[121.399435,31.230349],[121.399443,31.230321],[121.399451,31.230292],[121.399459,31.230263],[121.399468,31.230235],[121.399476,31.230208],[121.399485,31.23018],[121.399495,31.230149],[121.399505,31.230117],[121.399516,31.230088],[121.399526,31.23006],[121.399537,31.230033],[121.399548,31.230007],[121.399559,31.229983],[121.399572,31.229958],[121.399585,31.229934],[121.3996,31.229908],[121.399614,31.229884],[121.399628,31.229861],[121.399648,31.229839],[121.399676,31.229816],[121.39971,31.229794],[121.399744,31.229777],[121.399783,31.229763],[121.399822,31.229753],[121.399861,31.229745],[121.399896,31.229741],[121.39993,31.22974],[121.399963,31.22974],[121.399993,31.229743],[121.400026,31.229747],[121.400059,31.229753],[121.400095,31.229762],[121.400128,31.229773],[121.400159,31.229786],[121.400187,31.229801],[121.400214,31.229818],[121.400239,31.229838],[121.400262,31.22986],[121.400282,31.229884],[121.400302,31.229913],[121.400319,31.229945],[121.400333,31.229977],[121.400344,31.230005],[121.400352,31.230035],[121.400357,31.230064],[121.40036,31.230092],[121.400361,31.23012],[121.400359,31.230148],[121.400355,31.230176],[121.400349,31.230203],[121.400344,31.230229],[121.400337,31.230257],[121.400331,31.230284],[121.400323,31.230311],[121.400316,31.230339],[121.400309,31.230366],[121.400302,31.230396],[121.400293,31.230427],[121.400285,31.230459],[121.400277,31.230488],[121.400268,31.230518],[121.40026,31.230544],[121.400251,31.230572],[121.400241,31.230599],[121.40023,31.230627],[121.400221,31.230654],[121.400211,31.230682],[121.400203,31.230709],[121.400193,31.230737],[121.400184,31.230766],[121.400175,31.230794],[121.400167,31.230822],[121.400158,31.230849],[121.40015,31.230875],[121.400142,31.2309],[121.400132,31.230926],[121.40012,31.230952],[121.400106,31.230978],[121.40009,31.231003],[121.400072,31.231027],[121.400053,31.231051],[121.400034,31.231073],[121.400013,31.231094],[121.399992,31.231114],[121.399968,31.231133],[121.399943,31.231149],[121.399916,31.231164],[121.399889,31.231176],[121.399861,31.231185],[121.399834,31.231191],[121.399804,31.231196],[121.39977,31.231199],[121.399732,31.231201],[121.399692,31.231202],[121.399655,31.2312],[121.399619,31.231195],[121.399584,31.231188],[121.399551,31.231179],[121.399524,31.231168],[121.399496,31.231155],[121.399469,31.23114],[121.399441,31.231122],[121.399414,31.231104],[121.399392,31.231083],[121.399373,31.231062],[121.399359,31.231036],[121.399346,31.231008],[121.399335,31.230979],[121.399325,31.230948],[121.399316,31.230916],[121.399308,31.230886],[121.399306,31.23086],[121.399307,31.230834],[121.399312,31.230808],[121.399316,31.23078],[121.399321,31.230751],[121.399327,31.230722],[121.399334,31.230693],[121.399341,31.230665],[121.399348,31.230638],[121.399357,31.230609],[121.399365,31.230582],[121.399372,31.230555],[121.399379,31.23053],[121.399387,31.230505],[121.399396,31.230479],[121.399405,31.230454],[121.399412,31.230431],[121.39942,31.230407],[121.399428,31.230382],[121.399436,31.230356],[121.399444,31.230328],[121.399453,31.230299],[121.399461,31.230269],[121.399469,31.230241],[121.399478,31.230211],[121.399486,31.230183],[121.399496,31.230152],[121.399504,31.230124],[121.399514,31.230093],[121.399522,31.230065],[121.399531,31.230036],[121.39954,31.230009],[121.399555,31.229977],[121.399573,31.229945],[121.399596,31.229912],[121.399617,31.229885],[121.39964,31.229859],[121.399664,31.229836],[121.399693,31.229814],[121.399723,31.229794],[121.399753,31.229778],[121.399783,31.229766],[121.399816,31.229757],[121.399849,31.22975],[121.399885,31.229745],[121.399919,31.229742],[121.399954,31.229741],[121.399985,31.229742],[121.400018,31.229744],[121.400055,31.22975],[121.400093,31.229758],[121.40013,31.229771],[121.400161,31.229785],[121.400191,31.229801],[121.400217,31.229817],[121.400242,31.229837],[121.400264,31.229859],[121.400283,31.229881],[121.4003,31.229904],[121.400314,31.229928],[121.400328,31.229954],[121.400339,31.229981],[121.400348,31.230008],[121.400354,31.230035],[121.400357,31.230064],[121.400358,31.230091],[121.400356,31.230124],[121.400351,31.230156],[121.400346,31.230191],[121.40034,31.23022],[121.400334,31.230252],[121.400327,31.230282],[121.40032,31.230312],[121.400311,31.23034],[121.400302,31.230367],[121.400293,31.230395],[121.400285,31.230421],[121.400277,31.230449],[121.400269,31.230477],[121.400262,31.230506],[121.400254,31.230534],[121.400245,31.230562],[121.400233,31.230588],[121.40022,31.230616],[121.400207,31.230644],[121.400198,31.230676],[121.40019,31.230707],[121.400182,31.230738],[121.400173,31.230768],[121.400165,31.230798],[121.400156,31.230829],[121.40015,31.230858],[121.400142,31.230886],[121.400135,31.23091],[121.400124,31.230935],[121.400112,31.230959],[121.400099,31.230982],[121.400084,31.231006],[121.400067,31.23103],[121.400048,31.231054],[121.400023,31.231079],[121.399995,31.231105],[121.399966,31.231129],[121.399937,31.23115],[121.399909,31.231166],[121.399881,31.231179],[121.399852,31.231188],[121.399823,31.231196],[121.399793,31.231201],[121.399762,31.231205],[121.399729,31.231208],[121.399697,31.231209],[121.399664,31.231208],[121.399634,31.231205],[121.399604,31.231199],[121.399575,31.23119],[121.399545,31.231181],[121.39952,31.231171],[121.399497,31.231159],[121.399477,31.231144],[121.399456,31.231125],[121.399436,31.231107],[121.399416,31.231089],[121.399399,31.23107],[121.399382,31.231048],[121.399367,31.231024],[121.399354,31.231001],[121.399342,31.230974],[121.399334,31.230947],[121.399327,31.23092],[121.399324,31.230894],[121.399322,31.230867],[121.399322,31.230839],[121.399325,31.230811],[121.399332,31.230784],[121.399339,31.230756],[121.399344,31.230727],[121.399349,31.230697],[121.399354,31.230668],[121.399362,31.23064],[121.399369,31.23061],[121.399377,31.230579],[121.399385,31.23055],[121.399394,31.23052],[121.399403,31.230491],[121.399412,31.230463],[121.399422,31.230435],[121.399431,31.230408],[121.399439,31.230382],[121.399448,31.230356],[121.399456,31.230331],[121.399464,31.230305],[121.399471,31.230279],[121.399479,31.230253],[121.399487,31.230226],[121.399495,31.230198],[121.399506,31.230165],[121.399517,31.230133],[121.399528,31.230105],[121.399535,31.230087],[121.39954,31.230071],[121.399544,31.230056],[121.399551,31.230034],[121.399563,31.230006],[121.399582,31.22997],[121.399602,31.229937],[121.399625,31.229904],[121.399648,31.229875],[121.399674,31.229849],[121.399699,31.229827],[121.399727,31.229807],[121.399754,31.229791],[121.399782,31.229777],[121.399811,31.229767],[121.39984,31.229759],[121.39987,31.229752],[121.399898,31.229749],[121.399927,31.229747],[121.399957,31.229747],[121.399987,31.229748],[121.400015,31.22975],[121.400045,31.229755],[121.400074,31.229761],[121.400103,31.229769],[121.400131,31.22978],[121.400157,31.229793],[121.400182,31.229809],[121.400205,31.229827],[121.400227,31.229847],[121.400247,31.229869],[121.400263,31.229891],[121.400278,31.229915],[121.400293,31.229939],[121.400307,31.229964],[121.400319,31.229991],[121.400329,31.230019],[121.400336,31.230048],[121.400341,31.230076],[121.400342,31.230106],[121.400338,31.230136],[121.400331,31.230165],[121.400326,31.230193],[121.400322,31.230221],[121.400318,31.230253],[121.400311,31.230286],[121.400303,31.230317],[121.400296,31.230344],[121.400288,31.23037],[121.40028,31.230396],[121.400272,31.230422],[121.400264,31.230448],[121.400255,31.230475],[121.400247,31.230502],[121.400239,31.230526],[121.400231,31.230552],[121.400223,31.230579],[121.400214,31.230606],[121.400205,31.230634],[121.400197,31.230661],[121.400189,31.230689],[121.400182,31.230716],[121.400174,31.230743],[121.400166,31.23077],[121.400159,31.230794],[121.400149,31.230824],[121.400139,31.230853],[121.400126,31.230886],[121.400115,31.230913],[121.400103,31.230939],[121.400091,31.230963],[121.400078,31.230986],[121.400065,31.231008],[121.400054,31.231028],[121.400041,31.231048],[121.400022,31.23107],[121.399998,31.231094],[121.399968,31.231116],[121.399938,31.231134],[121.399907,31.23115],[121.399876,31.231162],[121.399844,31.231173],[121.399812,31.231182],[121.399783,31.231188],[121.399754,31.23119],[121.399721,31.23119],[121.399686,31.231189],[121.39965,31.231186],[121.399617,31.23118],[121.399584,31.231173],[121.399554,31.231165],[121.399528,31.231155],[121.399506,31.23114],[121.399486,31.231123],[121.399464,31.231105],[121.399442,31.231086],[121.399421,31.231067],[121.399401,31.231045],[121.399384,31.231023],[121.399368,31.230999],[121.399356,31.230973],[121.399349,31.230946],[121.399347,31.230919],[121.399346,31.230896],[121.399343,31.230871],[121.399339,31.230843],[121.399337,31.230814],[121.399338,31.230785],[121.399342,31.230758],[121.399347,31.23073],[121.399353,31.230703],[121.399359,31.230675],[121.399365,31.230648],[121.399371,31.230618],[121.399377,31.230588],[121.399384,31.230556],[121.399393,31.230526],[121.399402,31.230495],[121.399411,31.230465],[121.39942,31.230434],[121.39943,31.230403],[121.399439,31.230373],[121.399448,31.230344],[121.399457,31.230313],[121.399466,31.230283],[121.399476,31.230253],[121.399485,31.230225],[121.399495,31.230193],[121.399509,31.230154],[121.399517,31.230133],[121.399524,31.230117]]}}]}