{"type":"FeatureCollection","features":[{"type":"Feature","properties":{"id":"2025-01-15_walking_13","type":"walking","date":"2025-01-15"},"geometry":{"type":"LineString","coordinates":[[121.493351,31.249906],[121.493377,31.24991],[121.493385,31.249912],[121.493401,31.249915],[121.493417,31.249919],[121.493432,31.249925],[121.493448,31.249932],[121.493466,31.249941],[121.493484,31.249952],[121.493504,31.249966],[121.493527,31.249983],[121.493555,31.249998],[121.493582,31.250009],[121.493609,31.250017],[121.49363,31.250025],[121.493649,31.250035],[121.493663,31.250045],[121.493676,31.250056],[121.493692,31.250068],[121.493707,31.250079],[121.493725,31.250091],[121.493745,31.250104],[121.493768,31.250117],[121.49379,31.250128],[121.493811,31.250139],[121.493828,31.250145],[121.493845,31.250152],[121.493858,31.250159],[121.49387,31.250171],[121.493879,31.250186],[121.493886,31.250203],[121.493891,31.250221],[121.493893,31.25024],[121.493893,31.250262],[121.493892,31.250282],[121.493887,31.250304],[121.493881,31.250323],[121.493872,31.250343],[121.493863,31.250363],[121.493854,31.250384],[121.493845,31.250403],[121.493837,31.25042],[121.493836,31.25043],[121.49384,31.250439],[121.493851,31.250446],[121.493862,31.250451],[121.493875,31.250455],[121.493886,31.250459],[121.493897,31.250462],[121.493904,31.250464],[121.49391,31.250466],[121.493915,31.25047],[121.493919,31.250473],[121.493921,31.250477],[121.493924,31.250481],[121.49393,31.250485],[121.493938,31.25049],[121.493948,31.250493],[121.493962,31.250498],[121.493975,31.250504],[121.493989,31.25051],[121.494002,31.250518],[121.494013,31.250526],[121.494022,31.250534],[121.49403,31.250543],[121.494037,31.250553],[121.494043,31.250563],[121.494046,31.250574],[121.494049,31.250586],[121.494051,31.250599],[121.494054,31.250611],[121.494058,31.250624],[121.494063,31.250639],[121.494065,31.250653],[121.494066,31.250666],[121.494063,31.250675],[121.494057,31.250683],[121.494051,31.250691],[121.494044,31.250698],[121.494037,31.250706],[121.494031,31.250714],[121.494025,31.250722],[121.49402,31.25073],[121.494016,31.250739],[121.494011,31.250747],[121.494006,31.250756],[121.494001,31.250765],[121.493996,31.250773],[121.493989,31.250782],[121.493979,31.250792],[121.493969,31.250801],[121.493958,31.250809],[121.493948,31.250815],[121.493937,31.250821],[121.493924,31.250826],[121.493911,31.250831],[121.493897,31.250835],[121.493882,31.250841],[121.493867,31.250848],[121.493851,31.250856],[121.493835,31.250863],[121.493818,31.25087],[121.493802,31.250877],[121.493783,31.250885],[121.493763,31.250893],[121.493742,31.250902],[121.49372,31.250912],[121.493699,31.250922],[121.49368,31.250932],[121.493662,31.250943],[121.493645,31.250952],[121.493629,31.250961],[121.493614,31.250969],[121.493599,31.250976],[121.493585,31.250982],[121.493573,31.25099],[121.493566,31.251002],[121.493562,31.251016],[121.49356,31.251031],[121.493558,31.251044],[121.493556,31.251054],[121.493549,31.251064],[121.493539,31.251072],[121.493525,31.251081],[121.493509,31.251087],[121.49349,31.251092],[121.493468,31.251094],[121.493447,31.251093],[121.493424,31.251092],[121.493405,31.25109],[121.493389,31.251091],[121.493378,31.251094],[121.493373,31.251099],[121.493374,31.251106],[121.493377,31.251114],[121.493381,31.251121],[121.493384,31.251128],[121.493386,31.251134],[121.493386,31.251138],[121.493383,31.251142],[121.493379,31.251145],[121.493374,31.251148],[121.493371,31.251152],[121.493368,31.251156],[121.493365,31.251161],[121.493362,31.251167],[121.493359,31.251173],[121.493357,31.251179],[121.493358,31.251186],[121.493362,31.251191],[121.493369,31.251196],[121.493377,31.2512],[121.493387,31.251204],[121.493396,31.251207],[121.493404,31.251211],[121.493412,31.251216],[121.493417,31.251224],[121.493417,31.251235],[121.493411,31.251251],[121.493399,31.251277],[121.493382,31.251311],[121.493366,31.251353],[121.493353,31.251394],[121.493342,31.251431],[121.493332,31.25146],[121.493323,31.251481],[121.493314,31.251497],[121.493307,31.25151],[121.493302,31.251519],[121.493299,31.251526],[121.493298,31.251534],[121.493298,31.251545],[121.493297,31.251558],[121.493293,31.251571],[121.493288,31.251581],[121.493284,31.251588],[121.49328,31.251592],[121.493277,31.251597],[121.493273,31.2516],[121.493268,31.251602],[121.493263,31.251606],[121.49326,31.251611],[121.49326,31.251619],[121.493265,31.251626],[121.493273,31.251632],[121.493282,31.251637],[121.49329,31.25164],[121.493296,31.251642],[121.493299,31.251643],[121.493301,31.251643],[121.493304,31.251646],[121.493305,31.251648],[121.493307,31.251651],[121.493311,31.251653],[121.493314,31.251655],[121.493316,31.251655]]}}]}