{"type":"FeatureCollection","features":[{"type":"Feature","properties":{"id":"2025-05-11_running_15","type":"running","date":"2025-05-11"},"geometry":{"type":"LineString","coordinates":[[121.399558,31.229987],[121.39959,31.229944],[121.399598,31.229931],[121.399616,31.229907],[121.399635,31.229885],[121.399658,31.229863],[121.399685,31.229842],[121.399714,31.229822],[121.399748,31.229801],[121.399784,31.229782],[121.399821,31.229765],[121.399857,31.229753],[121.399891,31.229746],[121.399925,31.229744],[121.399958,31.229744],[121.399991,31.229746],[121.400025,31.22975],[121.40006,31.229757],[121.400094,31.229766],[121.400125,31.229777],[121.400154,31.229792],[121.400182,31.229809],[121.400208,31.229827],[121.400232,31.229847],[121.400256,31.22987],[121.400278,31.229893],[121.400296,31.229921],[121.400309,31.22995],[121.400322,31.229984],[121.400332,31.230016],[121.400338,31.230047],[121.40034,31.230075],[121.400339,31.230104],[121.400334,31.230133],[121.400326,31.230163],[121.400315,31.23019],[121.400305,31.230217],[121.400294,31.230246],[121.400283,31.230276],[121.400271,31.230308],[121.40026,31.230339],[121.400248,31.230371],[121.400237,31.230406],[121.400227,31.230441],[121.400217,31.230476],[121.400206,31.230508],[121.400194,31.230538],[121.400182,31.230568],[121.40017,31.230598],[121.40016,31.230627],[121.400151,31.230655],[121.400143,31.230683],[121.400133,31.230711],[121.400122,31.23074],[121.400111,31.230769],[121.4001,31.2308],[121.400092,31.230829],[121.400085,31.230861],[121.400078,31.230891],[121.400069,31.230923],[121.400058,31.230954],[121.400043,31.230987],[121.400027,31.231014],[121.400008,31.23104],[121.399985,31.231063],[121.399959,31.231084],[121.39993,31.231106],[121.399901,31.231125],[121.399871,31.231142],[121.399843,31.231154],[121.399811,31.231164],[121.399779,31.231172],[121.399745,31.231179],[121.399711,31.231181],[121.399673,31.231181],[121.399635,31.231177],[121.399594,31.231169],[121.399555,31.231159],[121.399517,31.231145],[121.399484,31.231129],[121.399453,31.231111],[121.399426,31.231092],[121.3994,31.231069],[121.399378,31.231046],[121.399358,31.23102],[121.399344,31.230993],[121.399331,31.230963],[121.399322,31.23093],[121.399316,31.230892],[121.399313,31.230855],[121.399314,31.230817],[121.399319,31.230783],[121.399326,31.230747],[121.399336,31.230708],[121.399347,31.230669],[121.399361,31.230627],[121.399374,31.230591],[121.399387,31.230555],[121.399399,31.230523],[121.399412,31.23049],[121.399425,31.230457],[121.399436,31.230425],[121.399447,31.230391],[121.399457,31.230353],[121.399467,31.230316],[121.399477,31.23028],[121.399486,31.230248],[121.399497,31.230214],[121.39951,31.230178],[121.399523,31.23014],[121.399536,31.230107],[121.399548,31.230076],[121.399559,31.230046],[121.399571,31.230016],[121.399583,31.229987],[121.399596,31.229958],[121.39961,31.229931],[121.399625,31.229906],[121.399642,31.229884],[121.399664,31.229862],[121.399691,31.22984],[121.399721,31.229819],[121.399755,31.2298],[121.399789,31.229785],[121.399828,31.229771],[121.399869,31.229759],[121.39991,31.229751],[121.399949,31.229749],[121.399986,31.229751],[121.400024,31.229756],[121.400069,31.229764],[121.40011,31.229775],[121.400149,31.229792],[121.400179,31.229812],[121.40021,31.229835],[121.400238,31.229858],[121.400262,31.229885],[121.400283,31.229916],[121.400301,31.229952],[121.400314,31.229992],[121.400323,31.230032],[121.400326,31.230069],[121.400326,31.230104],[121.400321,31.230139],[121.400313,31.230173],[121.400303,31.230205],[121.40029,31.230238],[121.400277,31.230271],[121.400263,31.230308],[121.400249,31.230343],[121.400237,31.230378],[121.400225,31.230409],[121.400214,31.230441],[121.400203,31.230473],[121.400192,31.230505],[121.400181,31.23054],[121.40017,31.230576],[121.40016,31.230614],[121.400151,31.230649],[121.400142,31.230683],[121.400133,31.230713],[121.400123,31.230744],[121.400113,31.230774],[121.400104,31.230803],[121.400095,31.230832],[121.400086,31.230861],[121.400075,31.230889],[121.400063,31.230918],[121.400049,31.230945],[121.400033,31.230973],[121.400016,31.230998],[121.399996,31.231024],[121.39997,31.231053],[121.399942,31.23108],[121.399909,31.231108],[121.399878,31.23113],[121.399847,31.231149],[121.399815,31.231164],[121.399781,31.231175],[121.399745,31.231183],[121.399708,31.231186],[121.39967,31.231186],[121.399632,31.231182],[121.399595,31.231174],[121.39956,31.231164],[121.399527,31.23115],[121.399495,31.231133],[121.399464,31.231114],[121.399435,31.231092],[121.399407,31.231067],[121.399382,31.231039],[121.399359,31.23101],[121.399342,31.230981],[121.39933,31.230952],[121.399321,31.230921],[121.399317,31.230888],[121.399316,31.230855],[121.399318,31.230822],[121.399322,31.230788],[121.399327,31.230756],[121.399334,31.230724],[121.399342,31.230695],[121.399351,31.230665],[121.399361,31.230635],[121.399371,31.230605],[121.399383,31.230574],[121.399395,31.230543],[121.399407,31.230511],[121.399419,31.230477],[121.399429,31.230445],[121.399439,31.230413],[121.399448,31.230381],[121.399458,31.230349],[121.399467,31.230316],[121.399476,31.230284],[121.399485,31.230252],[121.399495,31.230221],[121.399504,31.23019],[121.399513,31.230161],[121.399522,31.230133],[121.399531,31.230106],[121.399542,31.230076],[121.399554,31.230045],[121.399568,31.23001],[121.399584,31.229975],[121.399602,31.229939],[121.399622,31.229907],[121.399644,31.229878],[121.39967,31.229852],[121.399698,31.22983],[121.399728,31.22981],[121.39976,31.229793],[121.399796,31.229778],[121.399832,31.229765],[121.399869,31.229755],[121.399904,31.22975],[121.399939,31.229748],[121.399973,31.229749],[121.400006,31.229752],[121.400041,31.229759],[121.400078,31.229769],[121.400117,31.229783],[121.400152,31.229801],[121.400184,31.229821],[121.400211,31.229842],[121.400236,31.229866],[121.400259,31.229891],[121.400283,31.229918],[121.400302,31.229946],[121.400316,31.229976],[121.400323,31.230009],[121.400327,31.230041],[121.400328,31.230073],[121.400324,31.230102],[121.400317,31.230134],[121.400307,31.230164],[121.400294,31.230196],[121.400281,31.230228],[121.400266,31.230264],[121.40025,31.2303],[121.400237,31.230333],[121.400225,31.230365],[121.400216,31.230397],[121.400207,31.23043],[121.400199,31.230464],[121.400189,31.230499],[121.400179,31.230532],[121.400169,31.230567],[121.400159,31.230601],[121.40015,31.230633],[121.400142,31.230664],[121.400134,31.230694],[121.400125,31.230725],[121.400115,31.230755],[121.400104,31.230789],[121.400093,31.230823],[121.400081,31.230859],[121.400069,31.23089],[121.400055,31.230921],[121.400041,31.230949],[121.400025,31.230978],[121.400007,31.231005],[121.399988,31.231031],[121.399965,31.231057],[121.39994,31.231081],[121.399913,31.231103],[121.399883,31.231123],[121.399852,31.231141],[121.399819,31.231155],[121.399785,31.231166],[121.399747,31.231174],[121.399706,31.231178],[121.399662,31.231178],[121.399621,31.231175],[121.399584,31.231168],[121.39955,31.231158],[121.399519,31.231144],[121.399489,31.231128],[121.399462,31.231109],[121.399435,31.231088],[121.399411,31.231066],[121.399389,31.231043],[121.399368,31.231016],[121.39935,31.230987],[121.399337,31.230957],[121.399328,31.230927],[121.399322,31.230894],[121.39932,31.230859],[121.399321,31.230823],[121.399325,31.230786],[121.399332,31.230751],[121.39934,31.230719],[121.399348,31.23069],[121.399357,31.230662],[121.399366,31.230634],[121.399376,31.230603],[121.399386,31.230573],[121.399397,31.230543],[121.399408,31.230511],[121.39942,31.23048],[121.399431,31.230448],[121.399442,31.230417],[121.399453,31.230385],[121.399464,31.230353],[121.399475,31.230321],[121.399487,31.230285],[121.399498,31.230249],[121.39951,31.23021],[121.399519,31.230176],[121.399529,31.23014],[121.399537,31.230108],[121.399545,31.230078],[121.399553,31.230049],[121.399563,31.230019],[121.399574,31.22999],[121.399588,31.22996],[121.399604,31.229931],[121.399622,31.229905],[121.399643,31.229881],[121.399664,31.22986],[121.399691,31.229839],[121.399722,31.229819],[121.399758,31.229799],[121.399794,31.229783],[121.39983,31.22977],[121.399867,31.229761],[121.399904,31.229755],[121.39994,31.229751],[121.399977,31.22975],[121.400014,31.229752],[121.400052,31.22976],[121.40009,31.229769],[121.400124,31.229781],[121.400155,31.229796],[121.400182,31.229815],[121.400209,31.229837],[121.400234,31.22986],[121.400258,31.229885],[121.400279,31.229914],[121.400298,31.229946],[121.400312,31.229979],[121.400321,31.230011],[121.400326,31.230043],[121.400326,31.230074],[121.400323,31.230104],[121.400317,31.230135],[121.400308,31.230165],[121.400297,31.230195],[121.400284,31.230228],[121.40027,31.23026],[121.400257,31.230294],[121.400247,31.230327],[121.400238,31.23036],[121.40023,31.230392],[121.400221,31.230426],[121.400211,31.230463],[121.400198,31.230504],[121.400184,31.230543],[121.40017,31.230579],[121.400158,31.230613],[121.400147,31.230645],[121.400136,31.230677],[121.400126,31.230707],[121.400115,31.230738],[121.400105,31.230769],[121.400093,31.2308],[121.400083,31.23083],[121.400072,31.230859],[121.400062,31.230889],[121.400051,31.23092],[121.400038,31.230951],[121.40002,31.230984],[121.399997,31.231018],[121.399969,31.231051],[121.399938,31.23108],[121.399906,31.231104],[121.399873,31.231125],[121.39984,31.231143],[121.399806,31.231157],[121.399772,31.231167],[121.399737,31.231173],[121.399699,31.231176],[121.39966,31.231175],[121.399623,31.231171],[121.399586,31.231163],[121.399551,31.231152],[121.399517,31.231137],[121.399487,31.231121],[121.399454,31.231099],[121.399423,31.231073],[121.399393,31.231044],[121.399369,31.231015],[121.39935,31.230985],[121.399336,31.230953],[121.399327,31.23092],[121.399322,31.230886],[121.39932,31.230853],[121.399322,31.230819],[121.399326,31.230786],[121.399332,31.230754],[121.399338,31.230726],[121.399346,31.230697],[121.399354,31.230668],[121.399363,31.230639],[121.399372,31.23061],[121.399383,31.230578],[121.399395,31.230543],[121.399408,31.230505],[121.39942,31.230471],[121.399431,31.230438],[121.399442,31.230406],[121.399453,31.230376],[121.399465,31.230345],[121.399476,31.230315],[121.399487,31.230282],[121.399498,31.230249],[121.399507,31.230218],[121.399516,31.230187],[121.399524,31.230158],[121.399533,31.230128],[121.399541,31.2301],[121.399549,31.230071],[121.399562,31.230037],[121.399578,31.230001],[121.399597,31.229962],[121.399617,31.229928],[121.39964,31.229898],[121.399666,31.22987],[121.399694,31.229845],[121.399725,31.229822],[121.399756,31.229803],[121.399791,31.229786],[121.399827,31.229772],[121.399866,31.229762],[121.399903,31.229754],[121.39994,31.229747],[121.399974,31.229744],[121.400006,31.229744],[121.400039,31.229752],[121.400076,31.229763],[121.400113,31.229778],[121.400149,31.229796],[121.400181,31.229816],[121.40021,31.229839],[121.400235,31.229862],[121.400258,31.229887],[121.400276,31.229913],[121.400292,31.229942],[121.400304,31.229973],[121.400313,31.230005],[121.400318,31.230036],[121.400318,31.230069],[121.400316,31.2301],[121.400311,31.230132],[121.400303,31.230163],[121.400294,31.230193],[121.400283,31.230226],[121.40027,31.230261],[121.400257,31.230297],[121.400245,31.230332],[121.400235,31.230364],[121.400225,31.230397],[121.400217,31.23043],[121.400208,31.230463],[121.400197,31.230496],[121.400184,31.230529],[121.40017,31.230561],[121.400157,31.23059],[121.400145,31.230621],[121.400134,31.230651],[121.400125,31.230682],[121.400115,31.230711],[121.400106,31.23074],[121.400096,31.230771],[121.400086,31.230805],[121.400075,31.230841],[121.400064,31.230877],[121.400052,31.230911],[121.400039,31.230943],[121.400024,31.230973],[121.400006,31.231001],[121.399986,31.231027],[121.399961,31.231053],[121.399934,31.231076],[121.399907,31.231095],[121.399881,31.231111],[121.399853,31.231126],[121.399824,31.231139],[121.399795,31.231151],[121.399765,31.23116],[121.399732,31.231166],[121.399694,31.23117],[121.399654,31.23117],[121.399616,31.231165],[121.39958,31.231158],[121.399548,31.231148],[121.399517,31.231135],[121.399489,31.231122],[121.399461,31.231105],[121.399435,31.231087],[121.399409,31.231065],[121.399386,31.231043],[121.399365,31.231015],[121.399347,31.230985],[121.399333,31.230949],[121.399324,31.230917],[121.399319,31.23088],[121.399318,31.230845],[121.399321,31.230808],[121.399327,31.230774],[121.399336,31.230742],[121.399345,31.230711],[121.399354,31.230681],[121.399365,31.230651],[121.399376,31.230621],[121.399387,31.230587],[121.399399,31.230553],[121.399409,31.230519],[121.399419,31.230487],[121.399429,31.230456],[121.399438,31.230425],[121.399448,31.230393],[121.399458,31.23036],[121.399469,31.23032],[121.399484,31.230276],[121.399498,31.230234],[121.39951,31.230198],[121.399517,31.230169],[121.399526,31.230142],[121.399534,31.230119],[121.399542,31.230102],[121.399549,31.230088],[121.399562,31.230058],[121.399578,31.230019],[121.399598,31.229971],[121.399619,31.229932],[121.399642,31.229898],[121.399666,31.229869],[121.399692,31.229842],[121.399719,31.229818],[121.399745,31.229798],[121.399781,31.229781],[121.399821,31.229768],[121.399866,31.229757],[121.399906,31.229749],[121.399945,31.229745],[121.399981,31.229745],[121.400016,31.229748],[121.400051,31.229756],[121.400085,31.229766],[121.400119,31.22978],[121.400152,31.229797],[121.400183,31.229816],[121.40021,31.229837],[121.400235,31.22986],[121.400256,31.229884],[121.400273,31.229909],[121.400288,31.229938],[121.4003,31.229969],[121.400309,31.230004],[121.400314,31.230038],[121.400315,31.230071],[121.400313,31.230103],[121.400307,31.230133],[121.400299,31.230164],[121.40029,31.230193],[121.400279,31.230222],[121.400268,31.23025],[121.400257,31.230279],[121.400247,31.230306],[121.400237,31.230336],[121.400227,31.230367],[121.400218,31.230397],[121.40021,31.230427],[121.400201,31.230459],[121.40019,31.230496],[121.400177,31.230533],[121.400165,31.230569],[121.400152,31.230599],[121.40014,31.230631],[121.400129,31.230661],[121.400119,31.230692],[121.40011,31.230721],[121.400102,31.23075],[121.400094,31.230781],[121.400086,31.230813],[121.400077,31.230845],[121.400067,31.230875],[121.400054,31.230905],[121.40004,31.230934],[121.400024,31.230963],[121.400007,31.230991],[121.399985,31.231021],[121.39996,31.23105],[121.399932,31.231075],[121.399905,31.231097],[121.399876,31.231116],[121.399848,31.231131],[121.399817,31.231143],[121.399786,31.231152],[121.399753,31.231159],[121.399719,31.231164],[121.399684,31.231167],[121.399648,31.231167],[121.399614,31.231163],[121.399579,31.231156],[121.399547,31.231146],[121.399515,31.231133],[121.399482,31.231115],[121.399447,31.231093],[121.399414,31.231066],[121.399386,31.231041],[121.399363,31.231013],[121.399345,31.230984],[121.39933,31.230949],[121.39932,31.230914],[121.399315,31.230872],[121.399315,31.230833],[121.39932,31.230793],[121.399327,31.23076],[121.399335,31.230726],[121.399343,31.230695],[121.399354,31.230666],[121.399367,31.230633],[121.399383,31.230596],[121.399396,31.230556],[121.399408,31.23052],[121.399418,31.230486],[121.399429,31.230453],[121.399439,31.230422],[121.399449,31.230391],[121.399458,31.230361],[121.399466,31.230331],[121.399476,31.230299],[121.399486,31.23025],[121.399491,31.230223],[121.399494,31.230195]]}}]}