{"type":"FeatureCollection","features":[{"type":"Feature","properties":{"id":"2026-10-04_walking_51","type":"walking","date":"2026-10-04"},"geometry":{"type":"LineString","coordinates":[[120.471967,30.754525],[120.471952,30.754522],[120.471939,30.754521],[120.47193,30.754523],[120.471921,30.754524],[120.471912,30.754525],[120.471903,30.754525],[120.471894,30.754523],[120.471882,30.75452],[120.471872,30.754516],[120.471863,30.754512],[120.471855,30.754507],[120.471846,30.754502],[120.471838,30.754499],[120.471831,30.754495],[120.471823,30.754492],[120.471813,30.754488],[120.471801,30.754483],[120.471787,30.754479],[120.471769,30.754472],[120.471751,30.754464],[120.471738,30.754459],[120.471727,30.754456],[120.471719,30.754453],[120.47171,30.754451],[120.471697,30.754447],[120.471685,30.754444],[120.471673,30.75444],[120.471664,30.754438],[120.471655,30.754436],[120.471641,30.754432],[120.471628,30.754429],[120.471616,30.754426],[120.471607,30.754424],[120.471594,30.75442],[120.471574,30.754415],[120.471558,30.754411],[120.471542,30.754406],[120.471524,30.754401],[120.471514,30.754399],[120.471504,30.754396],[120.471489,30.754392],[120.471473,30.754388],[120.471457,30.754383],[120.471437,30.754378],[120.471419,30.754373],[120.471406,30.75437],[120.471394,30.754366],[120.471383,30.754363],[120.471368,30.754359],[120.47135,30.754354],[120.471339,30.754351],[120.471331,30.754349],[120.471323,30.754347],[120.47131,30.754344],[120.471298,30.75434],[120.471286,30.754337],[120.471275,30.754334],[120.471269,30.754332],[120.471261,30.754329],[120.471248,30.754325],[120.471236,30.754322],[120.471224,30.754319],[120.471212,30.754318],[120.471202,30.754316],[120.471192,30.754314],[120.471181,30.754311],[120.471171,30.754309],[120.471161,30.754309],[120.471151,30.754308],[120.471143,30.754307],[120.471133,30.754305],[120.471123,30.754304],[120.47111,30.754303],[120.471101,30.754301],[120.471094,30.754299],[120.471088,30.754297],[120.47108,30.754296],[120.471069,30.754294],[120.47106,30.754292],[120.471049,30.754292],[120.471036,30.754291],[120.471023,30.754288],[120.471008,30.754285],[120.470996,30.754282],[120.470987,30.754278],[120.470977,30.754272],[120.470965,30.754262],[120.47095,30.754253],[120.470937,30.754247],[120.470929,30.754243],[120.470917,30.754241],[120.470905,30.754239],[120.470894,30.754236],[120.470885,30.754231],[120.470875,30.754225],[120.470862,30.754218],[120.470848,30.75421],[120.470834,30.754203],[120.470824,30.754198],[120.470813,30.754193],[120.4708,30.754188],[120.470787,30.754182],[120.470773,30.754174],[120.47076,30.754166],[120.470749,30.754158],[120.470741,30.754153],[120.470732,30.754147],[120.470721,30.75414],[120.470712,30.754134],[120.470703,30.754128],[120.470693,30.75412],[120.470683,30.754112],[120.470669,30.754103],[120.470658,30.754097],[120.470644,30.75409],[120.47063,30.754082],[120.470622,30.754075],[120.470613,30.754067],[120.470603,30.754061],[120.470596,30.754056],[120.470587,30.754052],[120.470576,30.754045],[120.470567,30.75404],[120.47056,30.754036],[120.470552,30.754031],[120.470545,30.754025],[120.47054,30.75402],[120.470535,30.754014],[120.470527,30.754008],[120.470515,30.754],[120.470505,30.753993],[120.4705,30.753989],[120.470496,30.753984],[120.470494,30.75398],[120.470494,30.753975],[120.470492,30.753967],[120.47049,30.753959],[120.470489,30.753954],[120.470487,30.753949],[120.470484,30.753945],[120.470482,30.753943],[120.470479,30.753939],[120.470474,30.753933],[120.470468,30.753926],[120.470463,30.75392],[120.470461,30.753914],[120.470461,30.753911],[120.470462,30.753908],[120.470463,30.7539],[120.47046,30.753888],[120.470456,30.753878],[120.470453,30.753871],[120.470453,30.753864],[120.470454,30.753856],[120.470456,30.75385],[120.470458,30.753844],[120.470458,30.753836],[120.470455,30.753829],[120.470452,30.753823],[120.470448,30.753819],[120.470441,30.753816],[120.470435,30.753814],[120.470432,30.753814],[120.470431,30.753814],[120.470429,30.753814],[120.47043,30.753815],[120.47043,30.753818],[120.470429,30.75382],[120.470432,30.753823],[120.470434,30.753824],[120.470436,30.753825],[120.470438,30.753824],[120.470441,30.753821],[120.470444,30.753815],[120.470447,30.753807],[120.470447,30.753796],[120.470446,30.753781],[120.470445,30.753764],[120.470446,30.753749],[120.470446,30.753738],[120.470448,30.753727],[120.47045,30.753716],[120.470454,30.753701],[120.470458,30.753689],[120.470462,30.753679],[120.470467,30.753665],[120.470472,30.753653],[120.470476,30.75364],[120.470475,30.753626],[120.470471,30.753616],[120.470468,30.753608],[120.470468,30.7536],[120.47047,30.75359],[120.470475,30.753577],[120.470484,30.753561],[120.470491,30.753547],[120.4705,30.753539],[120.470514,30.753531],[120.470529,30.75352],[120.470542,30.75351],[120.470554,30.753496],[120.470563,30.753485],[120.47057,30.753476],[120.470575,30.753471],[120.470583,30.753466],[120.470591,30.753459],[120.470598,30.753451],[120.470606,30.753443],[120.470616,30.753433],[120.470629,30.753421],[120.470641,30.753409],[120.47065,30.753398],[120.470659,30.753389],[120.470664,30.753377],[120.470667,30.753364],[120.470672,30.753356],[120.470682,30.753347],[120.470694,30.753336],[120.470708,30.753325],[120.470717,30.75331],[120.470721,30.753299],[120.470724,30.753289],[120.470727,30.753276],[120.470731,30.753264],[120.470739,30.753252],[120.470743,30.753242],[120.470743,30.753229],[120.470744,30.753214],[120.470747,30.753202],[120.470751,30.75319],[120.470753,30.753179],[120.470757,30.753169],[120.470762,30.753162],[120.470769,30.753156],[120.47078,30.753149],[120.470792,30.753139],[120.470801,30.75313],[120.47081,30.75312],[120.470822,30.75311],[120.470836,30.753098],[120.470853,30.753084],[120.470872,30.753069],[120.470881,30.753056],[120.470884,30.753044],[120.470892,30.753033],[120.470902,30.753025],[120.470911,30.753013],[120.470919,30.752998],[120.470925,30.752981],[120.470931,30.752968],[120.470939,30.752958],[120.470946,30.752948],[120.47095,30.752941],[120.470955,30.752933],[120.47096,30.752924],[120.470968,30.752912],[120.470975,30.752902],[120.470978,30.752895],[120.470985,30.752886],[120.470993,30.752876],[120.471001,30.752866],[120.471006,30.752858],[120.471012,30.75285],[120.471021,30.752839],[120.47103,30.752829],[120.471038,30.752819],[120.471045,30.752813],[120.471052,30.752805],[120.471062,30.752794],[120.471072,30.752784],[120.471084,30.752774],[120.471095,30.752763],[120.471105,30.752753],[120.471115,30.752744],[120.471124,30.752735],[120.471133,30.752727],[120.47114,30.752722],[120.471147,30.752716],[120.471158,30.752708],[120.471174,30.7527],[120.47119,30.752694],[120.471205,30.752689],[120.471221,30.752682],[120.471234,30.752675],[120.471248,30.752667],[120.471262,30.752658],[120.471271,30.75265],[120.471282,30.752645],[120.471294,30.752643],[120.471306,30.752642],[120.471319,30.75264],[120.471331,30.752637],[120.47134,30.752633],[120.471349,30.752628],[120.471362,30.752624],[120.471374,30.75262],[120.471383,30.752617],[120.471394,30.752615],[120.471408,30.752611],[120.471421,30.752608],[120.471433,30.752604],[120.471444,30.7526],[120.471457,30.752598],[120.471474,30.752599],[120.471489,30.752599],[120.4715,30.752598],[120.471513,30.752595],[120.471528,30.752591],[120.471542,30.752586],[120.471556,30.752581],[120.47157,30.752577],[120.471581,30.752575],[120.47159,30.752576],[120.471602,30.752578],[120.471616,30.752577],[120.471634,30.752574],[120.471655,30.75257],[120.471681,30.752563],[120.471705,30.752554],[120.471717,30.752549],[120.471726,30.752548],[120.471735,30.752548],[120.471744,30.752547],[120.471757,30.752544],[120.471771,30.75254],[120.471785,30.752536],[120.471797,30.752532],[120.471809,30.75253],[120.471821,30.752528],[120.471831,30.752527],[120.471846,30.752528],[120.471864,30.75253],[120.471882,30.752537],[120.471902,30.752546],[120.471919,30.752557],[120.471941,30.752569],[120.471963,30.752576],[120.471978,30.75258],[120.471991,30.752585],[120.472004,30.752592],[120.472017,30.752599],[120.47203,30.752607],[120.472045,30.752615],[120.472061,30.752624],[120.472074,30.752633],[120.472084,30.752641],[120.472094,30.752651],[120.472107,30.752666],[120.472119,30.752681],[120.472128,30.752691],[120.472139,30.752701],[120.472151,30.75271],[120.47216,30.752717],[120.472167,30.752722],[120.472174,30.752727],[120.472184,30.752734],[120.472195,30.752741],[120.472206,30.752748],[120.472218,30.752755],[120.472229,30.75276],[120.47224,30.752765],[120.472249,30.752772],[120.472256,30.752776],[120.472261,30.752781],[120.47227,30.752789],[120.472278,30.752797],[120.472284,30.752804],[120.47229,30.752811],[120.472296,30.752817],[120.472302,30.752821],[120.472307,30.752827],[120.472315,30.752836],[120.472323,30.752845],[120.472333,30.752855],[120.472343,30.752863],[120.472349,30.752869],[120.472358,30.75288],[120.472368,30.75289],[120.472378,30.7529],[120.472392,30.752915],[120.472406,30.752928],[120.472413,30.752936],[120.472419,30.752942],[120.472428,30.752948],[120.472437,30.752951],[120.472447,30.75295],[120.472459,30.752945],[120.472467,30.752939],[120.472475,30.752933],[120.472483,30.752926],[120.472489,30.75292],[120.472494,30.752916],[120.472497,30.752913],[120.472504,30.752908],[120.47251,30.752902],[120.472514,30.752895],[120.47252,30.752885],[120.472526,30.752876],[120.472532,30.752867],[120.472542,30.752857],[120.472552,30.752847],[120.472563,30.752838],[120.472573,30.752828],[120.472581,30.752822],[120.472588,30.752816],[120.472596,30.752808],[120.472604,30.752796],[120.472611,30.752786],[120.472615,30.752781],[120.472621,30.752772],[120.47263,30.752763],[120.47264,30.752758],[120.472653,30.752755],[120.472668,30.752749],[120.472686,30.752741],[120.472709,30.752731],[120.472731,30.75272],[120.472744,30.75271],[120.472751,30.752703],[120.472757,30.752697],[120.472766,30.752692],[120.472776,30.752687],[120.472787,30.752683],[120.472798,30.752678],[120.472809,30.752671],[120.47282,30.752663],[120.472831,30.752658],[120.472842,30.752651],[120.472853,30.752645],[120.472869,30.752642],[120.472885,30.75264],[120.472898,30.752636],[120.472913,30.752631],[120.472926,30.752624],[120.472934,30.75262],[120.472942,30.752619],[120.472953,30.752617],[120.472965,30.752614],[120.472978,30.752612],[120.472992,30.752607],[120.473003,30.752601],[120.473014,30.752596],[120.473028,30.752592],[120.473041,30.752588],[120.473055,30.752585],[120.473069,30.752581],[120.473083,30.752579],[120.473096,30.752575],[120.47311,30.752569],[120.473122,30.752564],[120.473132,30.752561],[120.473143,30.752558],[120.473152,30.752558],[120.473161,30.752559],[120.473175,30.752559],[120.473191,30.752557],[120.473202,30.752554],[120.473211,30.75255],[120.47322,30.752545],[120.473227,30.752544],[120.473236,30.752547],[120.473249,30.75255],[120.473267,30.752551],[120.473281,30.752552],[120.473291,30.752554],[120.473297,30.752552],[120.473303,30.75255],[120.473312,30.752548],[120.473318,30.752546],[120.473326,30.752545],[120.473337,30.752542],[120.473346,30.752539],[120.473358,30.752537],[120.473372,30.752534],[120.473385,30.752532],[120.473395,30.752531],[120.473405,30.752528],[120.473419,30.752523],[120.473431,30.752517],[120.473443,30.75251],[120.473452,30.752505],[120.473459,30.752501],[120.473466,30.752501],[120.473476,30.752501],[120.47349,30.7525],[120.473505,30.752496],[120.473519,30.752492],[120.473534,30.752486],[120.473548,30.752481],[120.473562,30.752478],[120.473574,30.752477],[120.473582,30.752477],[120.473592,30.75248],[120.473604,30.752484],[120.473619,30.752488],[120.473637,30.752493],[120.473656,30.752498],[120.473673,30.752503],[120.473687,30.752507],[120.4737,30.75251],[120.473712,30.752512],[120.47372,30.752514],[120.473728,30.752517],[120.473734,30.752522],[120.47374,30.752528],[120.473749,30.752534],[120.473761,30.75254],[120.473774,30.752544],[120.473789,30.752545],[120.473812,30.752544],[120.473853,30.752539],[120.473886,30.752529],[120.473899,30.752522],[120.473912,30.752517],[120.473927,30.752514],[120.473942,30.752511],[120.47396,30.752504],[120.473975,30.752497],[120.473986,30.752494],[120.473997,30.752492],[120.474006,30.752488],[120.474011,30.752486],[120.474011,30.752485],[120.474013,30.752485],[120.47402,30.752483],[120.47403,30.752479],[120.474042,30.752474],[120.474052,30.752468],[120.474058,30.75246],[120.47406,30.752452],[120.47406,30.752443],[120.474062,30.752435],[120.474064,30.752427],[120.474065,30.752423],[120.474066,30.752422],[120.474067,30.752418],[120.474065,30.752411],[120.474064,30.752402],[120.474064,30.752392],[120.474064,30.752381],[120.474063,30.752371],[120.474063,30.752365],[120.474062,30.752359],[120.474061,30.752349],[120.47406,30.75234],[120.474057,30.75233],[120.474055,30.752319],[120.474051,30.752305],[120.474047,30.752296],[120.474043,30.752288],[120.474043,30.752275],[120.474041,30.752267],[120.474037,30.752261],[120.474033,30.752254],[120.474028,30.752247],[120.474025,30.752242],[120.474023,30.752233],[120.474018,30.752223],[120.474011,30.75221],[120.474006,30.752198],[120.474002,30.752188],[120.473996,30.752177],[120.47399,30.752167],[120.473984,30.752158],[120.47398,30.752151],[120.473976,30.752144],[120.473972,30.752134],[120.473968,30.752123],[120.473965,30.752112],[120.473962,30.752104],[120.473959,30.752095],[120.473956,30.752086],[120.473953,30.752078],[120.47395,30.75207],[120.473948,30.75206],[120.473947,30.752049],[120.473947,30.752035],[120.473948,30.752022],[120.473949,30.752007],[120.47395,30.751995],[120.473951,30.751983],[120.473952,30.751971],[120.473954,30.751961],[120.473956,30.751952],[120.473958,30.751943],[120.47396,30.751934],[120.473964,30.751925],[120.473966,30.751917],[120.473969,30.75191],[120.473972,30.751905],[120.47398,30.751898],[120.473993,30.751893],[120.474006,30.75189],[120.474014,30.751887],[120.474022,30.751885],[120.474025,30.751884],[120.474029,30.751883],[120.474035,30.751884],[120.474041,30.751885],[120.474049,30.751885],[120.47406,30.751882],[120.474066,30.751881],[120.474073,30.751879],[120.474081,30.751877],[120.474085,30.751876],[120.474091,30.751874],[120.4741,30.751871],[120.474109,30.751867],[120.474117,30.751864],[120.474125,30.751861],[120.474134,30.751857],[120.474144,30.751854],[120.474154,30.75185],[120.47416,30.751847],[120.474165,30.751845],[120.474174,30.751842],[120.474185,30.751839],[120.474195,30.751836],[120.474206,30.751833],[120.474218,30.751829],[120.474232,30.751826],[120.474252,30.75182],[120.474271,30.751814],[120.474284,30.751809],[120.474295,30.751805],[120.474305,30.751801],[120.474316,30.751797],[120.474327,30.751793],[120.474336,30.751791],[120.474345,30.751788],[120.474358,30.751782],[120.474368,30.751777],[120.474378,30.751778],[120.474392,30.751781],[120.474407,30.751781],[120.47442,30.751779],[120.474431,30.751776],[120.47444,30.751776],[120.474458,30.751778],[120.474479,30.751776],[120.474491,30.751774],[120.474499,30.751773],[120.474511,30.751772],[120.474522,30.75177],[120.474529,30.751769],[120.474537,30.751768],[120.474549,30.751766],[120.47456,30.751764],[120.474572,30.751763],[120.474582,30.751761],[120.474589,30.75176],[120.474596,30.751759],[120.474609,30.751757],[120.47462,30.751755],[120.474628,30.751753],[120.474637,30.751751],[120.474652,30.751747],[120.47467,30.751743],[120.474686,30.751739],[120.474694,30.751737],[120.474705,30.751734],[120.474722,30.751731],[120.474737,30.751727],[120.474743,30.751725],[120.47475,30.751723],[120.474759,30.751718],[120.474766,30.751711],[120.474776,30.751702],[120.474787,30.751689],[120.474802,30.75167],[120.47482,30.751651],[120.474837,30.751638],[120.47485,30.751627],[120.47486,30.751622],[120.474871,30.751619],[120.474882,30.751614],[120.474891,30.751612],[120.474904,30.751609],[120.474917,30.751608],[120.474927,30.751605],[120.474935,30.7516],[120.474939,30.751598],[120.474943,30.751597],[120.474951,30.751596],[120.474963,30.751592],[120.474978,30.751588],[120.474995,30.751583],[120.475009,30.751577],[120.475019,30.751571],[120.475028,30.751569],[120.475038,30.751571],[120.475049,30.751574],[120.475061,30.751576],[120.475072,30.751577],[120.475082,30.751579],[120.475088,30.751585],[120.475092,30.751591],[120.475093,30.75159],[120.475094,30.751591],[120.475095,30.75159],[120.475098,30.751588],[120.475106,30.751585],[120.475116,30.75158],[120.475127,30.751576],[120.475137,30.751571],[120.475143,30.751568],[120.475147,30.751566],[120.47515,30.751565],[120.475152,30.751563],[120.475156,30.751563],[120.475164,30.751565],[120.475178,30.751567],[120.475191,30.75157],[120.475204,30.751573],[120.475217,30.751576],[120.475232,30.751581],[120.475246,30.751587],[120.475257,30.751591],[120.475265,30.751595],[120.475272,30.751599],[120.475282,30.751602],[120.475292,30.751606],[120.4753,30.751612],[120.47531,30.751618],[120.475323,30.751622],[120.475333,30.751624],[120.47534,30.751627],[120.475348,30.751631],[120.475359,30.751637],[120.475373,30.751641],[120.475388,30.751643],[120.475403,30.751648],[120.475421,30.751656],[120.475438,30.751663],[120.475451,30.751667],[120.475459,30.751667],[120.475466,30.751668],[120.475473,30.751671],[120.475478,30.751677],[120.475483,30.751684],[120.475493,30.751689],[120.475505,30.751695],[120.475518,30.751703],[120.475533,30.751711],[120.475547,30.751721],[120.475563,30.751732],[120.475577,30.751744],[120.475591,30.751758],[120.475602,30.75177],[120.47561,30.751779],[120.475617,30.751788],[120.475627,30.751798],[120.475636,30.751808],[120.475645,30.751815],[120.475658,30.751821],[120.47567,30.751826],[120.47568,30.751828],[120.475686,30.751832],[120.475693,30.751838],[120.475701,30.751842],[120.47571,30.751842],[120.475721,30.751839],[120.475738,30.751834],[120.475756,30.751827],[120.475775,30.75182],[120.475787,30.751817],[120.475795,30.751816],[120.475803,30.751817],[120.475813,30.751816],[120.475825,30.751815],[120.475838,30.751814],[120.47585,30.751812],[120.475859,30.751808],[120.475867,30.751804],[120.475879,30.751801],[120.47589,30.751798],[120.475902,30.751795],[120.475915,30.751793],[120.475923,30.751791],[120.475931,30.751788],[120.475941,30.751786],[120.475952,30.751783],[120.475963,30.75178],[120.475975,30.751777],[120.475988,30.751776],[120.476001,30.751776],[120.476015,30.751774],[120.476028,30.751772],[120.476037,30.75177],[120.476046,30.751768],[120.476056,30.751765],[120.476066,30.751763],[120.476076,30.751761],[120.476084,30.751759],[120.476094,30.751757],[120.476108,30.751753],[120.476123,30.751749],[120.476139,30.751742],[120.476157,30.751733],[120.476171,30.751726],[120.476182,30.751721],[120.476194,30.751717],[120.476204,30.751713],[120.476212,30.751707],[120.47622,30.751701],[120.476224,30.751697],[120.476228,30.751691],[120.476231,30.751683],[120.476233,30.751676],[120.476233,30.751669],[120.476233,30.751663],[120.476232,30.751658],[120.476232,30.751652],[120.476234,30.751646],[120.476235,30.751641],[120.476237,30.751638],[120.476238,30.751634],[120.476237,30.751633],[120.476236,30.751632],[120.476237,30.751633],[120.476237,30.751634],[120.476235,30.751635],[120.476236,30.751635],[120.476241,30.751636],[120.476248,30.751638],[120.476256,30.751641],[120.476264,30.751644],[120.476269,30.751647],[120.476272,30.751649],[120.476273,30.751651],[120.476271,30.751652],[120.476267,30.751651],[120.47626,30.751649],[120.476252,30.751644],[120.476246,30.751638],[120.476244,30.751635],[120.476243,30.751634],[120.476241,30.751635],[120.476239,30.751638],[120.476236,30.751642],[120.476237,30.751645],[120.476237,30.751647],[120.476235,30.751649],[120.476235,30.751652],[120.476234,30.75166],[120.476233,30.751668],[120.476237,30.751677],[120.476242,30.751685],[120.476249,30.751691],[120.476261,30.751688],[120.476288,30.75167],[120.476366,30.751609],[120.476602,30.751419],[120.476336,30.751904],[120.476329,30.751864],[120.476314,30.751854],[120.476295,30.751865],[120.476288,30.751857],[120.476296,30.751832],[120.476308,30.7518],[120.476311,30.751776],[120.476308,30.75176],[120.476306,30.751745],[120.476305,30.751731],[120.476308,30.75172],[120.476313,30.751711],[120.476315,30.751703],[120.476314,30.751695],[120.476311,30.751689],[120.476309,30.751683],[120.476308,30.751673],[120.476305,30.751658],[120.476303,30.751639],[120.476299,30.751617],[120.476294,30.751598],[120.476288,30.751584],[120.476285,30.751575],[120.476283,30.751571],[120.476283,30.75157],[120.476282,30.751573],[120.476283,30.751576],[120.476286,30.751575],[120.476291,30.751573],[120.476297,30.751573],[120.476303,30.751573],[120.476308,30.751575],[120.476312,30.751578],[120.476316,30.751581],[120.476319,30.751584],[120.476321,30.751588],[120.476321,30.751592],[120.476319,30.751596],[120.476314,30.7516],[120.476308,30.751599],[120.4763,30.751594],[120.476293,30.751588],[120.476286,30.751583],[120.476278,30.751577],[120.476273,30.751572],[120.476268,30.751567],[120.476263,30.751558],[120.476258,30.751549],[120.476254,30.75154],[120.476253,30.751531],[120.476252,30.75152],[120.47625,30.751514],[120.476245,30.751508],[120.476238,30.751501],[120.476231,30.751493],[120.476225,30.75148],[120.476217,30.751463],[120.476209,30.751444],[120.476198,30.751426],[120.476187,30.751409],[120.476175,30.751397],[120.476161,30.751387],[120.476145,30.751375],[120.476122,30.751358],[120.476089,30.751343],[120.476054,30.751334],[120.476035,30.751345],[120.476027,30.751367],[120.476023,30.751381],[120.476024,30.751391],[120.476026,30.751393],[120.476027,30.751389],[120.476027,30.751383],[120.476027,30.751378],[120.476026,30.751376],[120.476026,30.751375],[120.476027,30.751376],[120.476032,30.751377],[120.476037,30.751378],[120.476045,30.751379],[120.476054,30.751381],[120.476062,30.751383],[120.476068,30.751385],[120.47607,30.751387],[120.476071,30.751387],[120.476069,30.751386],[120.476068,30.751384],[120.476068,30.75138],[120.476068,30.751377],[120.476069,30.751374],[120.47607,30.751372],[120.476071,30.751372],[120.476071,30.751373],[120.476073,30.751376],[120.476075,30.751379],[120.476077,30.751382],[120.476079,30.751385],[120.47608,30.751388],[120.476079,30.751391],[120.476079,30.751393],[120.476079,30.751395],[120.476078,30.751399],[120.476078,30.751404],[120.47608,30.751412],[120.476083,30.751422],[120.476085,30.751435],[120.476088,30.751447],[120.476092,30.75146],[120.476097,30.751474],[120.476107,30.751491],[120.476119,30.751508],[120.476132,30.751522],[120.476144,30.751535],[120.476151,30.751544],[120.476156,30.751553],[120.476162,30.751564],[120.476169,30.751577],[120.47618,30.751591],[120.4762,30.751608],[120.476229,30.751626],[120.476263,30.751643],[120.4763,30.75166],[120.476337,30.751676],[120.47637,30.75169],[120.476398,30.7517],[120.476421,30.751705],[120.476439,30.751708],[120.476455,30.751708],[120.47647,30.7517],[120.476489,30.751681],[120.476507,30.751649],[120.476526,30.751618],[120.476539,30.751603],[120.476552,30.751589],[120.476566,30.751577],[120.476573,30.751576],[120.47658,30.751578],[120.476585,30.751583],[120.476586,30.751589],[120.476583,30.751595],[120.476579,30.751604],[120.476576,30.751615],[120.476574,30.751626],[120.476576,30.751636],[120.476582,30.751646],[120.47659,30.751655],[120.476597,30.751663],[120.476605,30.751673],[120.476613,30.751686],[120.476621,30.751697],[120.476627,30.751704],[120.476633,30.751712],[120.476641,30.751721],[120.476651,30.751727],[120.476661,30.751728],[120.476672,30.75173],[120.476682,30.751733],[120.476693,30.751736],[120.476702,30.751742],[120.476708,30.751748],[120.476711,30.751756],[120.476713,30.751764],[120.476715,30.75177],[120.476724,30.751777],[120.476733,30.751783],[120.47674,30.751786],[120.476747,30.751785],[120.476755,30.751781],[120.47676,30.751775],[120.476767,30.751768],[120.476773,30.751761],[120.476781,30.751752],[120.476791,30.751743],[120.476801,30.751736],[120.476811,30.751728],[120.476819,30.75172],[120.476821,30.751712],[120.476821,30.751704],[120.476823,30.751698],[120.476827,30.751689],[120.476832,30.751679],[120.476836,30.75167],[120.476839,30.751662],[120.476843,30.751657],[120.476849,30.751653],[120.476857,30.75165],[120.476872,30.751645],[120.476898,30.751635],[120.476923,30.751625],[120.476937,30.751616],[120.476949,30.751607],[120.476961,30.751599],[120.476973,30.751594],[120.476986,30.75159],[120.476999,30.751588],[120.477012,30.751587],[120.477026,30.751589],[120.477035,30.751588],[120.477045,30.751581],[120.477059,30.751572],[120.477072,30.751567],[120.477086,30.751562],[120.477101,30.751554],[120.477112,30.751548],[120.477121,30.751544],[120.477129,30.751541],[120.477136,30.751539],[120.477141,30.751538],[120.477145,30.751535],[120.477151,30.751531],[120.477155,30.75153],[120.47716,30.75153],[120.477165,30.751529],[120.477172,30.751526],[120.477182,30.751519],[120.477189,30.751512],[120.477198,30.751505],[120.47721,30.751499],[120.477221,30.751495],[120.477228,30.751493],[120.477232,30.751493],[120.477238,30.751492],[120.477243,30.751491],[120.47725,30.751489],[120.477255,30.751489],[120.477262,30.751488],[120.47727,30.751487],[120.477276,30.751487],[120.477285,30.751486],[120.477297,30.751484],[120.477311,30.751482],[120.477323,30.75148],[120.477334,30.751477],[120.477346,30.751472],[120.477359,30.751467],[120.47737,30.751463],[120.477377,30.75146],[120.477384,30.751456],[120.477395,30.751452],[120.477406,30.751448],[120.477416,30.751445],[120.477426,30.751443],[120.477438,30.75144],[120.477449,30.751438],[120.477457,30.751437],[120.477463,30.751436],[120.477469,30.751435],[120.47748,30.751433],[120.47749,30.751432],[120.4775,30.751432],[120.477508,30.751431],[120.477518,30.751431],[120.47753,30.751432],[120.477543,30.751433],[120.477559,30.751435],[120.477577,30.751435],[120.47759,30.751435],[120.477595,30.751435],[120.4776,30.751439],[120.477608,30.751447],[120.477612,30.751454],[120.477617,30.751458],[120.477624,30.751457],[120.47763,30.751453],[120.477636,30.751448],[120.477641,30.751443],[120.477647,30.751438],[120.477651,30.751432],[120.47765,30.751429],[120.47765,30.751426],[120.477653,30.751425],[120.477657,30.751425],[120.477659,30.751424],[120.477663,30.75142],[120.477669,30.751416],[120.477674,30.751413],[120.477681,30.751409],[120.477691,30.751404],[120.477701,30.751401],[120.477708,30.7514],[120.477717,30.751399],[120.477725,30.751396],[120.477734,30.751393],[120.477746,30.751392],[120.477756,30.751389],[120.477763,30.751385],[120.477768,30.751381],[120.477774,30.751378],[120.477777,30.751376],[120.477781,30.751374],[120.477788,30.751372],[120.477794,30.751369],[120.477799,30.751366],[120.477802,30.751364],[120.477806,30.751362],[120.477814,30.751359],[120.47782,30.751356],[120.477825,30.751354],[120.477831,30.751352],[120.477838,30.751353],[120.477851,30.751354],[120.477872,30.751362],[120.477894,30.751369],[120.477912,30.751364],[120.477922,30.751351],[120.477934,30.75135],[120.477954,30.751341],[120.477969,30.751319],[120.477983,30.75131],[120.477996,30.751305],[120.478006,30.7513],[120.478012,30.751297],[120.478019,30.751296],[120.478028,30.751295],[120.478038,30.751297],[120.478046,30.751299],[120.478053,30.751302],[120.478061,30.751306],[120.47807,30.75131],[120.478078,30.751314],[120.478083,30.751317],[120.478086,30.751318],[120.47809,30.751319],[120.478095,30.751319],[120.4781,30.751319],[120.478107,30.75132],[120.478112,30.751321],[120.478116,30.751321],[120.478119,30.751324],[120.478122,30.751326],[120.478126,30.751328],[120.478131,30.75133],[120.478137,30.75133],[120.478143,30.751328],[120.478149,30.751327],[120.478156,30.751326],[120.478163,30.751324],[120.478169,30.751323],[120.478178,30.75132],[120.478193,30.751316],[120.478207,30.75131],[120.478222,30.751305],[120.478235,30.751299],[120.478249,30.751294],[120.478262,30.751288],[120.478272,30.751282],[120.478282,30.751276],[120.478295,30.751268],[120.478309,30.751263],[120.478316,30.751262],[120.478323,30.751262],[120.478334,30.751263],[120.478345,30.751261],[120.478354,30.751259],[120.478363,30.751256],[120.478372,30.751253],[120.478379,30.751249],[120.478387,30.751245],[120.478394,30.751241],[120.478402,30.751237],[120.478408,30.751234],[120.478418,30.751229],[120.47843,30.751224],[120.478441,30.751219],[120.47845,30.751215],[120.478458,30.751213],[120.478468,30.75121],[120.478476,30.751207],[120.478485,30.751203],[120.478494,30.751199],[120.478502,30.751196],[120.478513,30.751192],[120.478527,30.751186],[120.478538,30.751182],[120.478549,30.751181],[120.478563,30.75118],[120.478579,30.75118],[120.478597,30.751181],[120.478614,30.751178],[120.478625,30.751172],[120.478633,30.751163],[120.478643,30.751151],[120.478652,30.751141],[120.478661,30.751134],[120.47867,30.751127],[120.478677,30.751128],[120.478688,30.751131],[120.478704,30.751133],[120.478717,30.751131],[120.478731,30.751128],[120.478744,30.751124],[120.478756,30.751122],[120.478777,30.751118],[120.478789,30.751114],[120.478793,30.751111],[120.478798,30.751112],[120.478808,30.751114],[120.478819,30.751113],[120.47883,30.75111],[120.478842,30.751106],[120.478852,30.751101],[120.478861,30.751095],[120.478869,30.751088],[120.478874,30.751082],[120.478878,30.751078],[120.478884,30.751074],[120.478891,30.751071],[120.478897,30.75107],[120.478907,30.751067],[120.478917,30.751062],[120.478923,30.751058],[120.478927,30.751054],[120.478931,30.75105],[120.478932,30.751048],[120.478931,30.751046],[120.47893,30.751045],[120.478931,30.751044],[120.478932,30.751043],[120.478931,30.751042],[120.478933,30.75104],[120.478938,30.751035],[120.478944,30.751031],[120.478952,30.751026],[120.47896,30.751017],[120.478967,30.751011],[120.478973,30.751004],[120.47898,30.750996],[120.478988,30.750991],[120.478998,30.750986],[120.479009,30.750981],[120.479023,30.750977],[120.479033,30.750973],[120.479039,30.750969],[120.479043,30.750965],[120.479049,30.75096],[120.479053,30.750955],[120.479054,30.750953],[120.479054,30.750951],[120.479058,30.750949],[120.479062,30.750945],[120.479068,30.75094],[120.479075,30.750934],[120.479082,30.750929],[120.479092,30.750925],[120.479106,30.75092],[120.47912,30.750916],[120.479141,30.750911],[120.479162,30.750908],[120.479176,30.750906],[120.479187,30.750904],[120.479194,30.750902],[120.479202,30.750901],[120.479211,30.750901],[120.479221,30.750902],[120.479233,30.750904],[120.479242,30.750906],[120.479249,30.750907],[120.479257,30.750907],[120.479266,30.750906],[120.479273,30.750906],[120.479279,30.750904],[120.479287,30.750902],[120.479294,30.750899],[120.4793,30.750897],[120.479304,30.750895],[120.479309,30.750894],[120.479314,30.750893],[120.479321,30.750889],[120.479327,30.750887],[120.479331,30.750885],[120.479336,30.750883],[120.479341,30.750883],[120.479347,30.750883],[120.479353,30.750881],[120.479357,30.750878],[120.479362,30.750874],[120.479367,30.750872],[120.479373,30.750869],[120.479379,30.750866],[120.479384,30.750864],[120.479389,30.750862],[120.479398,30.750861],[120.47941,30.750863],[120.479429,30.750866],[120.479447,30.750871],[120.479456,30.750872],[120.479464,30.750871],[120.47947,30.75087],[120.479476,30.750869],[120.479483,30.750865],[120.479491,30.75086],[120.479496,30.750856],[120.479502,30.750853],[120.479511,30.750849],[120.479521,30.750843],[120.47953,30.750838],[120.479538,30.750837],[120.479545,30.750838],[120.479547,30.75084],[120.479547,30.750847],[120.47955,30.750855],[120.479557,30.750857],[120.479564,30.750854],[120.479571,30.750846],[120.479581,30.750838],[120.479587,30.75083],[120.479593,30.750824],[120.4796,30.750815],[120.479609,30.750804],[120.479621,30.750794],[120.479631,30.750787],[120.479636,30.750784],[120.479644,30.750782],[120.479657,30.750781],[120.47967,30.750779],[120.479684,30.750777],[120.479695,30.750776],[120.479702,30.750774],[120.479706,30.750773],[120.479706,30.750772],[120.479706,30.750773],[120.479708,30.750773],[120.47971,30.750772],[120.479709,30.750771],[120.479707,30.750769],[120.479704,30.750768],[120.479701,30.750767],[120.479699,30.750767],[120.479699,30.750767],[120.479698,30.750767],[120.479698,30.750767],[120.479698,30.750767],[120.479698,30.750766],[120.479696,30.750765],[120.479694,30.750761],[120.479693,30.750757],[120.479691,30.750752],[120.47969,30.750747],[120.47969,30.750742],[120.479689,30.750734],[120.479688,30.750726],[120.479688,30.750718],[120.479688,30.750709],[120.479688,30.750699],[120.479686,30.750692],[120.479687,30.750684],[120.479692,30.750676],[120.479699,30.750669],[120.479708,30.750661],[120.479721,30.750654],[120.479739,30.750646],[120.479753,30.750639],[120.47976,30.750632],[120.479766,30.750626],[120.47977,30.750621],[120.479776,30.750616],[120.479782,30.750609],[120.479786,30.750602],[120.47979,30.750593],[120.479792,30.750586],[120.479795,30.750579],[120.479799,30.750573],[120.479805,30.750568],[120.479809,30.750561],[120.479813,30.750553],[120.479815,30.750546],[120.479818,30.750542],[120.479823,30.75054],[120.479831,30.750537],[120.479842,30.750533],[120.47985,30.75053],[120.479855,30.750526],[120.479862,30.750522],[120.479865,30.75052],[120.479866,30.750519],[120.479868,30.750517],[120.47987,30.750514],[120.479871,30.750513],[120.479871,30.750512],[120.479874,30.75051],[120.479877,30.750507],[120.479883,30.750504],[120.479888,30.750501],[120.479891,30.7505],[120.479895,30.750499],[120.479902,30.750501],[120.47991,30.750503],[120.479919,30.750503],[120.479927,30.750502],[120.479935,30.750501],[120.479944,30.750498],[120.479953,30.750495],[120.47996,30.750492],[120.479969,30.750489],[120.479977,30.750486],[120.479981,30.750483],[120.479985,30.750482],[120.479989,30.75048],[120.479995,30.750478],[120.480003,30.750477],[120.480015,30.750473],[120.480031,30.75047],[120.480045,30.750468],[120.480057,30.750466],[120.480067,30.750465],[120.480075,30.750464],[120.480084,30.750463],[120.480094,30.750463],[120.480105,30.750461],[120.480116,30.75046],[120.480125,30.750458],[120.480134,30.750457],[120.480145,30.750458],[120.480156,30.750459],[120.480167,30.750458],[120.480175,30.750457],[120.480183,30.750458],[120.480193,30.750457],[120.480204,30.750456],[120.480215,30.750455],[120.480226,30.750453],[120.480237,30.750447],[120.480248,30.750441],[120.480257,30.750438],[120.480268,30.750434],[120.480281,30.75043],[120.480292,30.750429],[120.480301,30.750425],[120.480311,30.75042],[120.480324,30.750416],[120.48034,30.750412],[120.48036,30.750405],[120.480379,30.750399],[120.480394,30.750393],[120.480409,30.750388],[120.480421,30.750385],[120.48043,30.750383],[120.48044,30.750382],[120.480459,30.750381],[120.480485,30.750379],[120.48051,30.750378],[120.48053,30.750377],[120.480546,30.750373],[120.480561,30.750369],[120.480574,30.750366],[120.480588,30.750364],[120.480602,30.750364],[120.480613,30.750365],[120.480624,30.750369],[120.480642,30.750376],[120.480663,30.750382],[120.480679,30.750387],[120.480689,30.750388],[120.480703,30.750387],[120.480716,30.750386],[120.480724,30.750385],[120.480734,30.750382],[120.48075,30.750378],[120.480766,30.750372],[120.48078,30.750366],[120.480792,30.750361],[120.480803,30.750356],[120.480814,30.750354],[120.480823,30.750353],[120.480832,30.750352],[120.480843,30.750349],[120.480853,30.750345],[120.480862,30.75034],[120.480871,30.750335],[120.480879,30.750331],[120.480887,30.750326],[120.480893,30.750322],[120.4809,30.750319],[120.48091,30.750313],[120.480923,30.750303],[120.480937,30.750291],[120.480946,30.750278],[120.480949,30.750268],[120.480951,30.750258],[120.480953,30.75025],[120.480953,30.750243],[120.480952,30.750239],[120.48095,30.750235],[120.480946,30.750229],[120.480942,30.750222],[120.480933,30.750211],[120.480922,30.750197],[120.480914,30.750186],[120.480903,30.750171],[120.480892,30.750157],[120.480882,30.750144],[120.480867,30.750131],[120.480847,30.750118],[120.48083,30.750107],[120.480819,30.750099],[120.480813,30.750092],[120.480814,30.750086],[120.480816,30.750082],[120.480818,30.750076],[120.48082,30.75007],[120.480825,30.750066],[120.480832,30.750062],[120.480839,30.750059],[120.480843,30.750057],[120.480846,30.750055],[120.480853,30.750055],[120.480859,30.750055],[120.480865,30.750054],[120.480874,30.750053],[120.480879,30.750053],[120.480883,30.750053],[120.480891,30.750052],[120.480902,30.75005],[120.480917,30.750048],[120.480933,30.750045],[120.480946,30.750042],[120.480954,30.750039],[120.48096,30.750036],[120.480962,30.750032],[120.48096,30.750027],[120.480956,30.750022],[120.480954,30.750014],[120.480951,30.750006],[120.480954,30.749986],[120.480957,30.749966],[120.48096,30.749947],[120.480963,30.749927],[120.480965,30.749907],[120.480968,30.749888],[120.480968,30.749888],[120.480968,30.749888],[120.480968,30.749888],[120.480968,30.749888],[120.480968,30.749888],[120.480968,30.749888],[120.480968,30.749888],[120.480968,30.749888],[120.480968,30.749888],[120.480968,30.749888],[120.480968,30.749888],[120.480968,30.749888],[120.480968,30.749888],[120.480968,30.749888],[120.480968,30.749888],[120.480968,30.749888],[120.480968,30.749888],[120.480968,30.749888],[120.480968,30.749888],[120.480968,30.749888],[120.480968,30.749888],[120.480968,30.749888],[120.480968,30.749888],[120.480968,30.749888],[120.480968,30.749888],[120.480968,30.749888],[120.480968,30.749888],[120.480968,30.749888],[120.480968,30.749888],[120.480968,30.749888],[120.480968,30.749888],[120.480968,30.749888],[120.480968,30.749888],[120.480968,30.749888],[120.480968,30.749888],[120.480968,30.749888],[120.480968,30.749888],[120.480968,30.749888],[120.480968,30.749888],[120.480968,30.749888],[120.480968,30.749888],[120.480968,30.749888],[120.480968,30.749888],[120.480968,30.749888],[120.480968,30.749888],[120.480968,30.749888],[120.480968,30.749888],[120.480968,30.749888],[120.480968,30.749888],[120.480968,30.749888],[120.480968,30.749888],[120.480968,30.749888],[120.480968,30.749888],[120.480968,30.749888],[120.480968,30.749888],[120.480968,30.749888],[120.480968,30.749888],[120.480968,30.749888],[120.480968,30.749888],[120.480968,30.749888],[120.480968,30.749888],[120.480968,30.749888],[120.480968,30.749888],[120.480968,30.749888],[120.480968,30.749888],[120.480968,30.749888],[120.480968,30.749888],[120.480968,30.749888],[120.480968,30.749888],[120.480968,30.749888],[120.480968,30.749888],[120.480968,30.749888],[120.480968,30.749888],[120.480968,30.749888],[120.480968,30.749888],[120.480968,30.749888],[120.480968,30.749888],[120.480968,30.749888],[120.480968,30.749888],[120.480968,30.749888],[120.480968,30.749888],[120.480968,30.749888],[120.480968,30.749888],[120.480968,30.749888],[120.480968,30.749888],[120.480968,30.749888],[120.480968,30.749888],[120.480968,30.749888],[120.480968,30.749888],[120.480968,30.749888],[120.480968,30.749888],[120.480968,30.749888],[120.480968,30.749888],[120.480968,30.749888],[120.480968,30.749888],[120.480968,30.749888],[120.480968,30.749888],[120.480968,30.749888],[120.480968,30.749888],[120.480968,30.749888],[120.480968,30.749888],[120.480968,30.749888],[120.480968,30.749888],[120.480968,30.749888],[120.480968,30.749888],[120.480968,30.749888],[120.480968,30.749888],[120.480968,30.749888],[120.480968,30.749888],[120.480968,30.749888],[120.480968,30.749888],[120.480968,30.749888],[120.480968,30.749888],[120.480968,30.749888],[120.480968,30.749888],[120.480968,30.749888],[120.480968,30.749888],[120.480968,30.749888],[120.480968,30.749888],[120.480968,30.749888],[120.480968,30.749888],[120.480968,30.749888],[120.480968,30.749888],[120.480968,30.749888],[120.480968,30.749888],[120.480968,30.749888],[120.480968,30.749888],[120.480968,30.749888],[120.480968,30.749888],[120.480968,30.749888],[120.480982,30.749873],[120.480995,30.749858],[120.481061,30.749947],[120.481081,30.749984],[120.481084,30.750003],[120.481084,30.750018],[120.481086,30.75003],[120.481094,30.750033],[120.481105,30.750031],[120.481118,30.750029],[120.481134,30.750027],[120.481153,30.750026],[120.481171,30.750025],[120.481186,30.750023],[120.481197,30.750022],[120.481206,30.750018],[120.481214,30.750011],[120.481222,30.750005],[120.481227,30.75],[120.481235,30.749997],[120.481245,30.749995],[120.481255,30.749997],[120.481266,30.75],[120.481277,30.750001],[120.481288,30.750001],[120.4813,30.75],[120.481311,30.749998],[120.481322,30.749995],[120.481332,30.749991],[120.48134,30.749988],[120.481351,30.749985],[120.481363,30.749981],[120.481371,30.749978],[120.481379,30.749975],[120.481389,30.749971],[120.481398,30.749967],[120.481408,30.749963],[120.481416,30.749961],[120.481424,30.749959],[120.481433,30.749957],[120.481441,30.749955],[120.481451,30.749952],[120.481462,30.74995],[120.481475,30.749947],[120.481487,30.749945],[120.481499,30.749942],[120.48151,30.74994],[120.481521,30.749936],[120.481534,30.749931],[120.481546,30.749926],[120.481557,30.749924],[120.48157,30.74992],[120.481582,30.749915],[120.481593,30.749909],[120.481602,30.7499],[120.48161,30.74989],[120.481613,30.749879],[120.481617,30.74987],[120.481621,30.749863],[120.481625,30.749857],[120.481634,30.749852],[120.481642,30.749848],[120.481648,30.749841],[120.481651,30.749833],[120.481648,30.749825],[120.48163,30.749817],[120.481609,30.749809],[120.481602,30.749804],[120.481614,30.749804],[120.481648,30.749805],[120.481689,30.749801],[120.481721,30.749794],[120.481748,30.749785],[120.48177,30.749778],[120.481788,30.749773],[120.481798,30.749767],[120.481807,30.749763],[120.481817,30.749761],[120.481825,30.74976],[120.481836,30.749759],[120.48185,30.74976],[120.481864,30.74976],[120.481875,30.749761],[120.481885,30.749764],[120.481894,30.749766],[120.481905,30.749763],[120.481917,30.749756],[120.481923,30.74975],[120.481923,30.749748],[120.481909,30.749759],[120.481882,30.74978],[120.48182,30.749798],[120.481723,30.749812],[120.48117,30.7498],[120.481862,30.749654],[120.481875,30.749691],[120.481876,30.749726],[120.48186,30.749742],[120.481819,30.749743],[120.481771,30.749737],[120.481734,30.749729],[120.481725,30.749726],[120.481745,30.749722],[120.481762,30.749714],[120.481742,30.749706],[120.481657,30.74969],[120.481534,30.749672],[120.481439,30.749659],[120.481402,30.749647],[120.481434,30.74964],[120.481529,30.749632],[120.481614,30.749619],[120.481661,30.749608],[120.481703,30.749598],[120.481734,30.749592],[120.481755,30.749587],[120.481772,30.749582],[120.481782,30.749576],[120.481783,30.749568],[120.481782,30.74956],[120.481782,30.749548],[120.481783,30.749524],[120.481785,30.749494],[120.481789,30.74946],[120.481793,30.74943],[120.481797,30.749407],[120.481797,30.749387],[120.481794,30.74937],[120.48179,30.749359],[120.481787,30.749351],[120.481785,30.749341],[120.481782,30.749332],[120.481777,30.749323],[120.481769,30.749318],[120.481755,30.749313],[120.481738,30.749309],[120.481719,30.749306],[120.480321,30.749293],[120.48187,30.749059],[120.481877,30.749051],[120.481883,30.749042],[120.481888,30.749034],[120.481892,30.749029],[120.481895,30.749024],[120.4819,30.749018],[120.481908,30.749014],[120.481919,30.749011],[120.481935,30.749012],[120.481953,30.749014],[120.481967,30.749017],[120.481981,30.749021],[120.481999,30.749024],[120.48201,30.749027],[120.482024,30.749032],[120.48204,30.749037],[120.482048,30.74904],[120.482055,30.749043],[120.482061,30.749045],[120.482067,30.749043],[120.482075,30.749043],[120.482087,30.749045],[120.482103,30.74905],[120.48212,30.749057],[120.482137,30.749063],[120.482151,30.74907],[120.482165,30.749076],[120.482177,30.749084],[120.482189,30.749093],[120.482199,30.749104],[120.482208,30.749116],[120.482218,30.749126],[120.482225,30.749136],[120.482231,30.749144],[120.482239,30.749151],[120.482247,30.749156],[120.482257,30.749162],[120.482267,30.74917],[120.482276,30.749179],[120.482286,30.74919],[120.482296,30.749201],[120.482305,30.74921],[120.482314,30.74922],[120.48232,30.749229],[120.482321,30.74924],[120.482313,30.749258],[120.482304,30.749281],[120.482301,30.749303],[120.482301,30.749324],[120.482302,30.74934],[120.482301,30.749348],[120.482301,30.749351],[120.482303,30.749348],[120.482307,30.749339],[120.482318,30.749326],[120.482342,30.749309],[120.482369,30.74929],[120.482388,30.749268],[120.482403,30.749249],[120.482421,30.749234],[120.482438,30.749228],[120.482451,30.749233],[120.482463,30.74924],[120.482475,30.749244],[120.482481,30.749246],[120.482484,30.749247],[120.482491,30.749248],[120.482499,30.749249],[120.482508,30.74925],[120.482522,30.749251],[120.482538,30.749252],[120.482561,30.749252],[120.482587,30.749253],[120.48261,30.749253],[120.482632,30.749252],[120.482652,30.749252],[120.482672,30.749251],[120.482697,30.749251],[120.48272,30.749251],[120.482741,30.749251],[120.482766,30.749251],[120.482786,30.749251],[120.482803,30.749253],[120.48282,30.749253],[120.482857,30.749256],[120.482902,30.74926],[120.482927,30.749262],[120.482945,30.749262],[120.482962,30.749262],[120.482981,30.749262],[120.483,30.74926],[120.483017,30.749257],[120.48303,30.749255],[120.48304,30.749252],[120.483052,30.749247],[120.483063,30.74924],[120.483073,30.749229],[120.483081,30.749211],[120.483086,30.749188],[120.483091,30.74917],[120.483104,30.749155],[120.483122,30.749136],[120.483134,30.749113],[120.483148,30.749096],[120.483162,30.749084],[120.483173,30.749072],[120.483182,30.749058],[120.483187,30.749045],[120.48319,30.749035],[120.483197,30.74903],[120.483209,30.749021],[120.483218,30.74901],[120.483223,30.749002],[120.483229,30.748999],[120.483236,30.748996],[120.483248,30.748992],[120.483262,30.748986],[120.483273,30.748979],[120.483285,30.748971],[120.483298,30.748962],[120.483304,30.748957],[120.48331,30.748954],[120.483319,30.748954],[120.483332,30.748955],[120.483348,30.748953],[120.483363,30.748949],[120.483373,30.748945],[120.483382,30.748942],[120.483393,30.748938],[120.483405,30.748933],[120.483418,30.748928],[120.483433,30.748922],[120.483446,30.748916],[120.483453,30.748912],[120.483462,30.748906],[120.483472,30.748901],[120.483482,30.748896],[120.483493,30.74889],[120.483505,30.748884],[120.483518,30.748878],[120.48353,30.748872],[120.483542,30.748867],[120.483554,30.748862],[120.483568,30.748857],[120.483582,30.748853],[120.483592,30.74885],[120.483601,30.748848],[120.483618,30.748843],[120.483638,30.748837],[120.483654,30.748832],[120.483668,30.748828],[120.483678,30.748825],[120.483687,30.748823],[120.483699,30.74882],[120.483713,30.748816],[120.483727,30.748813],[120.483737,30.748811],[120.483745,30.748811],[120.483756,30.748808],[120.483768,30.748805],[120.483781,30.748801],[120.483796,30.748797],[120.483814,30.748791],[120.483831,30.748783],[120.483841,30.748775],[120.483842,30.748768],[120.483846,30.748757],[120.483857,30.748739],[120.483869,30.748721],[120.483884,30.748701],[120.483898,30.748685],[120.483929,30.748673],[120.483968,30.748664],[120.483996,30.748657],[120.484029,30.748648],[120.484058,30.748643],[120.484078,30.748646],[120.484092,30.748649],[120.484105,30.748653],[120.484125,30.748659],[120.48415,30.748666],[120.484177,30.748676],[120.484205,30.74869],[120.484233,30.748705],[120.484252,30.748714],[120.484261,30.74872],[120.48426,30.748728],[120.484246,30.748742],[120.484223,30.74876],[120.484202,30.748774],[120.484184,30.74878],[120.484166,30.748774],[120.484144,30.748757],[120.484125,30.748734],[120.484112,30.748711],[120.484106,30.748691],[120.484118,30.748676],[120.484139,30.748667],[120.484157,30.748666],[120.484171,30.748673],[120.484179,30.74868],[120.484188,30.748684],[120.484198,30.74869],[120.484204,30.748698],[120.484209,30.748713],[120.484215,30.748735],[120.484223,30.748762],[120.484237,30.748787],[120.484261,30.748802],[120.48428,30.748809],[120.484302,30.748809],[120.484331,30.748802],[120.484359,30.748796],[120.484384,30.748794],[120.484403,30.748797],[120.484414,30.7488],[120.484419,30.748804],[120.484421,30.748807],[120.484427,30.748808],[120.484437,30.748811],[120.484448,30.748816],[120.484459,30.748825],[120.484465,30.748835],[120.484467,30.748844],[120.484465,30.748851],[120.484466,30.748854],[120.484472,30.748859],[120.484482,30.748869],[120.484493,30.748883],[120.484503,30.7489],[120.484509,30.748912],[120.484516,30.748918],[120.484523,30.748922],[120.484539,30.748928],[120.484561,30.748934],[120.484581,30.748944],[120.484598,30.748956],[120.484612,30.748968],[120.484621,30.748979],[120.484631,30.748994],[120.484639,30.749009],[120.484645,30.749026],[120.484647,30.74904],[120.484648,30.749052],[120.484652,30.74906],[120.48466,30.749066],[120.484669,30.749074],[120.484677,30.749084],[120.484683,30.749094],[120.484687,30.749103],[120.484694,30.74911],[120.484704,30.749116],[120.484704,30.749136],[120.484704,30.749155],[120.484704,30.749175],[120.484704,30.749195],[120.484704,30.749215],[120.484704,30.749215],[120.484704,30.749215],[120.484704,30.749215],[120.484704,30.749215],[120.484704,30.749215],[120.484704,30.749215],[120.484704,30.749215],[120.484704,30.749215],[120.484704,30.749215],[120.484704,30.749215],[120.484704,30.749215],[120.484704,30.749215],[120.484704,30.749215],[120.484704,30.749215],[120.484704,30.749215],[120.484704,30.749215],[120.484704,30.749215],[120.484704,30.749215],[120.484704,30.749215],[120.484704,30.749215],[120.484704,30.749215],[120.484704,30.749215],[120.484704,30.749215],[120.484704,30.749215],[120.484704,30.749215],[120.484704,30.749215],[120.484704,30.749215],[120.484704,30.749215],[120.484704,30.749215],[120.484704,30.749215],[120.484704,30.749215],[120.484704,30.749215],[120.484704,30.749215],[120.484704,30.749215],[120.484704,30.749215],[120.484704,30.749215],[120.484704,30.749215],[120.484704,30.749215],[120.484704,30.749215],[120.484704,30.749215],[120.484704,30.749215],[120.484704,30.749215],[120.484704,30.749215],[120.484704,30.749215],[120.484704,30.749215],[120.484704,30.749215],[120.484704,30.749215],[120.484704,30.749215],[120.484704,30.749215],[120.484704,30.749215],[120.484704,30.749215],[120.484704,30.749215],[120.484704,30.749215],[120.484704,30.749215],[120.484704,30.749215],[120.484704,30.749215],[120.484704,30.749215],[120.484704,30.749215],[120.484704,30.749215],[120.484704,30.749215],[120.484704,30.749215],[120.484704,30.749215],[120.484704,30.749215],[120.484704,30.749215],[120.484704,30.749215],[120.484704,30.749215],[120.484704,30.749215],[120.484712,30.749234],[120.48472,30.749254],[120.484728,30.749274],[120.484736,30.749293],[120.484743,30.749313],[120.484753,30.749325],[120.48476,30.749339],[120.484768,30.749354],[120.484775,30.749369],[120.484782,30.749384],[120.484788,30.7494],[120.484793,30.749415],[120.484797,30.749431],[120.4848,30.749445],[120.484802,30.749459],[120.484803,30.749473],[120.484805,30.749487],[120.484811,30.749499],[120.484816,30.749505],[120.484818,30.749497],[120.484824,30.749484],[120.484832,30.749477],[120.484834,30.749476],[120.484828,30.749472],[120.484824,30.749463],[120.48482,30.749455],[120.484815,30.749459],[120.484803,30.749472],[120.484786,30.749485],[120.484768,30.749495],[120.484748,30.749505],[120.48473,30.749511],[120.48472,30.749514],[120.484722,30.74952],[120.484731,30.74953],[120.484749,30.74955],[120.484768,30.749573],[120.484776,30.749588],[120.484778,30.749601],[120.48478,30.749614],[120.484784,30.749627],[120.48479,30.749643],[120.484799,30.749661],[120.484808,30.749678],[120.484813,30.749695],[120.484816,30.749712],[120.484819,30.749729],[120.484823,30.74975],[120.484824,30.749769],[120.484825,30.749788],[120.484827,30.749801],[120.484824,30.749809],[120.48482,30.749817],[120.484814,30.749826],[120.484805,30.749836],[120.484797,30.749847],[120.484788,30.749858],[120.48478,30.749868],[120.484772,30.749878],[120.484765,30.749887],[120.484759,30.749893],[120.484757,30.749899],[120.484758,30.749906],[120.484767,30.749908],[120.48511,30.750153],[120.485121,30.750134],[120.48515,30.750118],[120.485177,30.750114],[120.485189,30.75012],[120.485187,30.750131],[120.485178,30.750145],[120.485171,30.750156],[120.485167,30.750163],[120.485164,30.750166],[120.485161,30.750167],[120.485161,30.750167],[120.485162,30.750167],[120.485164,30.750167],[120.485171,30.750164],[120.485179,30.750161],[120.485189,30.750159],[120.4852,30.750156],[120.485209,30.750151],[120.485214,30.750147],[120.485217,30.750144],[120.485223,30.750144],[120.485232,30.750148],[120.485241,30.750154],[120.485252,30.750161],[120.485264,30.75017],[120.485278,30.750179],[120.485289,30.750184],[120.485299,30.75019],[120.485309,30.750198],[120.485319,30.750208],[120.485335,30.750218],[120.485351,30.750229],[120.485367,30.750236],[120.485382,30.750238],[120.485394,30.750238],[120.4854,30.750241],[120.485405,30.750249],[120.48541,30.750259],[120.485417,30.750266],[120.485423,30.75027],[120.485431,30.750272],[120.485436,30.750274],[120.48544,30.750275],[120.485444,30.750273],[120.485445,30.750271],[120.485444,30.750271],[120.485443,30.750272],[120.485445,30.750275],[120.485447,30.750279],[120.485449,30.750278],[120.485453,30.750275],[120.485455,30.750272],[120.485458,30.75027],[120.485464,30.750267],[120.485471,30.750262],[120.485479,30.750256],[120.485487,30.750254],[120.485493,30.750254],[120.485498,30.750252],[120.485506,30.750252],[120.485515,30.75025],[120.485522,30.750246],[120.485532,30.750241],[120.485549,30.750236],[120.485564,30.750233],[120.485574,30.75023],[120.485584,30.750228],[120.485594,30.750229],[120.485606,30.750232],[120.485615,30.750234],[120.485625,30.750238],[120.48564,30.750245],[120.485655,30.750253],[120.485669,30.75026],[120.485683,30.750269],[120.485694,30.750279],[120.485706,30.75029],[120.48572,30.750305],[120.485728,30.750319],[120.485736,30.750329],[120.485746,30.750338],[120.485754,30.750346],[120.485761,30.750353],[120.485769,30.750361],[120.485777,30.750369],[120.48578,30.750378],[120.485784,30.750385],[120.485788,30.750393],[120.485792,30.750402],[120.485795,30.750412],[120.485798,30.75042],[120.4858,30.750428],[120.485801,30.750438],[120.485802,30.750449],[120.485803,30.750459],[120.485806,30.750466],[120.48581,30.750474],[120.485816,30.750485],[120.485821,30.750495],[120.485827,30.750503],[120.485834,30.750511],[120.485842,30.750519],[120.485849,30.750526],[120.485856,30.750533],[120.485865,30.750542],[120.485874,30.750552],[120.485884,30.750561],[120.485891,30.750568],[120.485897,30.750574],[120.485905,30.750582],[120.485914,30.750591],[120.485923,30.750601],[120.485931,30.750609],[120.485937,30.750617],[120.485946,30.750626],[120.485954,30.750634],[120.485963,30.750642],[120.485971,30.750649],[120.485977,30.750654],[120.485983,30.750659],[120.486,30.750671],[120.486018,30.750683],[120.486035,30.750695],[120.486052,30.750707],[120.48607,30.750719],[120.486087,30.750731],[120.486087,30.750731],[120.486087,30.750731],[120.486087,30.750731],[120.486087,30.750731],[120.486087,30.750731],[120.486087,30.750731],[120.486087,30.750731],[120.486087,30.750731],[120.486087,30.750731],[120.486087,30.750731],[120.486087,30.750731],[120.486087,30.750731],[120.486087,30.750731],[120.486087,30.750731],[120.486087,30.750731],[120.486087,30.750731],[120.486087,30.750731],[120.486087,30.750731],[120.486087,30.750731],[120.486087,30.750731],[120.486087,30.750731],[120.486087,30.750731],[120.486087,30.750731],[120.486087,30.750731],[120.486087,30.750731],[120.486087,30.750731],[120.486087,30.750731],[120.486087,30.750731],[120.486087,30.750731],[120.486087,30.750731],[120.486087,30.750731],[120.486087,30.750731],[120.486087,30.750731],[120.486087,30.750731],[120.486087,30.750731],[120.486087,30.750731],[120.486087,30.750731],[120.486087,30.750731],[120.486087,30.750731],[120.486087,30.750731],[120.486087,30.750731],[120.486087,30.750731],[120.486087,30.750731],[120.486087,30.750731],[120.486087,30.750731],[120.486087,30.750731],[120.486087,30.750731],[120.486087,30.750731],[120.486087,30.750731],[120.486087,30.750731],[120.486087,30.750731],[120.486087,30.750731],[120.486087,30.750731],[120.486087,30.750731],[120.486087,30.750731],[120.486087,30.750731],[120.486087,30.750731],[120.486087,30.750731],[120.486087,30.750731],[120.486087,30.750731],[120.486087,30.750731],[120.486087,30.750731],[120.486087,30.750731],[120.486087,30.750731],[120.486087,30.750731],[120.486087,30.750731],[120.486087,30.750731],[120.486087,30.750731],[120.486087,30.750731],[120.486087,30.750731],[120.486087,30.750731],[120.486087,30.750731],[120.486087,30.750731],[120.486087,30.750731],[120.486087,30.750731],[120.486087,30.750731],[120.486087,30.750731],[120.486087,30.750731],[120.486087,30.750731],[120.486087,30.750731],[120.486087,30.750731],[120.486087,30.750731],[120.486087,30.750731],[120.486087,30.750731],[120.486087,30.750731],[120.486087,30.750731],[120.486087,30.750731],[120.486087,30.750731],[120.486087,30.750731],[120.486087,30.750731],[120.486087,30.750731],[120.486087,30.750731],[120.486087,30.750731],[120.486087,30.750731],[120.486087,30.750731],[120.486087,30.750731],[120.486087,30.750731],[120.486087,30.750731],[120.486087,30.750731],[120.486087,30.750731],[120.486087,30.750731],[120.486087,30.750731],[120.486087,30.750731],[120.486087,30.750731],[120.486087,30.750731],[120.486087,30.750731],[120.486087,30.750731],[120.486087,30.750731],[120.486087,30.750731],[120.486087,30.750731],[120.486087,30.750731],[120.486087,30.750731],[120.486087,30.750731],[120.486087,30.750731],[120.486087,30.750731],[120.486087,30.750731],[120.486087,30.750731],[120.486087,30.750731],[120.486087,30.750731],[120.486087,30.750731],[120.486087,30.750731],[120.486087,30.750731],[120.486087,30.750731],[120.486087,30.750731],[120.486087,30.750731],[120.486087,30.750731],[120.486087,30.750731],[120.486087,30.750731],[120.486087,30.750731],[120.486087,30.750731],[120.486087,30.750731],[120.486087,30.750731],[120.486087,30.750731],[120.486087,30.750731],[120.486087,30.750731],[120.486087,30.750731],[120.486087,30.750731],[120.486087,30.750731],[120.486087,30.750731],[120.486087,30.750731],[120.486087,30.750731],[120.486087,30.750731],[120.486087,30.750731],[120.486087,30.750731],[120.486087,30.750731],[120.486087,30.750731],[120.486087,30.750731],[120.486087,30.750731],[120.486087,30.750731],[120.486087,30.750731],[120.486087,30.750731],[120.486087,30.750731],[120.486087,30.750731],[120.486087,30.750731],[120.486087,30.750731],[120.486087,30.750731],[120.486087,30.750731],[120.486087,30.750731],[120.486087,30.750731],[120.486087,30.750731],[120.486087,30.750731],[120.486087,30.750731],[120.486087,30.750731],[120.486087,30.750731],[120.486087,30.750731],[120.486087,30.750731],[120.486087,30.750731],[120.486087,30.750731],[120.486087,30.750731],[120.486087,30.750731],[120.486087,30.750731],[120.486087,30.750731],[120.486087,30.750731],[120.486087,30.750731],[120.486087,30.750731],[120.486087,30.750731],[120.486087,30.750731],[120.486087,30.750731],[120.486087,30.750731],[120.486087,30.750731]]}}]}