{"type":"FeatureCollection","features":[{"type":"Feature","properties":{"id":"2026-06-05_running_44","type":"running","date":"2026-06-05"},"geometry":{"type":"LineString","coordinates":[[121.399542,31.230124],[121.399542,31.230124],[121.399542,31.230124],[121.399542,31.230124],[121.399542,31.230124],[121.399542,31.230124],[121.399542,31.230124],[121.399586,31.229941],[121.399586,31.229941],[121.399586,31.229941],[121.399586,31.229941],[121.399586,31.229941],[121.399586,31.229941],[121.399586,31.229941],[121.399586,31.229941],[121.399586,31.229941],[121.399595,31.229919],[121.399792,31.229773],[121.399792,31.229773],[121.399792,31.229773],[121.399792,31.229773],[121.399792,31.229773],[121.399792,31.229773],[121.399792,31.229773],[121.399792,31.229773],[121.399792,31.229773],[121.4001,31.22976],[121.4001,31.22976],[121.4001,31.22976],[121.4001,31.22976],[121.4001,31.22976],[121.4001,31.22976],[121.4001,31.22976],[121.4001,31.22976],[121.4001,31.22976],[121.40013,31.229766],[121.400298,31.22989],[121.400298,31.22989],[121.400298,31.22989],[121.400298,31.22989],[121.400298,31.22989],[121.400298,31.22989],[121.400298,31.22989],[121.400298,31.22989],[121.400359,31.230126],[121.400359,31.230126],[121.400359,31.230126],[121.400359,31.230126],[121.400359,31.230126],[121.400359,31.230126],[121.400359,31.230126],[121.400359,31.230126],[121.400359,31.230126],[121.400349,31.230149],[121.400288,31.230355],[121.400288,31.230355],[121.400288,31.230355],[121.400288,31.230355],[121.400288,31.230355],[121.400288,31.230355],[121.400288,31.230355],[121.400288,31.230355],[121.400224,31.230581],[121.400224,31.230581],[121.400224,31.230581],[121.400224,31.230581],[121.400224,31.230581],[121.400224,31.230581],[121.400224,31.230581],[121.400224,31.230581],[121.400211,31.230601],[121.400211,31.230601],[121.400131,31.230853],[121.400131,31.230853],[121.400131,31.230853],[121.400131,31.230853],[121.400131,31.230853],[121.400131,31.230853],[121.400131,31.230853],[121.400131,31.230853],[121.400131,31.230853],[121.399986,31.231067],[121.399986,31.231067],[121.399986,31.231067],[121.399986,31.231067],[121.399986,31.231067],[121.399986,31.231067],[121.399986,31.231067],[121.399986,31.231067],[121.399986,31.231067],[121.399967,31.231088],[121.399752,31.231176],[121.399752,31.231176],[121.399752,31.231176],[121.399752,31.231176],[121.399752,31.231176],[121.399752,31.231176],[121.399752,31.231176],[121.399752,31.231176],[121.399476,31.231112],[121.399476,31.231112],[121.399476,31.231112],[121.399476,31.231112],[121.399476,31.231112],[121.399476,31.231112],[121.399476,31.231112],[121.399476,31.231112],[121.399476,31.231112],[121.399454,31.231097],[121.399324,31.230911],[121.399324,31.230911],[121.399324,31.230911],[121.399324,31.230911],[121.399324,31.230911],[121.399324,31.230911],[121.399324,31.230911],[121.399324,31.230911],[121.39936,31.23063],[121.39936,31.23063],[121.39936,31.23063],[121.39936,31.23063],[121.39936,31.23063],[121.39936,31.23063],[121.39936,31.23063],[121.39936,31.23063],[121.39936,31.23063],[121.39936,31.23063],[121.39943,31.230396],[121.39943,31.230396],[121.39943,31.230396],[121.39943,31.230396],[121.39943,31.230396],[121.39943,31.230396],[121.39943,31.230396],[121.39943,31.230396],[121.39943,31.230396],[121.399514,31.230156],[121.399514,31.230156],[121.399514,31.230156],[121.399514,31.230156],[121.399514,31.230156],[121.399514,31.230156],[121.399514,31.230156],[121.399514,31.230156],[121.399514,31.230156],[121.399523,31.230122],[121.399626,31.229912],[121.399626,31.229912],[121.399626,31.229912],[121.399626,31.229912],[121.399626,31.229912],[121.399626,31.229912],[121.399626,31.229912],[121.399626,31.229912],[121.39986,31.229744],[121.39986,31.229744],[121.39986,31.229744],[121.39986,31.229744],[121.39986,31.229744],[121.39986,31.229744],[121.39986,31.229744],[121.39986,31.229744],[121.39986,31.229744],[121.399894,31.229732],[121.400128,31.229766],[121.400128,31.229766],[121.400128,31.229766],[121.400128,31.229766],[121.400128,31.229766],[121.400128,31.229766],[121.400128,31.229766],[121.400128,31.229766],[121.400334,31.229987],[121.400334,31.229987],[121.400334,31.229987],[121.400334,31.229987],[121.400334,31.229987],[121.400334,31.229987],[121.400334,31.229987],[121.400334,31.229987],[121.400334,31.229987],[121.400334,31.229987],[121.400329,31.230247],[121.400329,31.230247],[121.400329,31.230247],[121.400329,31.230247],[121.400329,31.230247],[121.400329,31.230247],[121.400329,31.230247],[121.400329,31.230247],[121.400329,31.230247],[121.400249,31.230496],[121.400249,31.230496],[121.400249,31.230496],[121.400249,31.230496],[121.400249,31.230496],[121.400249,31.230496],[121.400249,31.230496],[121.400249,31.230496],[121.400249,31.230496],[121.400238,31.23052],[121.400166,31.230736],[121.400166,31.230736],[121.400166,31.230736],[121.400166,31.230736],[121.400166,31.230736],[121.400166,31.230736],[121.400166,31.230736],[121.400166,31.230736],[121.400084,31.230978],[121.400084,31.230978],[121.400084,31.230978],[121.400084,31.230978],[121.400084,31.230978],[121.400084,31.230978],[121.400084,31.230978],[121.400084,31.230978],[121.400084,31.230978],[121.400061,31.231001],[121.39986,31.23116],[121.39986,31.23116],[121.39986,31.23116],[121.39986,31.23116],[121.39986,31.23116],[121.39986,31.23116],[121.39986,31.23116],[121.39986,31.23116],[121.399515,31.231141],[121.399515,31.231141],[121.399515,31.231141],[121.399515,31.231141],[121.399515,31.231141],[121.399515,31.231141],[121.399515,31.231141],[121.399515,31.231141],[121.399515,31.231141],[121.399515,31.231141],[121.399322,31.230925],[121.399322,31.230925],[121.399322,31.230925],[121.399322,31.230925],[121.399322,31.230925],[121.399322,31.230925],[121.399322,31.230925],[121.399322,31.230925],[121.399322,31.230925],[121.39934,31.230652],[121.39934,31.230652],[121.39934,31.230652],[121.39934,31.230652],[121.39934,31.230652],[121.39934,31.230652],[121.39934,31.230652],[121.39934,31.230652],[121.39934,31.230652],[121.399354,31.230627],[121.399426,31.230419],[121.399426,31.230419],[121.399426,31.230419],[121.399426,31.230419],[121.399426,31.230419],[121.399426,31.230419],[121.399426,31.230419],[121.399426,31.230419],[121.399516,31.230161],[121.399516,31.230161],[121.399516,31.230161],[121.399516,31.230161],[121.399516,31.230161],[121.399516,31.230161],[121.399516,31.230161],[121.399516,31.230161],[121.399516,31.230161],[121.399527,31.230127],[121.399612,31.229875],[121.399612,31.229875],[121.399612,31.229875],[121.399612,31.229875],[121.399612,31.229875],[121.399612,31.229875],[121.399612,31.229875],[121.399612,31.229875],[121.399612,31.229875],[121.399889,31.229738],[121.399889,31.229738],[121.399889,31.229738],[121.399889,31.229738],[121.399889,31.229738],[121.399889,31.229738],[121.399889,31.229738],[121.399889,31.229738],[121.399889,31.229738],[121.399919,31.229734],[121.40017,31.229793],[121.40017,31.229793],[121.40017,31.229793],[121.40017,31.229793],[121.40017,31.229793],[121.40017,31.229793],[121.40017,31.229793],[121.40017,31.229793],[121.400344,31.230014],[121.400344,31.230014],[121.400344,31.230014],[121.400344,31.230014],[121.400344,31.230014],[121.400344,31.230014],[121.400344,31.230014],[121.400344,31.230014],[121.400344,31.230014],[121.400348,31.230047],[121.400306,31.230276],[121.400306,31.230276],[121.400306,31.230276],[121.400306,31.230276],[121.400306,31.230276],[121.400306,31.230276],[121.400306,31.230276],[121.400306,31.230276],[121.400239,31.230523],[121.400239,31.230523],[121.400239,31.230523],[121.400239,31.230523],[121.400239,31.230523],[121.400239,31.230523],[121.400239,31.230523],[121.400239,31.230523],[121.400239,31.230523],[121.400225,31.230555],[121.400157,31.230809],[121.400157,31.230809],[121.400157,31.230809],[121.400157,31.230809],[121.400157,31.230809],[121.400157,31.230809],[121.400157,31.230809],[121.400157,31.230809],[121.400157,31.230809],[121.400031,31.231038],[121.400031,31.231038],[121.400031,31.231038],[121.400031,31.231038],[121.400031,31.231038],[121.400031,31.231038],[121.400031,31.231038],[121.400031,31.231038],[121.400031,31.231038],[121.400012,31.231063],[121.399768,31.231192],[121.399768,31.231192],[121.399768,31.231192],[121.399768,31.231192],[121.399768,31.231192],[121.399768,31.231192],[121.399768,31.231192],[121.399768,31.231192],[121.399458,31.231101],[121.399458,31.231101],[121.399458,31.231101],[121.399458,31.231101],[121.399458,31.231101],[121.399458,31.231101],[121.399458,31.231101],[121.399458,31.231101],[121.399458,31.231101],[121.399438,31.231082],[121.399326,31.230874],[121.399326,31.230874],[121.399326,31.230874],[121.399326,31.230874],[121.399326,31.230874],[121.399326,31.230874],[121.399326,31.230874],[121.399326,31.230874],[121.399374,31.230579],[121.399374,31.230579],[121.399374,31.230579],[121.399374,31.230579],[121.399374,31.230579],[121.399374,31.230579],[121.399374,31.230579],[121.399374,31.230579],[121.399374,31.230579],[121.399374,31.230579],[121.399465,31.230312],[121.399465,31.230312],[121.399465,31.230312],[121.399465,31.230312],[121.399465,31.230312],[121.399465,31.230312],[121.399465,31.230312],[121.399465,31.230312],[121.399465,31.230312],[121.399534,31.230049],[121.399534,31.230049],[121.399534,31.230049],[121.399534,31.230049],[121.399534,31.230049],[121.399534,31.230049],[121.399534,31.230049],[121.399534,31.230049],[121.399534,31.230049],[121.399543,31.23002],[121.399683,31.229805],[121.399683,31.229805],[121.399683,31.229805],[121.399683,31.229805],[121.399683,31.229805],[121.399683,31.229805],[121.399683,31.229805],[121.399683,31.229805],[121.400011,31.229735],[121.400011,31.229735],[121.400011,31.229735],[121.400011,31.229735],[121.400011,31.229735],[121.400011,31.229735],[121.400011,31.229735],[121.400011,31.229735],[121.400011,31.229735],[121.40005,31.229743],[121.400283,31.229874],[121.400283,31.229874],[121.400283,31.229874],[121.400283,31.229874],[121.400283,31.229874],[121.400283,31.229874],[121.400283,31.229874],[121.400283,31.229874],[121.400359,31.230155],[121.400359,31.230155],[121.400359,31.230155],[121.400359,31.230155],[121.400359,31.230155],[121.400359,31.230155],[121.400359,31.230155],[121.400359,31.230155],[121.400359,31.230155],[121.400359,31.230155],[121.400255,31.230414],[121.400255,31.230414],[121.400255,31.230414],[121.400255,31.230414],[121.400255,31.230414],[121.400255,31.230414],[121.400255,31.230414],[121.400255,31.230414],[121.400255,31.230414],[121.400174,31.230694],[121.400174,31.230694],[121.400174,31.230694],[121.400174,31.230694],[121.400174,31.230694],[121.400174,31.230694],[121.400174,31.230694],[121.400174,31.230694],[121.400174,31.230694],[121.400165,31.230724],[121.400102,31.230961],[121.400102,31.230961],[121.400102,31.230961],[121.400102,31.230961],[121.400102,31.230961],[121.400102,31.230961],[121.400102,31.230961],[121.400102,31.230961],[121.399884,31.231158],[121.399884,31.231158],[121.399884,31.231158],[121.399884,31.231158],[121.399884,31.231158],[121.399884,31.231158],[121.399884,31.231158],[121.399884,31.231158],[121.399884,31.231158],[121.399852,31.231173],[121.39959,31.231163],[121.39959,31.231163],[121.39959,31.231163],[121.39959,31.231163],[121.39959,31.231163],[121.39959,31.231163],[121.39959,31.231163],[121.39959,31.231163],[121.399343,31.230961],[121.399343,31.230961],[121.399343,31.230961],[121.399343,31.230961],[121.399343,31.230961],[121.399343,31.230961],[121.399343,31.230961],[121.399343,31.230961],[121.399343,31.230961],[121.399343,31.230961],[121.399341,31.230686],[121.399341,31.230686],[121.399341,31.230686],[121.399341,31.230686],[121.399341,31.230686],[121.399341,31.230686],[121.399341,31.230686],[121.399341,31.230686],[121.399341,31.230686],[121.39943,31.230421],[121.39943,31.230421],[121.39943,31.230421],[121.39943,31.230421],[121.39943,31.230421],[121.39943,31.230421],[121.39943,31.230421],[121.39943,31.230421],[121.39943,31.230421],[121.399444,31.23039],[121.399532,31.230163],[121.399532,31.230163],[121.399532,31.230163],[121.399532,31.230163],[121.399532,31.230163],[121.399532,31.230163],[121.399532,31.230163],[121.399532,31.230163],[121.399621,31.229906],[121.399621,31.229906],[121.399621,31.229906],[121.399621,31.229906],[121.399621,31.229906],[121.399621,31.229906],[121.399621,31.229906],[121.399621,31.229906],[121.399621,31.229906],[121.399637,31.229878],[121.399857,31.229744],[121.399857,31.229744],[121.399857,31.229744],[121.399857,31.229744],[121.399857,31.229744],[121.399857,31.229744],[121.399857,31.229744],[121.399857,31.229744],[121.400183,31.2298],[121.400183,31.2298],[121.400183,31.2298],[121.400183,31.2298],[121.400183,31.2298],[121.400183,31.2298],[121.400183,31.2298],[121.400183,31.2298],[121.400183,31.2298],[121.400183,31.2298],[121.400351,31.230023],[121.400351,31.230023],[121.400351,31.230023],[121.400351,31.230023],[121.400351,31.230023],[121.400351,31.230023],[121.400351,31.230023],[121.400351,31.230023],[121.400351,31.230023],[121.400297,31.230312],[121.400297,31.230312],[121.400297,31.230312],[121.400297,31.230312],[121.400297,31.230312],[121.400297,31.230312],[121.400297,31.230312],[121.400297,31.230312],[121.400297,31.230312],[121.40029,31.230345],[121.400224,31.230559],[121.400224,31.230559],[121.400224,31.230559],[121.400224,31.230559],[121.400224,31.230559],[121.400224,31.230559],[121.400224,31.230559],[121.400224,31.230559],[121.400125,31.230863],[121.400125,31.230863],[121.400125,31.230863],[121.400125,31.230863],[121.400125,31.230863],[121.400125,31.230863],[121.400125,31.230863],[121.400125,31.230863],[121.400125,31.230863],[121.400125,31.230863],[121.400011,31.231092],[121.400011,31.231092],[121.400011,31.231092],[121.400011,31.231092],[121.400011,31.231092],[121.400011,31.231092],[121.400011,31.231092],[121.400011,31.231092],[121.399687,31.231184],[121.399687,31.231184],[121.399687,31.231184],[121.399687,31.231184],[121.399687,31.231184],[121.399687,31.231184],[121.399687,31.231184],[121.399687,31.231184],[121.399687,31.231184],[121.399687,31.231184],[121.39937,31.231035],[121.39937,31.231035],[121.39937,31.231035],[121.39937,31.231035],[121.39937,31.231035],[121.39937,31.231035],[121.39937,31.231035],[121.39937,31.231035],[121.39937,31.231035],[121.399321,31.230762],[121.399321,31.230762],[121.399321,31.230762],[121.399321,31.230762],[121.399321,31.230762],[121.399321,31.230762],[121.399321,31.230762],[121.399321,31.230762],[121.399321,31.230762],[121.399325,31.230734],[121.399403,31.230504],[121.399403,31.230504],[121.399403,31.230504],[121.399403,31.230504],[121.399403,31.230504],[121.399403,31.230504],[121.399403,31.230504],[121.399403,31.230504],[121.399502,31.230213],[121.399502,31.230213],[121.399502,31.230213],[121.399502,31.230213],[121.399502,31.230213],[121.399502,31.230213],[121.399502,31.230213],[121.399502,31.230213],[121.399502,31.230213],[121.399502,31.230213],[121.39958,31.229948],[121.39958,31.229948],[121.39958,31.229948],[121.39958,31.229948],[121.39958,31.229948],[121.39958,31.229948],[121.39958,31.229948],[121.39958,31.229948],[121.39958,31.229948],[121.399826,31.22974],[121.399826,31.22974],[121.399826,31.22974],[121.399826,31.22974],[121.399826,31.22974],[121.399826,31.22974],[121.399826,31.22974],[121.399826,31.22974],[121.399826,31.22974],[121.399864,31.229731],[121.400145,31.229773],[121.400145,31.229773],[121.400145,31.229773],[121.400145,31.229773],[121.400145,31.229773],[121.400145,31.229773],[121.400145,31.229773],[121.400145,31.229773],[121.400326,31.229973],[121.400326,31.229973],[121.400326,31.229973],[121.400326,31.229973],[121.400326,31.229973],[121.400326,31.229973],[121.400326,31.229973],[121.400326,31.229973],[121.400326,31.229973],[121.400337,31.230002],[121.400327,31.230256],[121.400327,31.230256],[121.400327,31.230256],[121.400327,31.230256],[121.400327,31.230256],[121.400327,31.230256],[121.400327,31.230256],[121.400327,31.230256],[121.400246,31.230551],[121.400246,31.230551],[121.400246,31.230551],[121.400246,31.230551],[121.400246,31.230551],[121.400246,31.230551],[121.400246,31.230551],[121.400246,31.230551],[121.400246,31.230551],[121.400246,31.230551],[121.400159,31.230812],[121.400159,31.230812],[121.400159,31.230812],[121.400159,31.230812],[121.400159,31.230812],[121.400159,31.230812],[121.400159,31.230812],[121.400159,31.230812],[121.400159,31.230812],[121.40001,31.231062],[121.40001,31.231062],[121.40001,31.231062],[121.40001,31.231062],[121.40001,31.231062],[121.40001,31.231062],[121.40001,31.231062],[121.40001,31.231062],[121.40001,31.231062],[121.399985,31.231084],[121.39972,31.231187],[121.39972,31.231187],[121.39972,31.231187],[121.39972,31.231187],[121.39972,31.231187],[121.39972,31.231187],[121.39972,31.231187],[121.39972,31.231187],[121.399424,31.231087],[121.399424,31.231087],[121.399424,31.231087],[121.399424,31.231087],[121.399424,31.231087],[121.399424,31.231087],[121.399424,31.231087],[121.399424,31.231087],[121.399424,31.231087],[121.399391,31.231059],[121.399285,31.230812],[121.399285,31.230812],[121.399285,31.230812],[121.399285,31.230812],[121.399285,31.230812],[121.399285,31.230812],[121.399285,31.230812],[121.399285,31.230812],[121.399386,31.23052],[121.399386,31.23052],[121.399386,31.23052],[121.399386,31.23052],[121.399386,31.23052],[121.399386,31.23052],[121.399386,31.23052],[121.399386,31.23052],[121.399386,31.23052],[121.399386,31.23052],[121.399447,31.230252],[121.399447,31.230252],[121.399447,31.230252],[121.399447,31.230252],[121.399447,31.230252],[121.399447,31.230252],[121.399447,31.230252],[121.399447,31.230252],[121.399447,31.230252],[121.399543,31.229988],[121.399543,31.229988],[121.399543,31.229988],[121.399543,31.229988],[121.399543,31.229988],[121.399543,31.229988],[121.399543,31.229988],[121.399543,31.229988],[121.399543,31.229988],[121.399558,31.229961],[121.399736,31.229788],[121.399736,31.229788],[121.399736,31.229788],[121.399736,31.229788],[121.399736,31.229788],[121.399736,31.229788],[121.399736,31.229788],[121.399736,31.229788],[121.400065,31.229762],[121.400065,31.229762],[121.400065,31.229762],[121.400065,31.229762],[121.400065,31.229762],[121.400065,31.229762],[121.400065,31.229762],[121.400065,31.229762],[121.400065,31.229762],[121.400096,31.229768],[121.400312,31.229948],[121.400312,31.229948],[121.400312,31.229948],[121.400312,31.229948],[121.400312,31.229948],[121.400312,31.229948],[121.400312,31.229948],[121.400312,31.229948],[121.40031,31.230262],[121.40031,31.230262],[121.40031,31.230262],[121.40031,31.230262],[121.40031,31.230262],[121.40031,31.230262],[121.40031,31.230262],[121.40031,31.230262],[121.40031,31.230262],[121.40031,31.230262],[121.400226,31.230519],[121.400226,31.230519],[121.400226,31.230519],[121.400226,31.230519],[121.400226,31.230519],[121.400226,31.230519],[121.400226,31.230519],[121.400226,31.230519],[121.400226,31.230519],[121.400127,31.230787],[121.400127,31.230787],[121.400127,31.230787],[121.400127,31.230787],[121.400127,31.230787],[121.400127,31.230787],[121.400127,31.230787],[121.400127,31.230787],[121.400127,31.230787],[121.400117,31.230818],[121.400013,31.231043],[121.400013,31.231043],[121.400013,31.231043],[121.400013,31.231043],[121.400013,31.231043],[121.400013,31.231043],[121.400013,31.231043],[121.400013,31.231043],[121.399732,31.231163],[121.399732,31.231163],[121.399732,31.231163],[121.399732,31.231163],[121.399732,31.231163],[121.399732,31.231163],[121.399732,31.231163],[121.399732,31.231163],[121.399732,31.231163],[121.3997,31.231168],[121.399435,31.231079],[121.399435,31.231079],[121.399435,31.231079],[121.399435,31.231079],[121.399435,31.231079],[121.399435,31.231079],[121.399435,31.231079],[121.399435,31.231079],[121.399331,31.230812],[121.399331,31.230812],[121.399331,31.230812],[121.399331,31.230812],[121.399331,31.230812],[121.399331,31.230812],[121.399331,31.230812],[121.399331,31.230812],[121.399331,31.230812],[121.399331,31.230812],[121.399372,31.23049],[121.399372,31.23049],[121.399372,31.23049],[121.399372,31.23049],[121.399372,31.23049],[121.399372,31.23049],[121.399372,31.23049],[121.399372,31.23049],[121.399372,31.23049],[121.399454,31.230228],[121.399454,31.230228],[121.399454,31.230228],[121.399454,31.230228],[121.399454,31.230228],[121.399454,31.230228],[121.399454,31.230228],[121.399454,31.230228],[121.399454,31.230228],[121.399466,31.2302],[121.399559,31.229979],[121.399559,31.229979],[121.399559,31.229979],[121.399559,31.229979],[121.399559,31.229979],[121.399559,31.229979],[121.399559,31.229979],[121.399559,31.229979],[121.399779,31.229765],[121.399779,31.229765],[121.399779,31.229765],[121.399779,31.229765],[121.399779,31.229765],[121.399779,31.229765],[121.399779,31.229765],[121.399779,31.229765],[121.399779,31.229765],[121.399817,31.229752],[121.400127,31.229775],[121.400127,31.229775],[121.400127,31.229775],[121.400127,31.229775],[121.400127,31.229775],[121.400127,31.229775],[121.400127,31.229775],[121.400127,31.229775],[121.400127,31.229775],[121.400323,31.229989],[121.400323,31.229989],[121.400323,31.229989],[121.400323,31.229989],[121.400323,31.229989],[121.400323,31.229989],[121.400323,31.229989],[121.400323,31.229989],[121.400323,31.229989],[121.400329,31.230021],[121.400286,31.230256],[121.400286,31.230256],[121.400286,31.230256],[121.400286,31.230256],[121.400286,31.230256],[121.400286,31.230256],[121.400286,31.230256],[121.400286,31.230256],[121.400216,31.230549],[121.400216,31.230549],[121.400216,31.230549],[121.400216,31.230549],[121.400216,31.230549],[121.400216,31.230549],[121.400216,31.230549],[121.400216,31.230549],[121.400216,31.230549],[121.400206,31.230579],[121.400122,31.230819],[121.400122,31.230819],[121.400122,31.230819],[121.400122,31.230819],[121.400122,31.230819],[121.400122,31.230819],[121.400122,31.230819],[121.400122,31.230819],[121.399971,31.231072],[121.399971,31.231072],[121.399971,31.231072],[121.399971,31.231072],[121.399971,31.231072],[121.399971,31.231072],[121.399971,31.231072],[121.399971,31.231072],[121.399971,31.231072],[121.399941,31.23109],[121.399658,31.231176],[121.399658,31.231176],[121.399658,31.231176],[121.399658,31.231176],[121.399658,31.231176],[121.399658,31.231176],[121.399658,31.231176],[121.399658,31.231176],[121.399658,31.231176],[121.39937,31.231022],[121.39937,31.231022],[121.39937,31.231022],[121.39937,31.231022],[121.39937,31.231022],[121.39937,31.231022],[121.39937,31.231022],[121.39937,31.231022],[121.39937,31.231022],[121.399342,31.230988],[121.399295,31.230728],[121.399295,31.230728],[121.399295,31.230728],[121.399295,31.230728],[121.399295,31.230728],[121.399295,31.230728],[121.399295,31.230728],[121.399295,31.230728],[121.399409,31.230459],[121.399409,31.230459],[121.399409,31.230459],[121.399409,31.230459],[121.399409,31.230459],[121.399409,31.230459],[121.399409,31.230459],[121.399409,31.230459],[121.399409,31.230459],[121.399423,31.230428],[121.399502,31.230188],[121.399502,31.230188],[121.399502,31.230188],[121.399502,31.230188],[121.399502,31.230188],[121.399502,31.230188],[121.399502,31.230188],[121.399502,31.230188],[121.399635,31.22988],[121.399635,31.22988],[121.399635,31.22988],[121.399635,31.22988],[121.399635,31.22988],[121.399635,31.22988],[121.399635,31.22988],[121.399635,31.22988],[121.399635,31.22988],[121.399635,31.22988],[121.399906,31.229738],[121.399906,31.229738],[121.399906,31.229738],[121.399906,31.229738],[121.399906,31.229738],[121.399906,31.229738],[121.399906,31.229738],[121.399906,31.229738],[121.399906,31.229738],[121.400202,31.229822],[121.400202,31.229822],[121.400202,31.229822],[121.400202,31.229822],[121.400202,31.229822],[121.400202,31.229822],[121.400202,31.229822],[121.400202,31.229822],[121.400202,31.229822],[121.40023,31.229843],[121.400346,31.230069],[121.400346,31.230069],[121.400346,31.230069],[121.400346,31.230069],[121.400346,31.230069],[121.400346,31.230069],[121.400346,31.230069],[121.400346,31.230069],[121.400282,31.230347],[121.400282,31.230347],[121.400282,31.230347],[121.400282,31.230347],[121.400282,31.230347],[121.400282,31.230347],[121.400282,31.230347],[121.400282,31.230347],[121.400282,31.230347],[121.400272,31.230379],[121.400183,31.230624],[121.400183,31.230624],[121.400183,31.230624],[121.400183,31.230624],[121.400183,31.230624],[121.400183,31.230624],[121.400183,31.230624],[121.400183,31.230624],[121.400091,31.230928],[121.400091,31.230928],[121.400091,31.230928],[121.400091,31.230928],[121.400091,31.230928],[121.400091,31.230928],[121.400091,31.230928],[121.400091,31.230928],[121.400091,31.230928],[121.400091,31.230928],[121.39989,31.23112],[121.39989,31.23112],[121.39989,31.23112],[121.39989,31.23112],[121.39989,31.23112],[121.39989,31.23112],[121.39989,31.23112],[121.39989,31.23112],[121.39989,31.23112],[121.399575,31.23115],[121.399575,31.23115],[121.399575,31.23115],[121.399575,31.23115],[121.399575,31.23115],[121.399575,31.23115],[121.399575,31.23115],[121.399575,31.23115],[121.399575,31.23115],[121.399539,31.23114],[121.399309,31.230938],[121.399309,31.230938],[121.399309,31.230938],[121.399309,31.230938],[121.399309,31.230938],[121.399309,31.230938],[121.399309,31.230938],[121.399309,31.230938],[121.39933,31.230676],[121.39933,31.230676],[121.39933,31.230676],[121.39933,31.230676],[121.39933,31.230676],[121.39933,31.230676],[121.39933,31.230676],[121.39933,31.230676],[121.39933,31.230676],[121.39934,31.230643],[121.39944,31.230387],[121.39944,31.230387],[121.39944,31.230387],[121.39944,31.230387],[121.39944,31.230387],[121.39944,31.230387],[121.39944,31.230387],[121.39944,31.230387],[121.399524,31.230087],[121.399524,31.230087],[121.399524,31.230087],[121.399524,31.230087],[121.399524,31.230087],[121.399524,31.230087],[121.399524,31.230087],[121.399524,31.230087],[121.399524,31.230087],[121.399524,31.230087],[121.399662,31.229813],[121.399662,31.229813],[121.399662,31.229813],[121.399662,31.229813],[121.399662,31.229813],[121.399662,31.229813],[121.399662,31.229813],[121.399662,31.229813],[121.399662,31.229813],[121.399979,31.229723],[121.399979,31.229723],[121.399979,31.229723],[121.399979,31.229723],[121.399979,31.229723],[121.399979,31.229723],[121.399979,31.229723],[121.399979,31.229723],[121.399979,31.229723],[121.400015,31.229725],[121.400267,31.229859],[121.400267,31.229859],[121.400267,31.229859],[121.400267,31.229859],[121.400267,31.229859],[121.400267,31.229859],[121.400267,31.229859],[121.400267,31.229859],[121.400337,31.230139],[121.400337,31.230139],[121.400337,31.230139],[121.400337,31.230139],[121.400337,31.230139],[121.400337,31.230139],[121.400337,31.230139],[121.400337,31.230139],[121.400337,31.230139],[121.400329,31.230175],[121.400247,31.230436],[121.400247,31.230436],[121.400247,31.230436],[121.400247,31.230436],[121.400247,31.230436],[121.400247,31.230436],[121.400247,31.230436],[121.400247,31.230436],[121.400147,31.230751],[121.400147,31.230751],[121.400147,31.230751],[121.400147,31.230751],[121.400147,31.230751],[121.400147,31.230751],[121.400147,31.230751],[121.400147,31.230751],[121.400147,31.230751],[121.400147,31.230751],[121.400046,31.23102],[121.400046,31.23102],[121.400046,31.23102],[121.400046,31.23102],[121.400046,31.23102],[121.400046,31.23102],[121.400046,31.23102],[121.400046,31.23102],[121.400046,31.23102],[121.399791,31.231175],[121.399791,31.231175],[121.399791,31.231175],[121.399791,31.231175],[121.399791,31.231175],[121.399791,31.231175],[121.399791,31.231175],[121.399791,31.231175],[121.399791,31.231175],[121.399759,31.231181],[121.399479,31.231101],[121.399479,31.231101],[121.399479,31.231101],[121.399479,31.231101],[121.399479,31.231101],[121.399479,31.231101],[121.399479,31.231101],[121.399479,31.231101],[121.399298,31.230833],[121.399298,31.230833],[121.399298,31.230833],[121.399298,31.230833],[121.399298,31.230833],[121.399298,31.230833],[121.399298,31.230833],[121.399298,31.230833],[121.399298,31.230833],[121.399304,31.230805],[121.399368,31.230511],[121.399368,31.230511],[121.399368,31.230511],[121.399368,31.230511],[121.399368,31.230511],[121.399368,31.230511],[121.399368,31.230511],[121.399368,31.230511],[121.399368,31.230511],[121.399453,31.230249],[121.399453,31.230249],[121.399453,31.230249],[121.399453,31.230249],[121.399453,31.230249],[121.399453,31.230249],[121.399453,31.230249],[121.399453,31.230249],[121.399453,31.230249],[121.399463,31.230213],[121.399549,31.229971],[121.399549,31.229971],[121.399549,31.229971],[121.399549,31.229971],[121.399549,31.229971],[121.399549,31.229971],[121.399549,31.229971],[121.399549,31.229971],[121.399747,31.229727],[121.399747,31.229727],[121.399747,31.229727],[121.399747,31.229727],[121.399747,31.229727],[121.399747,31.229727],[121.399747,31.229727],[121.399747,31.229727],[121.399747,31.229727],[121.399777,31.229713],[121.400097,31.229758],[121.400097,31.229758],[121.400097,31.229758],[121.400097,31.229758],[121.400097,31.229758],[121.400097,31.229758],[121.400097,31.229758],[121.400097,31.229758],[121.40033,31.229969],[121.40033,31.229969],[121.40033,31.229969],[121.40033,31.229969],[121.40033,31.229969],[121.40033,31.229969],[121.40033,31.229969],[121.40033,31.229969],[121.40033,31.229969],[121.40034,31.230003],[121.400295,31.230309],[121.400295,31.230309],[121.400295,31.230309],[121.400295,31.230309],[121.400295,31.230309],[121.400295,31.230309],[121.400295,31.230309],[121.400295,31.230309],[121.400295,31.230309],[121.400191,31.230609],[121.400191,31.230609],[121.400191,31.230609],[121.400191,31.230609],[121.400191,31.230609],[121.400191,31.230609],[121.400191,31.230609],[121.400191,31.230609],[121.400191,31.230609],[121.400182,31.23064],[121.400089,31.230882],[121.400089,31.230882],[121.400089,31.230882],[121.400089,31.230882],[121.400089,31.230882],[121.400089,31.230882],[121.400089,31.230882],[121.400089,31.230882],[121.399898,31.231125],[121.399898,31.231125],[121.399898,31.231125],[121.399898,31.231125],[121.399898,31.231125],[121.399898,31.231125],[121.399898,31.231125],[121.399898,31.231125],[121.399898,31.231125],[121.399868,31.231148],[121.399579,31.231165],[121.399579,31.231165],[121.399579,31.231165],[121.399579,31.231165],[121.399579,31.231165],[121.399579,31.231165],[121.399579,31.231165],[121.399579,31.231165],[121.399299,31.230924],[121.399299,31.230924],[121.399299,31.230924],[121.399299,31.230924],[121.399299,31.230924],[121.399299,31.230924],[121.399299,31.230924],[121.399299,31.230924],[121.399299,31.230924],[121.399299,31.230924],[121.399354,31.23062],[121.399354,31.23062],[121.399354,31.23062],[121.399354,31.23062],[121.399354,31.23062],[121.399354,31.23062],[121.399354,31.23062],[121.399354,31.23062],[121.399354,31.23062],[121.399445,31.230324],[121.399445,31.230324],[121.399445,31.230324],[121.399445,31.230324],[121.399445,31.230324],[121.399445,31.230324],[121.399445,31.230324],[121.399445,31.230324],[121.399445,31.230324],[121.399454,31.23029],[121.399543,31.230039],[121.399543,31.230039],[121.399543,31.230039],[121.399543,31.230039],[121.399543,31.230039],[121.399543,31.230039],[121.399543,31.230039],[121.399543,31.230039],[121.39972,31.229793],[121.39972,31.229793],[121.39972,31.229793],[121.39972,31.229793],[121.39972,31.229793],[121.39972,31.229793],[121.39972,31.229793],[121.39972,31.229793],[121.39972,31.229793],[121.399749,31.229778],[121.400056,31.229753],[121.400056,31.229753],[121.400056,31.229753],[121.400056,31.229753],[121.400056,31.229753],[121.400056,31.229753],[121.400056,31.229753],[121.400056,31.229753],[121.400308,31.229964],[121.400308,31.229964],[121.400308,31.229964],[121.400308,31.229964],[121.400308,31.229964],[121.400308,31.229964],[121.400308,31.229964],[121.400308,31.229964],[121.400308,31.229964],[121.400308,31.229964],[121.400293,31.230263],[121.400293,31.230263],[121.400293,31.230263],[121.400293,31.230263],[121.400293,31.230263],[121.400293,31.230263],[121.400293,31.230263],[121.400293,31.230263],[121.400293,31.230263],[121.400194,31.230563],[121.400194,31.230563],[121.400194,31.230563],[121.400194,31.230563],[121.400194,31.230563],[121.400194,31.230563],[121.400194,31.230563],[121.400194,31.230563],[121.400194,31.230563],[121.400185,31.230595],[121.400107,31.230857],[121.400107,31.230857],[121.400107,31.230857],[121.400107,31.230857],[121.400107,31.230857],[121.400107,31.230857],[121.400107,31.230857],[121.400107,31.230857],[121.399926,31.231103],[121.399926,31.231103],[121.399926,31.231103],[121.399926,31.231103],[121.399926,31.231103],[121.399926,31.231103],[121.399926,31.231103],[121.399926,31.231103],[121.399926,31.231103],[121.399889,31.231119],[121.399602,31.231179],[121.399602,31.231179],[121.399602,31.231179],[121.399602,31.231179],[121.399602,31.231179],[121.399602,31.231179],[121.399602,31.231179],[121.399602,31.231179],[121.399309,31.230928],[121.399309,31.230928],[121.399309,31.230928],[121.399309,31.230928],[121.399309,31.230928],[121.399309,31.230928],[121.399309,31.230928],[121.399309,31.230928],[121.399309,31.230928],[121.399309,31.230928],[121.399336,31.230618],[121.399336,31.230618],[121.399336,31.230618],[121.399336,31.230618],[121.399336,31.230618],[121.399336,31.230618],[121.399336,31.230618],[121.399336,31.230618],[121.399336,31.230618],[121.399424,31.230339],[121.399424,31.230339],[121.399424,31.230339],[121.399424,31.230339],[121.399424,31.230339],[121.399424,31.230339],[121.399424,31.230339],[121.399424,31.230339],[121.399424,31.230339],[121.399434,31.23031],[121.399528,31.230041],[121.399528,31.230041],[121.399528,31.230041],[121.399528,31.230041],[121.399528,31.230041],[121.399528,31.230041],[121.399528,31.230041],[121.399528,31.230041],[121.399716,31.229759],[121.399716,31.229759],[121.399716,31.229759],[121.399716,31.229759],[121.399716,31.229759],[121.399716,31.229759],[121.399716,31.229759],[121.399716,31.229759],[121.399716,31.229759],[121.399755,31.229744],[121.400114,31.22977],[121.400114,31.22977],[121.400114,31.22977],[121.400114,31.22977],[121.400114,31.22977],[121.400114,31.22977],[121.400114,31.22977],[121.400114,31.22977],[121.400114,31.22977],[121.400321,31.230018],[121.400321,31.230018],[121.400321,31.230018],[121.400321,31.230018],[121.400321,31.230018],[121.400321,31.230018],[121.400321,31.230018],[121.400321,31.230018],[121.400321,31.230018],[121.400329,31.230051],[121.400253,31.23032],[121.400253,31.23032],[121.400253,31.23032],[121.400253,31.23032],[121.400253,31.23032],[121.400253,31.23032],[121.400253,31.23032],[121.400253,31.23032],[121.400182,31.230618],[121.400182,31.230618],[121.400182,31.230618],[121.400182,31.230618],[121.400182,31.230618],[121.400182,31.230618],[121.400182,31.230618],[121.400182,31.230618],[121.400182,31.230618],[121.400178,31.230663],[121.400071,31.230962],[121.400071,31.230962],[121.400071,31.230962],[121.400071,31.230962],[121.400071,31.230962],[121.400071,31.230962],[121.400071,31.230962],[121.400071,31.230962],[121.399788,31.231184],[121.399788,31.231184],[121.399788,31.231184],[121.399788,31.231184],[121.399788,31.231184],[121.399788,31.231184],[121.399788,31.231184],[121.399788,31.231184],[121.399788,31.231184],[121.399788,31.231184],[121.399411,31.231083],[121.399411,31.231083],[121.399411,31.231083],[121.399411,31.231083],[121.399411,31.231083],[121.399411,31.231083],[121.399411,31.231083],[121.399411,31.231083],[121.399411,31.231083],[121.399274,31.230777],[121.399274,31.230777],[121.399274,31.230777],[121.399274,31.230777],[121.399274,31.230777],[121.399274,31.230777],[121.399274,31.230777],[121.399274,31.230777],[121.399274,31.230777],[121.399287,31.230736],[121.399377,31.230446],[121.399377,31.230446],[121.399377,31.230446],[121.399377,31.230446],[121.399377,31.230446],[121.399377,31.230446],[121.399377,31.230446],[121.399377,31.230446],[121.39949,31.230128],[121.39949,31.230128],[121.39949,31.230128],[121.39949,31.230128],[121.39949,31.230128],[121.39949,31.230128],[121.39949,31.230128],[121.39949,31.230128],[121.39949,31.230128],[121.3995,31.230088]]}}]}