{"type":"FeatureCollection","features":[{"type":"Feature","properties":{"id":"2026-05-05_running_36","type":"running","date":"2026-05-05"},"geometry":{"type":"LineString","coordinates":[[121.399553,31.229985],[121.399571,31.22995],[121.399586,31.22992],[121.399601,31.229895],[121.39962,31.229869],[121.399643,31.229844],[121.399669,31.22982],[121.399695,31.2298],[121.399725,31.22978],[121.399756,31.229765],[121.399785,31.229753],[121.399818,31.229742],[121.399852,31.229733],[121.399886,31.229727],[121.399931,31.229722],[121.399973,31.22972],[121.400008,31.229723],[121.400041,31.229728],[121.400071,31.229735],[121.4001,31.229745],[121.400132,31.229757],[121.400161,31.22977],[121.400186,31.229784],[121.400213,31.229802],[121.400237,31.229822],[121.400257,31.229843],[121.400277,31.229868],[121.400296,31.229894],[121.400309,31.229918],[121.400322,31.229948],[121.400332,31.22998],[121.40034,31.230018],[121.400345,31.230053],[121.400344,31.23008],[121.400342,31.230112],[121.400337,31.230148],[121.400333,31.230182],[121.400329,31.230208],[121.400324,31.230228],[121.400316,31.230254],[121.400309,31.230279],[121.400303,31.2303],[121.400296,31.230323],[121.400288,31.23035],[121.40028,31.230377],[121.400272,31.230404],[121.400263,31.230431],[121.400255,31.230456],[121.400243,31.230493],[121.400232,31.230527],[121.400224,31.230551],[121.400214,31.230581],[121.400204,31.230609],[121.400196,31.230635],[121.400186,31.230665],[121.400177,31.230694],[121.40017,31.230718],[121.400162,31.230743],[121.400153,31.230773],[121.400144,31.230801],[121.400138,31.230823],[121.400131,31.230845],[121.400122,31.230873],[121.400113,31.2309],[121.400104,31.230925],[121.400091,31.230961],[121.400079,31.230993],[121.400068,31.231015],[121.400048,31.231046],[121.400025,31.231074],[121.400002,31.231095],[121.399975,31.231114],[121.399948,31.231129],[121.399925,31.23114],[121.399897,31.231151],[121.399867,31.231161],[121.399837,31.231168],[121.399802,31.231174],[121.399768,31.231177],[121.399733,31.231176],[121.399698,31.231174],[121.399665,31.231169],[121.399621,31.231159],[121.399581,31.231147],[121.39955,31.231134],[121.399521,31.23112],[121.399496,31.231106],[121.399471,31.231088],[121.399448,31.23107],[121.39943,31.231053],[121.399412,31.231034],[121.399394,31.231011],[121.399379,31.230988],[121.399369,31.230965],[121.399359,31.230939],[121.399351,31.230912],[121.399344,31.230884],[121.399337,31.230854],[121.399334,31.230824],[121.399335,31.230787],[121.39934,31.230751],[121.399346,31.230721],[121.399352,31.23069],[121.399359,31.230661],[121.399367,31.230633],[121.399374,31.230605],[121.399379,31.230578],[121.399384,31.230554],[121.399392,31.230526],[121.399399,31.230498],[121.399407,31.230473],[121.399416,31.230446],[121.399426,31.230419],[121.399436,31.230392],[121.399445,31.230364],[121.399453,31.230338],[121.399461,31.230312],[121.39947,31.230286],[121.399479,31.23026],[121.399486,31.230236],[121.399495,31.230208],[121.399503,31.23018],[121.399511,31.230156],[121.39952,31.23013],[121.399528,31.230104],[121.399536,31.230078],[121.399545,31.230048],[121.399553,31.230021],[121.399563,31.22999],[121.399573,31.22996],[121.399584,31.229935],[121.399595,31.229911],[121.399612,31.229884],[121.399636,31.229855],[121.399669,31.229823],[121.399702,31.229796],[121.399729,31.229777],[121.399758,31.229762],[121.399786,31.22975],[121.399816,31.229741],[121.399851,31.229733],[121.399888,31.229727],[121.399923,31.229723],[121.399961,31.229722],[121.399997,31.229724],[121.40003,31.229729],[121.400061,31.229736],[121.400094,31.229746],[121.400125,31.229758],[121.400152,31.22977],[121.400179,31.229785],[121.400206,31.229804],[121.40023,31.229824],[121.40025,31.229843],[121.40027,31.229866],[121.400289,31.229891],[121.400302,31.229915],[121.400315,31.22994],[121.400324,31.229966],[121.40033,31.22999],[121.400335,31.230021],[121.400338,31.230052],[121.400339,31.230079],[121.400338,31.230108],[121.400336,31.230141],[121.400332,31.230173],[121.400327,31.230203],[121.400319,31.230236],[121.400308,31.230272],[121.400296,31.230312],[121.400286,31.230347],[121.400277,31.230376],[121.400267,31.230408],[121.400257,31.23044],[121.400247,31.230473],[121.400236,31.230507],[121.400226,31.230539],[121.400214,31.230573],[121.400204,31.230606],[121.400195,31.230634],[121.400185,31.230663],[121.400175,31.230693],[121.400165,31.230722],[121.400156,31.230748],[121.400147,31.230776],[121.400137,31.230807],[121.400127,31.230844],[121.400117,31.230877],[121.400108,31.230904],[121.400098,31.230933],[121.400088,31.230962],[121.400076,31.230989],[121.400061,31.231016],[121.400039,31.231045],[121.400015,31.231073],[121.39999,31.231093],[121.399961,31.231114],[121.39993,31.231131],[121.399898,31.231146],[121.399861,31.23116],[121.399827,31.23117],[121.399794,31.231177],[121.399758,31.23118],[121.399711,31.231178],[121.399664,31.231173],[121.399623,31.231165],[121.399586,31.231155],[121.399554,31.231145],[121.39952,31.231131],[121.39949,31.231116],[121.399467,31.2311],[121.399445,31.231082],[121.399423,31.231062],[121.399401,31.231038],[121.399383,31.231014],[121.399369,31.23099],[121.399357,31.230965],[121.399348,31.230937],[121.399341,31.230908],[121.399335,31.230875],[121.399326,31.230835],[121.399326,31.230798],[121.399333,31.23076],[121.39934,31.230719],[121.399349,31.230678],[121.399359,31.230643],[121.399367,31.230617],[121.399373,31.230596],[121.39938,31.230575],[121.399386,31.230554],[121.399394,31.23053],[121.399404,31.230499],[121.399413,31.23047],[121.399421,31.230444],[121.399429,31.230414],[121.399437,31.230388],[121.399446,31.230358],[121.399459,31.230313],[121.399471,31.230275],[121.399479,31.230249],[121.399487,31.230223],[121.399496,31.230197],[121.399506,31.230165],[121.399516,31.230135],[121.399524,31.230111],[121.399532,31.230087],[121.399541,31.230062],[121.39955,31.230037],[121.39956,31.230009],[121.39957,31.229981],[121.399579,31.229959],[121.399587,31.229938],[121.399598,31.229917],[121.399613,31.229889],[121.399639,31.229853],[121.399671,31.229822],[121.399701,31.229799],[121.399732,31.229778],[121.399761,31.229762],[121.399788,31.229752],[121.399819,31.229745],[121.399857,31.229738],[121.399894,31.229734],[121.399925,31.229732],[121.399957,31.229732],[121.39999,31.229734],[121.400025,31.22974],[121.400059,31.229748],[121.400089,31.229757],[121.400121,31.229771],[121.40015,31.229785],[121.400178,31.229802],[121.400206,31.229821],[121.400233,31.229843],[121.400257,31.229868],[121.400278,31.229897],[121.400296,31.229923],[121.400309,31.229947],[121.40032,31.229973],[121.400328,31.230001],[121.400334,31.230032],[121.400338,31.230066],[121.40034,31.230102],[121.400339,31.230137],[121.400335,31.230167],[121.400328,31.230198],[121.400319,31.230227],[121.40031,31.230253],[121.4003,31.230282],[121.400291,31.230313],[121.400281,31.230345],[121.400271,31.230376],[121.40026,31.230406],[121.400249,31.230436],[121.400239,31.230465],[121.400228,31.230495],[121.400218,31.230524],[121.400209,31.230549],[121.400201,31.230579],[121.400193,31.230609],[121.400185,31.230637],[121.400176,31.230668],[121.400167,31.230696],[121.400157,31.230727],[121.400149,31.230757],[121.400141,31.230784],[121.400132,31.230816],[121.400122,31.23085],[121.400111,31.230887],[121.4001,31.230921],[121.400088,31.230952],[121.400073,31.230982],[121.400059,31.231008],[121.400039,31.231037],[121.400015,31.231065],[121.399991,31.231088],[121.399966,31.231108],[121.399941,31.231126],[121.399913,31.231142],[121.399886,31.231154],[121.399857,31.231164],[121.399824,31.231173],[121.399792,31.231179],[121.399758,31.23118],[121.399715,31.231179],[121.399664,31.231174],[121.399618,31.231166],[121.399577,31.231156],[121.399536,31.231143],[121.399503,31.231127],[121.399472,31.231109],[121.399442,31.231088],[121.399416,31.231064],[121.399394,31.23104],[121.399377,31.231016],[121.399363,31.230991],[121.399351,31.230964],[121.399341,31.230935],[121.399334,31.230906],[121.399329,31.230876],[121.399325,31.230843],[121.399325,31.230807],[121.399331,31.230758],[121.39934,31.230708],[121.399349,31.230675],[121.399356,31.230652],[121.399365,31.230624],[121.399374,31.230597],[121.399381,31.230574],[121.399389,31.230551],[121.399398,31.230523],[121.399407,31.230494],[121.399415,31.230468],[121.399422,31.230443],[121.399431,31.230412],[121.399439,31.230383],[121.399447,31.230357],[121.399456,31.230325],[121.399465,31.230292],[121.399476,31.230252],[121.399487,31.230215],[121.399496,31.230185],[121.399505,31.230157],[121.399512,31.230132],[121.399521,31.230102],[121.39953,31.230076],[121.399537,31.230054],[121.399545,31.230032],[121.399552,31.23001],[121.399561,31.229987],[121.399572,31.229959],[121.399583,31.229934],[121.399595,31.229913],[121.399617,31.229883],[121.399647,31.229851],[121.399679,31.229824],[121.399717,31.229798],[121.399753,31.229778],[121.399787,31.229764],[121.399825,31.229753],[121.399864,31.229744],[121.3999,31.229738],[121.399936,31.229733],[121.399969,31.229731],[121.399997,31.229733],[121.40003,31.229738],[121.400062,31.229746],[121.400095,31.229758],[121.400125,31.229771],[121.400152,31.229785],[121.400179,31.229803],[121.400206,31.229823],[121.400234,31.229848],[121.400261,31.229879],[121.400282,31.229908],[121.4003,31.229936],[121.400317,31.229967],[121.40033,31.229997],[121.400339,31.230032],[121.400345,31.230068],[121.400346,31.230104],[121.400344,31.230144],[121.400339,31.230176],[121.400331,31.230204],[121.400322,31.230233],[121.400313,31.230262],[121.400304,31.230291],[121.400296,31.230317],[121.400287,31.230344],[121.400277,31.230374],[121.400263,31.230414],[121.400249,31.230453],[121.400238,31.230483],[121.400228,31.230511],[121.400217,31.23054],[121.400205,31.230575],[121.400194,31.230608],[121.400184,31.230635],[121.400175,31.230662],[121.400166,31.23069],[121.400154,31.230723],[121.400144,31.230753],[121.400136,31.230778],[121.400127,31.230806],[121.400117,31.230838],[121.400108,31.230869],[121.4001,31.230893],[121.400088,31.230924],[121.400076,31.230957],[121.400063,31.230984],[121.40004,31.231022],[121.400012,31.231061],[121.399985,31.231088],[121.399955,31.231113],[121.399924,31.231134],[121.399892,31.23115],[121.399858,31.231164],[121.399824,31.231175],[121.399792,31.231181],[121.399757,31.231184],[121.399717,31.231184],[121.399678,31.231182],[121.399642,31.231176],[121.399608,31.231169],[121.399566,31.231157],[121.399525,31.231143],[121.399495,31.231128],[121.399467,31.231111],[121.399438,31.231089],[121.399414,31.231066],[121.399391,31.231041],[121.399372,31.231015],[121.399358,31.23099],[121.399347,31.230963],[121.399339,31.230937],[121.399333,31.230911],[121.399327,31.230881],[121.399323,31.23085],[121.399323,31.230817],[121.399326,31.23078],[121.399333,31.230741],[121.399342,31.230695],[121.399352,31.230655],[121.39936,31.230628],[121.399369,31.230599],[121.399378,31.230571],[121.399385,31.230547],[121.399392,31.230522],[121.399398,31.230498],[121.399405,31.230473],[121.399411,31.230446],[121.399419,31.230414],[121.399426,31.230383],[121.399432,31.230354],[121.39944,31.230322],[121.399447,31.23029],[121.399454,31.230263],[121.399462,31.230232],[121.39947,31.230202],[121.399478,31.230173],[121.399486,31.230146],[121.399494,31.230123],[121.399503,31.230096],[121.399512,31.230069],[121.399521,31.230046],[121.399531,31.230019],[121.399541,31.229994],[121.399551,31.229972],[121.399564,31.229946],[121.399577,31.229921],[121.399592,31.229899],[121.399619,31.229869],[121.399652,31.22984],[121.399681,31.229819],[121.399712,31.2298],[121.399748,31.229782],[121.399794,31.229765],[121.399838,31.229755],[121.399873,31.22975],[121.399915,31.229746],[121.399957,31.229744],[121.399996,31.229745],[121.400034,31.22975],[121.40007,31.229757],[121.4001,31.229767],[121.400127,31.229778],[121.400153,31.229792],[121.400183,31.22981],[121.400212,31.229829],[121.400236,31.229848],[121.400258,31.229871],[121.400278,31.229895],[121.400297,31.229922],[121.400312,31.229948],[121.400322,31.229973],[121.40033,31.230003],[121.400338,31.230036],[121.400342,31.230067],[121.400342,31.230102],[121.40034,31.230138],[121.400335,31.23017],[121.400328,31.2302],[121.400321,31.230228],[121.400312,31.230258],[121.400303,31.230288],[121.400296,31.230315],[121.400288,31.230344],[121.40028,31.230375],[121.40027,31.230409],[121.400259,31.230443],[121.400248,31.230476],[121.400233,31.230514],[121.400219,31.230552],[121.400208,31.230583],[121.400198,31.230614],[121.400186,31.230648],[121.400173,31.230682],[121.400161,31.230714],[121.400149,31.230747],[121.400139,31.230777],[121.400129,31.230806],[121.400119,31.230838],[121.400109,31.23087],[121.400099,31.230899],[121.400088,31.230932],[121.400076,31.230963],[121.400063,31.23099],[121.400045,31.23102],[121.400018,31.231056],[121.399988,31.231088],[121.399958,31.231112],[121.399926,31.231133],[121.399893,31.231148],[121.399859,31.231161],[121.399825,31.231171],[121.39979,31.231177],[121.399751,31.23118],[121.399711,31.23118],[121.399676,31.231177],[121.399643,31.231173],[121.399608,31.231166],[121.399573,31.231156],[121.399538,31.231144],[121.399504,31.231129],[121.399471,31.23111],[121.399436,31.231084],[121.399408,31.231058],[121.399385,31.231032],[121.399366,31.231003],[121.399352,31.230972],[121.399341,31.23094],[121.399333,31.23091],[121.399327,31.23088],[121.399325,31.230848],[121.399326,31.230817],[121.399329,31.230789],[121.399333,31.230757],[121.399339,31.230722],[121.399344,31.23069],[121.399349,31.230662],[121.399356,31.230632],[121.399364,31.2306],[121.39937,31.230565],[121.399376,31.23053],[121.399382,31.2305],[121.399392,31.23047],[121.399404,31.230436],[121.399415,31.230403],[121.399423,31.230373],[121.399431,31.230343],[121.399438,31.230313],[121.399445,31.230283],[121.399454,31.230253],[121.399464,31.230222],[121.399474,31.230194],[121.399484,31.230165],[121.399495,31.230137],[121.399505,31.230112],[121.399515,31.230086],[121.399525,31.230061],[121.399534,31.230033],[121.399544,31.230006],[121.399555,31.229981],[121.399568,31.229955],[121.399581,31.229931],[121.399593,31.229909],[121.39961,31.229885],[121.399631,31.229863],[121.399653,31.229842],[121.399676,31.229823],[121.399701,31.229804],[121.399726,31.229788],[121.39975,31.229778],[121.399781,31.229769],[121.399817,31.229763],[121.399854,31.229759],[121.399897,31.229756],[121.399951,31.229756],[121.4,31.229758],[121.400038,31.229765],[121.400079,31.229775],[121.400117,31.229786],[121.400151,31.229801],[121.400186,31.229821],[121.400219,31.229842],[121.400247,31.229863],[121.400273,31.229886],[121.400297,31.229914],[121.400314,31.229943],[121.400325,31.229971],[121.400333,31.230004],[121.400337,31.230038],[121.400337,31.230071],[121.400336,31.230107],[121.400336,31.230145],[121.400331,31.230179],[121.400324,31.230205],[121.400318,31.230229],[121.400311,31.230257],[121.400303,31.230286],[121.400296,31.230311],[121.400288,31.230341],[121.40028,31.230369],[121.400273,31.230395],[121.400263,31.230426],[121.400254,31.230456],[121.400245,31.230484],[121.400235,31.230516],[121.400226,31.230547],[121.400218,31.230573],[121.400208,31.230601],[121.400196,31.230639],[121.400181,31.230683],[121.400167,31.230724],[121.400156,31.230756],[121.400147,31.230785],[121.400136,31.230818],[121.400124,31.230851],[121.400114,31.230878],[121.400102,31.23091],[121.400091,31.23094],[121.40008,31.230966],[121.400067,31.230995],[121.400053,31.23102],[121.400038,31.231041],[121.40001,31.231071],[121.399973,31.231103],[121.399942,31.231123],[121.399915,31.231136],[121.399887,31.231147],[121.399857,31.231157],[121.399823,31.231166],[121.399787,31.231173],[121.39975,31.231178],[121.399709,31.23118],[121.399671,31.231178],[121.399638,31.231174],[121.399605,31.231166],[121.399573,31.231155],[121.399537,31.231141],[121.399502,31.231124],[121.399473,31.231107],[121.399443,31.231087],[121.399417,31.231066],[121.399397,31.231046],[121.39938,31.231025],[121.399365,31.231],[121.39935,31.230965],[121.399336,31.23093],[121.399328,31.230899],[121.399321,31.230864],[121.399317,31.230828],[121.399316,31.230793],[121.399317,31.230758],[121.399323,31.230725],[121.399329,31.230694],[121.399335,31.230667],[121.399343,31.230637],[121.399351,31.230607],[121.399359,31.230578],[121.399369,31.230547],[121.399378,31.230518],[121.399388,31.230491],[121.399398,31.230462],[121.39941,31.230427],[121.399421,31.230394],[121.399428,31.230367],[121.399435,31.23034],[121.399443,31.230308],[121.399452,31.230277],[121.399461,31.230248],[121.399471,31.230217],[121.399481,31.230187],[121.39949,31.23016],[121.3995,31.23013],[121.399511,31.230102],[121.399521,31.230076],[121.399532,31.23005],[121.399542,31.230024],[121.399552,31.229999],[121.399564,31.229971],[121.399577,31.229944],[121.399592,31.229919],[121.399609,31.229893],[121.399626,31.22987],[121.399648,31.229847],[121.399672,31.229823],[121.399696,31.229804],[121.399725,31.229785],[121.399756,31.229771],[121.399787,31.229761],[121.399823,31.229752],[121.39986,31.229745],[121.399895,31.229741],[121.399937,31.229739],[121.399975,31.229741],[121.400006,31.229744],[121.400036,31.229751],[121.40007,31.229763],[121.400103,31.229774],[121.400135,31.229787],[121.400167,31.229804],[121.400196,31.229824],[121.400224,31.229845],[121.40025,31.229869],[121.400274,31.229894],[121.400296,31.229922],[121.400313,31.229949],[121.400328,31.229979],[121.400339,31.23001],[121.400345,31.23004],[121.400348,31.230074],[121.400348,31.230107],[121.400345,31.230139],[121.400338,31.23017],[121.40033,31.230202],[121.400317,31.230238],[121.400303,31.230276],[121.400293,31.230308],[121.400285,31.230337],[121.400278,31.230367],[121.400269,31.2304],[121.400261,31.230429],[121.400252,31.230459],[121.400242,31.23049],[121.400234,31.230519],[121.400225,31.230547],[121.400215,31.230577],[121.400205,31.23061],[121.400194,31.230643],[121.400182,31.23068],[121.400169,31.230715],[121.400159,31.230746],[121.400151,31.230774],[121.400144,31.230801],[121.400136,31.230829],[121.400125,31.230859],[121.400113,31.23089],[121.4001,31.230918],[121.400087,31.230948],[121.400073,31.230979],[121.400058,31.231007],[121.400043,31.231033],[121.400022,31.23106],[121.399996,31.231087],[121.399971,31.23111],[121.399941,31.231129],[121.399909,31.231146],[121.399877,31.231158],[121.39984,31.231168],[121.399803,31.231176],[121.399757,31.23118],[121.39971,31.231182],[121.399672,31.231179],[121.399635,31.231173],[121.399603,31.231164],[121.399568,31.231151],[121.399531,31.231135],[121.399499,31.23112],[121.399471,31.231102],[121.399445,31.231082],[121.399423,31.231061],[121.399405,31.23104],[121.399385,31.231015],[121.399366,31.230986],[121.399352,31.230957],[121.399341,31.230929],[121.399333,31.230896],[121.399328,31.230862],[121.399325,31.230821],[121.399324,31.230781],[121.399328,31.230748],[121.399335,31.230718],[121.39934,31.230693],[121.399348,31.230663],[121.399356,31.230633],[121.399365,31.230602],[121.399373,31.230572],[121.399381,31.230546],[121.399388,31.230522],[121.399396,31.230494],[121.399404,31.230464],[121.399412,31.230434],[121.399421,31.230403],[121.399427,31.230377],[121.399435,31.230348],[121.399445,31.23031],[121.399455,31.230275],[121.399464,31.230243],[121.399473,31.230212],[121.399481,31.230186],[121.399491,31.230156],[121.399501,31.230126],[121.39951,31.230101],[121.399521,31.230072],[121.399533,31.230041],[121.399543,31.230016],[121.399553,31.229992],[121.399561,31.229971],[121.399571,31.229947],[121.399588,31.229914],[121.399611,31.22988],[121.399637,31.22985],[121.399664,31.229826],[121.399694,31.229805],[121.399726,31.229788],[121.399754,31.229775],[121.399788,31.229763],[121.399824,31.229753],[121.399858,31.229746],[121.399895,31.229742],[121.399933,31.229741],[121.399965,31.229744],[121.400001,31.22975],[121.400035,31.229757],[121.400069,31.229766],[121.400107,31.229779],[121.40014,31.229793],[121.400173,31.229811],[121.400205,31.22983],[121.400232,31.229849],[121.400258,31.229872],[121.400281,31.229898],[121.400301,31.229926],[121.400317,31.229956],[121.40033,31.229984],[121.40034,31.230015],[121.400345,31.230048],[121.400347,31.230078],[121.400346,31.230109],[121.400343,31.230143],[121.400337,31.230173],[121.40033,31.230203],[121.40032,31.230233],[121.40031,31.230262],[121.400302,31.230293],[121.400293,31.230325],[121.400286,31.230356],[121.400277,31.230388],[121.400269,31.23042],[121.400261,31.230452],[121.400251,31.230485],[121.400241,31.230514],[121.400228,31.230545],[121.400215,31.230576],[121.400204,31.230605],[121.400194,31.230631],[121.400184,31.230659],[121.400174,31.23069],[121.400164,31.230716],[121.400155,31.230745],[121.400147,31.230775],[121.40014,31.230803],[121.400132,31.230835],[121.400121,31.230867],[121.40011,31.230897],[121.400099,31.230928],[121.400088,31.230957],[121.400075,31.230987],[121.400061,31.231016],[121.400043,31.231042],[121.400018,31.231068],[121.39999,31.231094],[121.399963,31.231114],[121.399934,31.231132],[121.399901,31.231148],[121.399866,31.231161],[121.39983,31.23117],[121.39979,31.231178],[121.39975,31.231182],[121.399713,31.231182],[121.399675,31.23118],[121.399638,31.231173],[121.399605,31.231164],[121.39957,31.231151],[121.399525,31.231132],[121.399483,31.231113],[121.399455,31.231095],[121.399429,31.23107],[121.399405,31.231043],[121.399383,31.231019],[121.399362,31.23099],[121.399345,31.230963],[121.399334,31.230935],[121.399326,31.230902],[121.399321,31.230871],[121.399319,31.230834],[121.399319,31.230795],[121.399321,31.230761],[121.399325,31.230728],[121.399331,31.230696],[121.399338,31.230668],[121.399348,31.230632],[121.39936,31.230594],[121.399372,31.23056],[121.399383,31.230529],[121.399393,31.230502],[121.399403,31.230471],[121.399413,31.230439],[121.399421,31.230409],[121.39943,31.230376],[121.399437,31.230342],[121.399444,31.230312],[121.399451,31.230278],[121.399459,31.230246],[121.399467,31.230219],[121.399477,31.23019],[121.399487,31.230161],[121.399497,31.230134],[121.399507,31.230107],[121.399518,31.230079],[121.39953,31.230047],[121.399543,31.230016],[121.399554,31.229988],[121.399564,31.229959],[121.399576,31.229932],[121.39959,31.229908],[121.39961,31.22988],[121.399634,31.229854],[121.39966,31.229832],[121.399692,31.229811],[121.399726,31.229791],[121.399756,31.229775],[121.399788,31.229762],[121.399825,31.229751],[121.399862,31.229743],[121.399897,31.22974],[121.39993,31.229739],[121.399964,31.229741],[121.400001,31.229746],[121.400039,31.229753],[121.400073,31.229762],[121.400109,31.229775],[121.400143,31.229789],[121.400175,31.229805],[121.400208,31.229824],[121.400238,31.229846],[121.400261,31.229868],[121.400283,31.229894],[121.400303,31.229924],[121.400319,31.229952],[121.400331,31.229982],[121.400339,31.230014],[121.400345,31.230045],[121.400346,31.230075],[121.400344,31.230115],[121.400341,31.230158],[121.400336,31.230189],[121.400324,31.230218],[121.40031,31.23025],[121.400297,31.230282],[121.400288,31.230314],[121.40028,31.230347],[121.400272,31.23038],[121.400266,31.230411],[121.400258,31.230443],[121.400248,31.230476],[121.400238,31.230505],[121.400227,31.230537],[121.400216,31.230569],[121.400207,31.230598],[121.400197,31.230627],[121.400185,31.230662],[121.40017,31.230702],[121.400157,31.230739],[121.400147,31.230772],[121.400137,31.230805],[121.400126,31.230839],[121.400116,31.23087],[121.400104,31.230902],[121.400091,31.230934],[121.400079,31.230963],[121.400062,31.230992],[121.400042,31.231022],[121.400022,31.231048],[121.4,31.231073],[121.399972,31.231097],[121.399941,31.23112],[121.399908,31.231139],[121.399867,31.231155],[121.399823,31.231168],[121.399784,31.231176],[121.399748,31.231179],[121.399712,31.231179],[121.399674,31.231175],[121.399635,31.231168],[121.3996,31.231159],[121.399562,31.231146],[121.399524,31.23113],[121.399492,31.231114],[121.399463,31.231095],[121.399436,31.231073],[121.399412,31.23105],[121.399391,31.231026],[121.399372,31.230999],[121.399357,31.230972],[121.399346,31.230938],[121.399337,31.2309],[121.399332,31.230863],[121.399327,31.230816],[121.399325,31.230774],[121.399329,31.23074],[121.399336,31.230709],[121.399341,31.230683],[121.399348,31.230658],[121.399357,31.230627],[121.399367,31.230595],[121.399376,31.230566],[121.399386,31.230534],[121.399396,31.230501],[121.399404,31.230473],[121.399414,31.230442],[121.399423,31.230409],[121.399435,31.230366],[121.399447,31.23032],[121.399458,31.230281],[121.399469,31.230245],[121.399478,31.230215],[121.399488,31.230182],[121.399499,31.230148],[121.399509,31.23012],[121.39952,31.230088],[121.399532,31.230057],[121.399542,31.23003],[121.399553,31.230002],[121.399564,31.229973],[121.399574,31.22995],[121.399584,31.229924],[121.399602,31.229893],[121.399628,31.229861],[121.399661,31.229831],[121.399699,31.229805],[121.399734,31.229787],[121.399765,31.229773],[121.3998,31.229762],[121.399838,31.229753],[121.399874,31.229748],[121.399914,31.229746],[121.399956,31.229746],[121.399994,31.229748],[121.400032,31.229752],[121.400072,31.22976],[121.400111,31.229772],[121.400144,31.229786],[121.400176,31.229805],[121.400208,31.229826],[121.400239,31.22985],[121.400272,31.229883],[121.400302,31.22992],[121.400322,31.229953],[121.400334,31.229983],[121.400342,31.230015],[121.400346,31.230048],[121.400348,31.230078],[121.400346,31.230112],[121.40034,31.230148],[121.400332,31.230179],[121.400322,31.230212],[121.400311,31.230245],[121.400302,31.230276],[121.400292,31.23031],[121.400282,31.230343],[121.400272,31.230375],[121.400262,31.230409],[121.400253,31.23044],[121.400243,31.230474],[121.400233,31.230508],[121.400224,31.230539],[121.400215,31.230572],[121.400204,31.230605],[121.400194,31.230635],[121.400182,31.230669],[121.40017,31.230705],[121.400159,31.230737],[121.400149,31.23077],[121.400138,31.230803],[121.400127,31.230835],[121.400113,31.23087],[121.400098,31.230907],[121.400084,31.230939],[121.400069,31.230969],[121.400053,31.230998],[121.400034,31.231027],[121.400012,31.231055],[121.399989,31.231078],[121.399962,31.2311],[121.399932,31.231121],[121.3999,31.231138],[121.399867,31.231153],[121.399832,31.231164],[121.399797,31.231173],[121.399763,31.231178],[121.399723,31.231181],[121.399682,31.23118],[121.399645,31.231176],[121.399607,31.231167],[121.399569,31.231153],[121.399535,31.231138],[121.399502,31.231121],[121.399472,31.231103],[121.39944,31.231078],[121.39941,31.231049],[121.399387,31.231022],[121.399369,31.230994],[121.399356,31.230968],[121.399344,31.230938],[121.399334,31.230903],[121.399327,31.230871],[121.399323,31.230835],[121.399321,31.230797],[121.39932,31.230757],[121.399325,31.230718],[121.399331,31.230687],[121.399338,31.230664],[121.399345,31.230638],[121.399354,31.23061],[121.399363,31.230582],[121.399372,31.230552],[121.399379,31.230526],[121.399388,31.230495],[121.399398,31.230462],[121.399405,31.230434],[121.399413,31.230407],[121.399422,31.230374],[121.399431,31.230339],[121.39944,31.230308],[121.399449,31.23028],[121.399459,31.230248],[121.399471,31.230214],[121.399481,31.230184],[121.399493,31.230151],[121.399505,31.230118],[121.399515,31.230091],[121.399525,31.230067],[121.399534,31.230043],[121.399547,31.230012],[121.399563,31.229976],[121.399575,31.229947],[121.399585,31.229924],[121.399603,31.229893],[121.399632,31.229856],[121.399662,31.229827],[121.399695,31.229803],[121.399727,31.229783],[121.399757,31.229769],[121.399794,31.229757],[121.399834,31.229748],[121.399872,31.229742],[121.399909,31.229739],[121.399948,31.229739],[121.399987,31.22974],[121.400025,31.229746],[121.400068,31.22976],[121.400106,31.229777],[121.400141,31.229796],[121.400175,31.229817],[121.400204,31.229838],[121.400233,31.229863],[121.400262,31.229892],[121.400286,31.229919],[121.400307,31.229949],[121.400323,31.229981],[121.400333,31.23001],[121.40034,31.230043],[121.400343,31.230077],[121.400343,31.230109],[121.400339,31.230145],[121.400332,31.230182],[121.400324,31.230218],[121.400313,31.230261],[121.400301,31.230306],[121.400292,31.230342],[121.400281,31.230376],[121.400269,31.23041],[121.400257,31.230442],[121.400245,31.230473],[121.400235,31.230503],[121.400225,31.230536],[121.400215,31.23057],[121.400207,31.230599],[121.400198,31.230631],[121.400187,31.230667],[121.400177,31.2307],[121.400168,31.230733],[121.400159,31.230764],[121.400151,31.230794],[121.40014,31.230828],[121.400127,31.230865],[121.400114,31.230897],[121.4001,31.230924],[121.400084,31.23095],[121.400067,31.230979],[121.400048,31.231008],[121.400028,31.231035],[121.400004,31.231063],[121.399978,31.231087],[121.399953,31.231105],[121.399924,31.231122],[121.399891,31.231139],[121.399856,31.231154],[121.399816,31.231167],[121.399776,31.231177],[121.399736,31.231182],[121.399688,31.231181],[121.399644,31.231176],[121.399604,31.231166],[121.399566,31.231151],[121.399532,31.231134],[121.399498,31.231115],[121.399466,31.231094],[121.399439,31.231073],[121.399414,31.231049],[121.399392,31.231023],[121.399376,31.230997],[121.399363,31.230973],[121.399352,31.230948],[121.399342,31.230917],[121.399333,31.230882],[121.399328,31.230849],[121.399326,31.230814],[121.399327,31.230773],[121.399332,31.230729],[121.399338,31.230695],[121.399345,31.230669],[121.399354,31.230639],[121.399364,31.230606],[121.399375,31.230575],[121.399387,31.230542],[121.399397,31.230508],[121.399406,31.230474],[121.399413,31.230441],[121.399419,31.230409],[121.399427,31.230374],[121.399435,31.230339],[121.399441,31.230309],[121.399448,31.230278],[121.399455,31.230248],[121.399466,31.230211],[121.399479,31.230171],[121.39949,31.230139],[121.3995,31.230107],[121.39951,31.230077],[121.39952,31.230048],[121.399533,31.230019],[121.399546,31.229991],[121.399561,31.229961],[121.399579,31.22993],[121.399599,31.2299],[121.399621,31.229872],[121.399647,31.229844],[121.399677,31.229818],[121.399708,31.229796],[121.399744,31.229777],[121.399782,31.229761],[121.399828,31.229748],[121.399874,31.22974],[121.399913,31.229738],[121.399955,31.22974],[121.399995,31.229743],[121.400035,31.229752],[121.400075,31.229765],[121.400109,31.22978],[121.400144,31.229798],[121.400179,31.229819],[121.400208,31.22984],[121.400238,31.229865],[121.400265,31.229891],[121.400288,31.229917],[121.400308,31.229944],[121.400323,31.229972],[121.400334,31.230003],[121.400342,31.230035],[121.400347,31.230071],[121.400348,31.230105],[121.400348,31.230134],[121.400344,31.230164],[121.400337,31.230198],[121.400329,31.230231],[121.400319,31.230266],[121.400309,31.230301],[121.4003,31.230333],[121.400287,31.230368],[121.400272,31.230404],[121.400259,31.230437],[121.400246,31.230472],[121.400233,31.230509],[121.400222,31.230543],[121.40021,31.230579],[121.400199,31.230617],[121.400187,31.230662],[121.400174,31.230708],[121.400163,31.230746],[121.400152,31.230783],[121.400142,31.230819],[121.40013,31.230857],[121.400117,31.230893],[121.400104,31.230924],[121.400086,31.230955],[121.400065,31.230986],[121.400043,31.231015],[121.400019,31.231045],[121.399992,31.231074],[121.399966,31.231098],[121.399935,31.231121],[121.3999,31.231142],[121.399862,31.23116],[121.399822,31.231173],[121.399783,31.231182],[121.399743,31.231186],[121.399699,31.231185],[121.399655,31.231179],[121.399615,31.231171],[121.399574,31.231157],[121.399531,31.231141],[121.399493,31.231122],[121.399458,31.231099],[121.399425,31.231074],[121.3994,31.23105],[121.399379,31.231025],[121.399361,31.230996],[121.399346,31.230965],[121.399332,31.230928],[121.399322,31.230889],[121.399317,31.230852],[121.399319,31.230805],[121.399326,31.230757],[121.399333,31.230717],[121.399342,31.230679],[121.399352,31.230642],[121.399361,31.230609],[121.39937,31.230574],[121.399381,31.230539],[121.399391,31.230507],[121.3994,31.230472],[121.399409,31.230435],[121.399417,31.230401],[121.399426,31.230362],[121.399436,31.23032],[121.399445,31.230284],[121.399453,31.230247],[121.399461,31.230212],[121.399475,31.230173],[121.399491,31.230133],[121.399505,31.230098],[121.399519,31.230064],[121.399531,31.230031],[121.399548,31.22999],[121.399569,31.229953],[121.399587,31.229924],[121.399609,31.229894],[121.399632,31.229864],[121.399655,31.229839],[121.399683,31.229814],[121.399716,31.229792],[121.399749,31.229774],[121.399789,31.229759],[121.399837,31.229746],[121.399886,31.229739],[121.399948,31.229736],[121.400008,31.229734],[121.400046,31.229739],[121.400081,31.229754],[121.400117,31.229775],[121.400151,31.229794],[121.400186,31.229817],[121.400219,31.229842],[121.400247,31.229867],[121.400274,31.229899],[121.400298,31.229934],[121.400314,31.229968],[121.400325,31.230003],[121.400332,31.230039],[121.400335,31.230075],[121.400335,31.230111],[121.400331,31.230149],[121.400322,31.230195],[121.40031,31.230245],[121.4003,31.230289],[121.400288,31.230329],[121.400277,31.23037],[121.400265,31.23041],[121.400253,31.230446],[121.400241,31.230484],[121.400228,31.230522],[121.400217,31.230555],[121.400204,31.23059],[121.400191,31.230626],[121.400176,31.230664],[121.400163,31.230703],[121.400151,31.230738],[121.400141,31.230776],[121.400131,31.230816],[121.400122,31.230853],[121.400111,31.23089],[121.400098,31.230926],[121.400084,31.230957],[121.400064,31.230991],[121.400041,31.231024],[121.400016,31.231055],[121.399985,31.231086],[121.399948,31.231115],[121.399911,31.23114],[121.399872,31.23116],[121.39983,31.231176],[121.399791,31.231186],[121.399748,31.231192],[121.399704,31.231193],[121.399665,31.231189],[121.399624,31.231181],[121.399583,31.231169],[121.399534,31.231149],[121.399483,31.231123],[121.399443,31.231098],[121.399408,31.231069],[121.399381,31.23104],[121.399356,31.231007],[121.399336,31.230972],[121.399321,31.230937],[121.399312,31.230901],[121.39931,31.230871],[121.399313,31.230836],[121.399321,31.230796],[121.399329,31.230759],[121.399338,31.230719],[121.399348,31.230682],[121.399357,31.230647],[121.399365,31.230612],[121.399374,31.230577],[121.399387,31.230542],[121.399398,31.230509],[121.399408,31.230473],[121.399417,31.230436],[121.399426,31.230401],[121.399434,31.230362],[121.399441,31.230322],[121.399447,31.230283],[121.399453,31.230244],[121.39946,31.230209],[121.399471,31.230172],[121.399483,31.230134],[121.399493,31.230099],[121.399503,31.230062],[121.399513,31.230024],[121.399521,31.22999],[121.399529,31.229956],[121.399545,31.22992],[121.399565,31.22989],[121.399585,31.229865],[121.399595,31.229852]]}}]}