{"type":"FeatureCollection","features":[{"type":"Feature","properties":{"id":"2026-03-20_running_21","type":"running","date":"2026-03-20"},"geometry":{"type":"LineString","coordinates":[[121.399592,31.229986],[121.3996,31.229947],[121.399604,31.229936],[121.399615,31.229913],[121.39963,31.229893],[121.399649,31.229873],[121.39967,31.229853],[121.399695,31.229833],[121.399724,31.229811],[121.399754,31.229791],[121.399786,31.229778],[121.399816,31.22977],[121.399847,31.229764],[121.399881,31.229757],[121.399914,31.229753],[121.399947,31.229751],[121.399978,31.229752],[121.40001,31.229755],[121.400041,31.229759],[121.400072,31.229766],[121.4001,31.229775],[121.40013,31.229788],[121.400159,31.229803],[121.400188,31.229821],[121.400215,31.229842],[121.400244,31.229868],[121.400269,31.229896],[121.40029,31.229921],[121.400306,31.229944],[121.400319,31.229966],[121.400331,31.229992],[121.400339,31.230018],[121.400346,31.230046],[121.400348,31.230073],[121.400348,31.230102],[121.400345,31.230131],[121.40034,31.230159],[121.400334,31.230185],[121.400326,31.230211],[121.400316,31.230237],[121.400305,31.230264],[121.400294,31.230292],[121.400283,31.230325],[121.400273,31.230356],[121.400264,31.230388],[121.400256,31.230415],[121.400248,31.230442],[121.400239,31.23047],[121.40023,31.230497],[121.40022,31.230526],[121.400211,31.230555],[121.400203,31.230583],[121.400194,31.23061],[121.400186,31.230636],[121.400179,31.230662],[121.400171,31.230686],[121.400164,31.230712],[121.400155,31.230741],[121.400146,31.230769],[121.400136,31.230802],[121.400126,31.230834],[121.400116,31.230864],[121.400107,31.230892],[121.400097,31.230918],[121.400086,31.230944],[121.400075,31.230968],[121.400062,31.230994],[121.400047,31.231018],[121.40003,31.231043],[121.400009,31.231065],[121.399987,31.231085],[121.399963,31.231104],[121.399938,31.23112],[121.399908,31.231136],[121.399877,31.23115],[121.399844,31.231163],[121.399807,31.231174],[121.399771,31.231182],[121.399734,31.231188],[121.399703,31.231189],[121.399671,31.231187],[121.399639,31.231183],[121.399608,31.231177],[121.399577,31.231169],[121.399549,31.23116],[121.39952,31.231148],[121.399493,31.231135],[121.399466,31.231121],[121.399441,31.231104],[121.399417,31.231085],[121.399397,31.231063],[121.39938,31.23104],[121.399365,31.231014],[121.399351,31.230984],[121.399338,31.230954],[121.399328,31.230926],[121.399322,31.230901],[121.399319,31.230874],[121.399316,31.230847],[121.399313,31.230818],[121.399313,31.23079],[121.399314,31.230762],[121.399318,31.230732],[121.399325,31.230704],[121.399332,31.230678],[121.399339,31.230655],[121.399346,31.230632],[121.399355,31.230606],[121.399365,31.230579],[121.399375,31.230552],[121.399388,31.230521],[121.399399,31.230492],[121.39941,31.230461],[121.399418,31.230435],[121.399426,31.230408],[121.399434,31.23038],[121.399443,31.230353],[121.399452,31.230326],[121.399461,31.2303],[121.39947,31.230272],[121.399478,31.230245],[121.399486,31.230218],[121.399495,31.230191],[121.399503,31.230167],[121.39951,31.230139],[121.399517,31.230112],[121.399525,31.230082],[121.399534,31.23005],[121.399544,31.230019],[121.399554,31.229989],[121.399565,31.229964],[121.399579,31.229939],[121.399596,31.229916],[121.399614,31.229894],[121.399634,31.229873],[121.399656,31.229852],[121.39968,31.229832],[121.399703,31.229812],[121.399726,31.229796],[121.39975,31.229783],[121.399776,31.229773],[121.399805,31.229765],[121.399837,31.229759],[121.39987,31.229754],[121.399906,31.22975],[121.399942,31.229749],[121.399978,31.22975],[121.40001,31.229754],[121.400042,31.229759],[121.400075,31.229767],[121.400105,31.229777],[121.400132,31.229789],[121.400159,31.229803],[121.400185,31.229818],[121.400208,31.229835],[121.400227,31.229854],[121.400245,31.229875],[121.400263,31.229897],[121.400279,31.229919],[121.400293,31.229942],[121.400305,31.229966],[121.400316,31.229992],[121.400326,31.23002],[121.400334,31.230048],[121.400339,31.230077],[121.400339,31.230107],[121.400337,31.230136],[121.400333,31.230165],[121.400327,31.230191],[121.40032,31.230217],[121.400312,31.230243],[121.400302,31.230269],[121.400292,31.230296],[121.400281,31.230325],[121.400272,31.230354],[121.400264,31.230384],[121.400255,31.230411],[121.400246,31.230441],[121.400236,31.23047],[121.400224,31.230503],[121.400213,31.230534],[121.400202,31.230564],[121.400193,31.230591],[121.400184,31.230619],[121.400175,31.230648],[121.400167,31.230678],[121.400158,31.230708],[121.400149,31.230737],[121.40014,31.230767],[121.400131,31.230794],[121.40012,31.230824],[121.400111,31.230853],[121.400102,31.230881],[121.400092,31.230908],[121.400083,31.230934],[121.400071,31.230961],[121.400057,31.23099],[121.40004,31.231018],[121.400021,31.231043],[121.400001,31.231065],[121.399979,31.231086],[121.399954,31.231106],[121.399927,31.231123],[121.399898,31.23114],[121.399867,31.231154],[121.399836,31.231165],[121.399802,31.231174],[121.399768,31.231181],[121.399735,31.231184],[121.399701,31.231185],[121.399667,31.231184],[121.399631,31.23118],[121.399598,31.231172],[121.399559,31.231161],[121.399523,31.231148],[121.399489,31.231134],[121.399462,31.231118],[121.399436,31.231101],[121.399412,31.231082],[121.399392,31.231061],[121.399374,31.231038],[121.399357,31.231013],[121.399343,31.230987],[121.399331,31.230959],[121.399322,31.230932],[121.399315,31.230904],[121.399311,31.230876],[121.399308,31.230846],[121.399307,31.230816],[121.399308,31.230787],[121.399313,31.230755],[121.39932,31.230723],[121.399329,31.230692],[121.399338,31.230664],[121.399349,31.230635],[121.399359,31.230606],[121.39937,31.230576],[121.39938,31.230548],[121.39939,31.230519],[121.3994,31.230491],[121.399409,31.230464],[121.399418,31.230436],[121.399427,31.230408],[121.399436,31.23038],[121.399445,31.230353],[121.399454,31.230327],[121.399463,31.230299],[121.399473,31.230269],[121.399483,31.230239],[121.399491,31.23021],[121.399499,31.230183],[121.399506,31.230157],[121.399515,31.230129],[121.399523,31.230101],[121.399532,31.230072],[121.399541,31.230044],[121.39955,31.230016],[121.399561,31.229987],[121.399572,31.229961],[121.399585,31.229936],[121.3996,31.229914],[121.399618,31.229893],[121.399637,31.229873],[121.399659,31.229853],[121.399686,31.22983],[121.399714,31.229809],[121.399745,31.229789],[121.399773,31.229776],[121.399803,31.229766],[121.399836,31.229758],[121.39987,31.229753],[121.399906,31.229751],[121.399941,31.229751],[121.399977,31.229754],[121.400014,31.22976],[121.40005,31.229768],[121.400086,31.229778],[121.40012,31.229792],[121.400153,31.229808],[121.400184,31.229827],[121.400212,31.229846],[121.400236,31.229869],[121.400258,31.229894],[121.400277,31.229921],[121.400294,31.229946],[121.400308,31.229972],[121.400318,31.229999],[121.400325,31.230026],[121.400331,31.230054],[121.400334,31.230083],[121.400334,31.230114],[121.400331,31.230145],[121.400326,31.230175],[121.400319,31.230205],[121.400309,31.230236],[121.400298,31.230267],[121.400288,31.230296],[121.400277,31.230327],[121.400266,31.23036],[121.400255,31.230393],[121.400246,31.230425],[121.400237,31.230454],[121.400227,31.230483],[121.400218,31.230513],[121.400208,31.230541],[121.400199,31.230568],[121.40019,31.230596],[121.400181,31.230623],[121.400172,31.230651],[121.400164,31.230679],[121.400156,31.230707],[121.400147,31.230736],[121.400138,31.230768],[121.400128,31.2308],[121.400118,31.230832],[121.400107,31.230866],[121.400096,31.2309],[121.400083,31.230933],[121.400069,31.230963],[121.400054,31.230991],[121.400038,31.231017],[121.40002,31.23104],[121.4,31.231062],[121.399978,31.231084],[121.399955,31.231104],[121.39993,31.231123],[121.399902,31.231139],[121.399871,31.231154],[121.399838,31.231166],[121.399805,31.231175],[121.399771,31.231181],[121.399737,31.231185],[121.3997,31.231186],[121.399664,31.231185],[121.399628,31.231181],[121.399596,31.231174],[121.399561,31.231163],[121.399528,31.231151],[121.399497,31.231136],[121.39947,31.23112],[121.399444,31.231102],[121.39942,31.231083],[121.399398,31.23106],[121.399378,31.231036],[121.39936,31.23101],[121.399346,31.230983],[121.399333,31.230954],[121.399323,31.230924],[121.399315,31.230894],[121.399311,31.230861],[121.399309,31.230827],[121.39931,31.230794],[121.399314,31.230763],[121.399319,31.230734],[121.399326,31.230707],[121.399335,31.23068],[121.399343,31.230655],[121.399353,31.230628],[121.399361,31.2306],[121.399369,31.230571],[121.399377,31.23054],[121.399386,31.230508],[121.399394,31.230479],[121.399402,31.230454],[121.399412,31.230428],[121.399422,31.230401],[121.399434,31.230368],[121.399444,31.230339],[121.399454,31.23031],[121.399462,31.230286],[121.399471,31.230259],[121.399481,31.230232],[121.39949,31.230205],[121.399499,31.230178],[121.399509,31.23015],[121.399518,31.230122],[121.399528,31.230095],[121.399538,31.230068],[121.399549,31.230042],[121.399561,31.230015],[121.399574,31.229989],[121.399588,31.229962],[121.399604,31.229936],[121.399624,31.229907],[121.399645,31.229881],[121.399667,31.229855],[121.399687,31.229834],[121.399708,31.229815],[121.39973,31.229797],[121.399754,31.229781],[121.39978,31.229767],[121.399814,31.229758],[121.399852,31.229752],[121.399892,31.229749],[121.399927,31.229748],[121.399959,31.229749],[121.399991,31.229753],[121.400022,31.229759],[121.400055,31.229767],[121.400089,31.229778],[121.400124,31.229794],[121.400158,31.229812],[121.400189,31.229832],[121.400215,31.229854],[121.400239,31.229878],[121.40026,31.229904],[121.40028,31.229929],[121.400297,31.229952],[121.400309,31.229976],[121.400316,31.230002],[121.400321,31.23003],[121.400325,31.230059],[121.400328,31.230088],[121.400328,31.230116],[121.400325,31.230145],[121.40032,31.230173],[121.400311,31.230203],[121.400301,31.230236],[121.40029,31.23027],[121.400279,31.230302],[121.400269,31.230332],[121.40026,31.230362],[121.400252,31.230391],[121.400243,31.230423],[121.400236,31.23045],[121.400228,31.230476],[121.400219,31.2305],[121.400211,31.230526],[121.400202,31.230553],[121.400193,31.230578],[121.400184,31.230607],[121.400174,31.230637],[121.400164,31.230667],[121.400153,31.230698],[121.400142,31.230733],[121.400129,31.230769],[121.400118,31.2308],[121.400109,31.230828],[121.4001,31.230852],[121.400089,31.23088],[121.400077,31.230906],[121.400064,31.230935],[121.400051,31.23096],[121.400037,31.230985],[121.400022,31.23101],[121.400006,31.231033],[121.399989,31.231056],[121.399971,31.231078],[121.399952,31.231098],[121.39993,31.231119],[121.399905,31.231138],[121.39987,31.231157],[121.39983,31.231173],[121.399785,31.231183],[121.399748,31.231189],[121.399712,31.231192],[121.399678,31.231191],[121.399645,31.231188],[121.399614,31.231182],[121.399583,31.231174],[121.399554,31.231164],[121.399524,31.231152],[121.399498,31.231139],[121.399471,31.231123],[121.399446,31.231106],[121.399423,31.231086],[121.3994,31.231063],[121.399379,31.231038],[121.399358,31.231007],[121.399341,31.230977],[121.399326,31.230945],[121.399317,31.230917],[121.39931,31.230887],[121.399307,31.230857],[121.399306,31.230827],[121.399307,31.230796],[121.399311,31.230765],[121.399316,31.230735],[121.399323,31.230707],[121.399331,31.230679],[121.39934,31.230651],[121.399349,31.230622],[121.399358,31.230592],[121.399368,31.23056],[121.399377,31.230526],[121.399386,31.230494],[121.399394,31.230466],[121.399402,31.230444],[121.399411,31.230418],[121.39942,31.230392],[121.399429,31.230366],[121.399439,31.23034],[121.399448,31.230314],[121.399457,31.230289],[121.399465,31.230267],[121.399473,31.230244],[121.399482,31.230221],[121.399491,31.230195],[121.399501,31.23017],[121.39951,31.230144],[121.39952,31.230117],[121.39953,31.230091],[121.39954,31.230065],[121.399551,31.230039],[121.399562,31.230013],[121.399574,31.229987],[121.399586,31.229964],[121.399599,31.229939],[121.399614,31.229915],[121.399629,31.229891],[121.399645,31.229869],[121.399662,31.229848],[121.39968,31.229828],[121.399699,31.229809],[121.399724,31.229793],[121.399753,31.229779],[121.399786,31.229769],[121.399819,31.229761],[121.399852,31.229755],[121.399887,31.229751],[121.39992,31.22975],[121.399954,31.22975],[121.399987,31.229753],[121.400022,31.229759],[121.400056,31.229767],[121.400089,31.229778],[121.400121,31.229791],[121.40015,31.229805],[121.400177,31.229822],[121.4002,31.22984],[121.400222,31.22986],[121.400241,31.229882],[121.400259,31.229907],[121.400276,31.229932],[121.400291,31.229959],[121.400303,31.229985],[121.400312,31.230012],[121.400317,31.23004],[121.400317,31.230069],[121.400316,31.230105],[121.400316,31.230142],[121.400313,31.230179],[121.400305,31.230211],[121.400295,31.230246],[121.400285,31.230281],[121.400274,31.230319],[121.400264,31.230353],[121.400255,31.23038],[121.400248,31.230402],[121.400241,31.230426],[121.400233,31.230451],[121.400223,31.230481],[121.400213,31.230512],[121.400204,31.230543],[121.400194,31.230572],[121.400184,31.230606],[121.400172,31.230643],[121.400159,31.23068],[121.400148,31.230714],[121.400138,31.230743],[121.400128,31.230772],[121.400118,31.2308],[121.400107,31.230828],[121.400096,31.230856],[121.400084,31.230883],[121.40007,31.230913],[121.400057,31.230939],[121.400043,31.230965],[121.40003,31.230988],[121.400014,31.231013],[121.399996,31.231037],[121.399978,31.23106],[121.399959,31.231083],[121.399939,31.231104],[121.399918,31.231124],[121.399896,31.231142],[121.39987,31.231158],[121.399843,31.231173],[121.399804,31.231182],[121.399762,31.231188],[121.399717,31.23119],[121.39968,31.231189],[121.399647,31.231185],[121.399616,31.23118],[121.399584,31.231171],[121.399553,31.231161],[121.399524,31.23115],[121.399496,31.231136],[121.39947,31.231121],[121.399445,31.231103],[121.399423,31.231084],[121.399399,31.231058],[121.399376,31.23103],[121.399354,31.230997],[121.399339,31.230967],[121.399326,31.230934],[121.399317,31.230901],[121.399309,31.230867],[121.399305,31.230832],[121.399304,31.230801],[121.399306,31.230769],[121.399312,31.230738],[121.39932,31.230708],[121.399329,31.230679],[121.399338,31.230651],[121.399349,31.230621],[121.399359,31.230592],[121.399369,31.230561],[121.399379,31.230529],[121.399389,31.230498],[121.399398,31.230469],[121.399407,31.230443],[121.399416,31.230416],[121.399426,31.23039],[121.399436,31.230363],[121.399445,31.230336],[121.399456,31.230307],[121.399465,31.230278],[121.399474,31.230249],[121.399483,31.230221],[121.399492,31.230192],[121.399502,31.230163],[121.399511,31.230135],[121.399521,31.230105],[121.399533,31.230074],[121.399545,31.23004],[121.399556,31.230007],[121.399568,31.229976],[121.39958,31.229951],[121.399595,31.229927],[121.399613,31.229903],[121.399633,31.229879],[121.399653,31.229856],[121.399675,31.229835],[121.399699,31.229815],[121.399724,31.229798],[121.399751,31.229783],[121.39978,31.229771],[121.399812,31.229762],[121.399844,31.229756],[121.399877,31.229753],[121.399912,31.229752],[121.399952,31.229754],[121.399994,31.229759],[121.400032,31.229766],[121.400066,31.229775],[121.400098,31.229787],[121.400132,31.229801],[121.400163,31.229818],[121.400194,31.229837],[121.400219,31.229858],[121.400241,31.22988],[121.400259,31.229905],[121.400276,31.22993],[121.400291,31.229957],[121.400304,31.229984],[121.400314,31.230012],[121.400321,31.23004],[121.400323,31.230068],[121.400324,31.230103],[121.400323,31.230139],[121.40032,31.230175],[121.400314,31.230205],[121.400304,31.230238],[121.400294,31.230272],[121.400284,31.230307],[121.400275,31.230342],[121.400265,31.230375],[121.400256,31.230404],[121.400248,31.230427],[121.400241,31.23045],[121.400233,31.230474],[121.400223,31.230502],[121.400213,31.230532],[121.400203,31.230562],[121.400192,31.230593],[121.40018,31.230628],[121.400169,31.230663],[121.400158,31.230695],[121.400147,31.230726],[121.400136,31.230756],[121.400126,31.230786],[121.400116,31.230812],[121.400106,31.230838],[121.400098,31.230862],[121.400087,31.230885],[121.400076,31.230907],[121.400062,31.23093],[121.400048,31.230955],[121.400032,31.230983],[121.400015,31.231009],[121.399996,31.231035],[121.399976,31.23106],[121.399953,31.231087],[121.399928,31.231112],[121.399901,31.231135],[121.39987,31.231154],[121.399832,31.231171],[121.399789,31.231181],[121.399749,31.231186],[121.39971,31.231188],[121.399677,31.231186],[121.399647,31.231182],[121.399617,31.231177],[121.399585,31.231169],[121.399551,31.231159],[121.399519,31.231146],[121.399488,31.231132],[121.399458,31.231114],[121.399431,31.231093],[121.399403,31.231066],[121.399378,31.231037],[121.399356,31.231007],[121.399341,31.230979],[121.399329,31.230951],[121.399321,31.230923],[121.399314,31.230894],[121.39931,31.230865],[121.399307,31.230835],[121.399307,31.230808],[121.39931,31.230779],[121.399316,31.230749],[121.399322,31.230719],[121.399331,31.230687],[121.399341,31.230655],[121.399351,31.23062],[121.399361,31.230587],[121.399372,31.230547],[121.399383,31.230512],[121.399393,31.230481],[121.399402,31.230455],[121.399411,31.230429],[121.39942,31.230403],[121.399428,31.230376],[121.399437,31.23035],[121.399446,31.230324],[121.399455,31.230298],[121.399464,31.230271],[121.399473,31.230242],[121.399481,31.230217],[121.39949,31.23019],[121.3995,31.230163],[121.399513,31.230128],[121.399525,31.230095],[121.399539,31.230061],[121.39955,31.230036],[121.399561,31.230012],[121.399574,31.229988],[121.399589,31.229964],[121.399603,31.229933],[121.39962,31.229906],[121.399638,31.229879],[121.39966,31.229858],[121.39968,31.229836],[121.3997,31.229817],[121.399717,31.2298],[121.399744,31.229785],[121.399779,31.229773],[121.399821,31.229763],[121.399865,31.229757],[121.399911,31.229755],[121.399956,31.229755],[121.399995,31.229757],[121.40003,31.229762],[121.400064,31.229768],[121.400098,31.229778],[121.400129,31.229788],[121.400158,31.229802],[121.400183,31.229817],[121.400206,31.229835],[121.400228,31.229856],[121.400249,31.22988],[121.400268,31.229904],[121.400284,31.22993],[121.400299,31.229957],[121.40031,31.229986],[121.400318,31.230014],[121.400324,31.230044],[121.40033,31.230074],[121.400334,31.230104],[121.400331,31.230133],[121.400325,31.230163],[121.400316,31.230194],[121.400308,31.230225],[121.400298,31.230259],[121.400288,31.230292],[121.400278,31.230329],[121.400269,31.230362],[121.400261,31.230393],[121.400252,31.230421],[121.400243,31.230448],[121.400235,31.230475],[121.400226,31.230502],[121.400217,31.230529],[121.400205,31.230564],[121.400194,31.230597],[121.400182,31.230632],[121.400173,31.230661],[121.400163,31.230691],[121.400153,31.230719],[121.400144,31.230747],[121.400136,31.230772],[121.400126,31.230798],[121.400116,31.230825],[121.400104,31.230852],[121.400092,31.230879],[121.400079,31.230906],[121.400065,31.230933],[121.400051,31.230957],[121.400034,31.230983],[121.400017,31.231007],[121.399994,31.231036],[121.39997,31.231064],[121.399946,31.231091],[121.399925,31.231115],[121.399897,31.231135],[121.399862,31.231153],[121.399819,31.231167],[121.39978,31.231176],[121.39974,31.231181],[121.399703,31.231182],[121.399666,31.231181],[121.399631,31.231177],[121.399595,31.23117],[121.399561,31.231161],[121.399527,31.231149],[121.399495,31.231135],[121.399464,31.231117],[121.399431,31.231091],[121.399402,31.231064],[121.399375,31.231035],[121.399355,31.231008],[121.399339,31.230981],[121.399326,31.230953],[121.399316,31.230924],[121.399309,31.230895],[121.399305,31.230868],[121.399304,31.230841],[121.399305,31.230812],[121.399308,31.230782],[121.399313,31.230751],[121.399319,31.230719],[121.399328,31.23068],[121.399338,31.230642],[121.399347,31.230607],[121.399357,31.230577],[121.399367,31.230545],[121.399378,31.230513],[121.399389,31.230484],[121.399399,31.230456],[121.399409,31.230428],[121.399419,31.2304],[121.399428,31.230375],[121.399437,31.23035],[121.399446,31.230322],[121.399456,31.230294],[121.399465,31.230266],[121.399475,31.230237],[121.399485,31.230209],[121.399494,31.230181],[121.399503,31.230155],[121.399513,31.230128],[121.399525,31.230098],[121.399539,31.230064],[121.399553,31.230033],[121.399566,31.230006],[121.39958,31.229979],[121.399594,31.229954],[121.399609,31.22993],[121.399624,31.229908],[121.39964,31.229888],[121.399657,31.229867],[121.399673,31.229846],[121.39969,31.229825],[121.399711,31.229807],[121.399741,31.22979],[121.399779,31.229776],[121.399819,31.229766],[121.399859,31.229759],[121.399903,31.229756],[121.399949,31.229755],[121.399992,31.229757],[121.400031,31.229762],[121.400066,31.229768],[121.400099,31.229776],[121.400132,31.229788],[121.400161,31.229802],[121.400188,31.229819],[121.400212,31.229838],[121.400236,31.22986],[121.400258,31.229884],[121.400277,31.22991],[121.400293,31.229935],[121.400306,31.229964],[121.400317,31.229994],[121.400324,31.230027],[121.400331,31.230061],[121.400334,31.230094],[121.400331,31.230128],[121.400324,31.230158],[121.400316,31.23019],[121.400307,31.230221],[121.400297,31.230252],[121.400287,31.230285],[121.400278,31.230317],[121.400269,31.230348],[121.400261,31.230377],[121.400252,31.230406],[121.400243,31.230434],[121.400233,31.230465],[121.400224,31.230495],[121.400213,31.230526],[121.400203,31.230557],[121.400192,31.230592],[121.400181,31.230626],[121.400171,31.230659],[121.400162,31.23069],[121.400153,31.23072],[121.400143,31.230751],[121.400134,31.230778],[121.400125,31.230804],[121.400115,31.23083],[121.400104,31.230856],[121.400093,31.230883],[121.400081,31.23091],[121.400067,31.230937],[121.400052,31.230963],[121.400036,31.230989],[121.40002,31.231014],[121.400002,31.231039],[121.39998,31.231064],[121.399957,31.231088],[121.399929,31.231111],[121.399904,31.23113],[121.399876,31.231146],[121.399845,31.231159],[121.39981,31.231169],[121.399773,31.231177],[121.399738,31.231181],[121.399703,31.231181],[121.39967,31.23118],[121.399637,31.231175],[121.399604,31.231168],[121.39957,31.231159],[121.399537,31.231148],[121.399509,31.231137],[121.399481,31.231122],[121.399453,31.231104],[121.399423,31.23108],[121.399396,31.231055],[121.399373,31.23103],[121.399353,31.231004],[121.399338,31.230979],[121.399325,31.230952],[121.399316,31.230925],[121.399309,31.230897],[121.399305,31.230872],[121.399304,31.230845],[121.399306,31.230818],[121.39931,31.230788],[121.399315,31.23076],[121.399322,31.230731],[121.399328,31.2307],[121.399335,31.230669],[121.399344,31.230633],[121.399353,31.230601],[121.399363,31.230568],[121.399372,31.230538],[121.399381,31.230508],[121.39939,31.230478],[121.399398,31.230451],[121.399404,31.230426],[121.399411,31.230401],[121.399417,31.230377],[121.399425,31.23035],[121.399434,31.230321],[121.399444,31.230292],[121.399454,31.230262],[121.399463,31.230235],[121.399474,31.230205],[121.399484,31.230177],[121.399497,31.230144],[121.399509,31.230114],[121.399522,31.230085],[121.399533,31.230059],[121.399545,31.230035],[121.399557,31.230011],[121.399571,31.229986],[121.399586,31.229961],[121.399602,31.229935],[121.399618,31.229912],[121.399635,31.22989],[121.399652,31.229869],[121.39967,31.229849],[121.399689,31.229828],[121.399706,31.22981],[121.399733,31.229791],[121.399766,31.229775],[121.399812,31.229762],[121.399855,31.229754],[121.399901,31.229748],[121.399941,31.229745],[121.399978,31.229745],[121.40001,31.229747],[121.400042,31.229753],[121.400072,31.229761],[121.400103,31.229772],[121.400131,31.229783],[121.400159,31.229797],[121.400184,31.229811],[121.400207,31.229828],[121.400228,31.229845],[121.40025,31.229866],[121.400272,31.229888],[121.40029,31.229908],[121.400304,31.229934],[121.400314,31.229963],[121.400323,31.229998],[121.400329,31.23003],[121.400332,31.230063],[121.400331,31.230095],[121.400326,31.230127],[121.400321,31.230159],[121.400317,31.230189],[121.400311,31.230217],[121.400301,31.23025],[121.40029,31.230284],[121.400281,31.230317],[121.400272,31.230345],[121.400263,31.230373],[121.400254,31.2304],[121.400246,31.230427],[121.400236,31.230458],[121.400226,31.230491],[121.400215,31.230525],[121.400206,31.230556],[121.400196,31.230587],[121.400188,31.230614],[121.400179,31.230641],[121.40017,31.230668],[121.400162,31.230695],[121.400154,31.23072],[121.400144,31.230748],[121.400134,31.230775],[121.400123,31.230804],[121.400113,31.230829],[121.400103,31.230853],[121.400091,31.230879],[121.400079,31.230905],[121.400062,31.230938],[121.400044,31.230968],[121.400025,31.230998],[121.400007,31.231023],[121.399988,31.231047],[121.399967,31.231072],[121.399947,31.231092],[121.399927,31.231112],[121.399909,31.231127],[121.399891,31.231141],[121.399865,31.231154],[121.399832,31.231164],[121.399789,31.231171],[121.39975,31.231176],[121.399713,31.231178],[121.399678,31.231178],[121.399644,31.231175],[121.399606,31.231168],[121.39957,31.231159],[121.399533,31.231147],[121.399503,31.231134],[121.399474,31.231118],[121.399446,31.2311],[121.39942,31.23108],[121.399395,31.231057],[121.399374,31.231033],[121.399356,31.231008],[121.399342,31.230984],[121.399329,31.230957],[121.39932,31.230932],[121.399314,31.230906],[121.39931,31.23088],[121.399309,31.230855],[121.39931,31.230827],[121.399313,31.230796],[121.399317,31.230765],[121.399323,31.230731],[121.399329,31.230701],[121.399335,31.23067],[121.399342,31.23064],[121.399349,31.230612],[121.399358,31.230582],[121.399367,31.230553],[121.399377,31.230523],[121.399384,31.230495],[121.399391,31.230465],[121.399398,31.230437],[121.399405,31.230409],[121.399413,31.230381],[121.399422,31.230353],[121.399432,31.230324],[121.399443,31.23029],[121.399454,31.230255],[121.399466,31.230219],[121.399476,31.230188],[121.399487,31.230156],[121.399496,31.230127],[121.399506,31.230098],[121.399516,31.23007],[121.399526,31.230044],[121.399536,31.230018],[121.399547,31.229993],[121.39956,31.229965],[121.399572,31.229941],[121.399586,31.229917],[121.399601,31.229895],[121.399618,31.229873],[121.399638,31.229852],[121.399665,31.229831],[121.399694,31.229811],[121.399726,31.229792],[121.399757,31.229778],[121.399793,31.229767],[121.39983,31.229758],[121.399869,31.229752],[121.399907,31.229748],[121.399943,31.229746],[121.399979,31.229746],[121.400013,31.229748],[121.400046,31.229754],[121.400078,31.229762],[121.40011,31.229772],[121.40014,31.229785],[121.400169,31.229801],[121.400195,31.229819],[121.400222,31.229841],[121.400247,31.229867],[121.40027,31.229896],[121.400288,31.229922],[121.400303,31.229949],[121.400314,31.229978],[121.400323,31.230008],[121.400328,31.230037],[121.40033,31.230068],[121.400329,31.230098],[121.400324,31.23013],[121.40032,31.230161],[121.400315,31.230191],[121.40031,31.23022],[121.400301,31.230249],[121.40029,31.230282],[121.400281,31.230314],[121.400269,31.230348],[121.400259,31.230382],[121.400248,31.230416],[121.400238,31.230446],[121.400229,31.230476],[121.400219,31.230508],[121.400209,31.230537],[121.400198,31.23057],[121.400188,31.2306],[121.400179,31.230629],[121.400169,31.230658],[121.40016,31.230687],[121.40015,31.230715],[121.40014,31.230744],[121.400131,31.230772],[121.400121,31.2308],[121.40011,31.230828],[121.400098,31.230858],[121.400084,31.230892],[121.40007,31.230924],[121.400055,31.230954],[121.40004,31.230981],[121.400024,31.231009],[121.400008,31.231034],[121.399992,31.231057],[121.399977,31.231079],[121.399957,31.231099],[121.399932,31.231118],[121.399902,31.231134],[121.399874,31.231148],[121.399843,31.231161],[121.39981,31.231171],[121.399774,31.231177],[121.399737,31.23118],[121.399701,31.23118],[121.399666,31.231177],[121.399631,31.231172],[121.399597,31.231165],[121.399563,31.231155],[121.399531,31.231144],[121.3995,31.231131],[121.39947,31.231115],[121.39944,31.231096],[121.399413,31.231076],[121.399389,31.231055],[121.399368,31.231032],[121.39935,31.231008],[121.399336,31.230983],[121.399324,31.230956],[121.399315,31.230929],[121.399309,31.230901],[121.399306,31.230871],[121.399305,31.230839],[121.399307,31.230804],[121.39931,31.230769],[121.399314,31.230736],[121.39932,31.230705],[121.399327,31.230675],[121.399335,31.230644],[121.399342,31.230615],[121.399351,31.230584],[121.39936,31.230553],[121.39937,31.230523],[121.39938,31.230497],[121.399389,31.23047],[121.399399,31.230444],[121.399408,31.230418],[121.399417,31.230392],[121.399426,31.230365],[121.399438,31.23033],[121.399449,31.230296],[121.399461,31.230261],[121.399471,31.23023],[121.39948,31.230198],[121.39949,31.230167],[121.399498,31.23014],[121.399507,31.230112],[121.399516,31.230086],[121.399525,31.230061],[121.399534,31.230037],[121.399543,31.230013],[121.399555,31.229986],[121.399568,31.22996],[121.399583,31.229934],[121.399599,31.229909],[121.399615,31.229886],[121.399637,31.229859],[121.399658,31.229834],[121.399682,31.229807],[121.399709,31.229787],[121.399741,31.229769],[121.39978,31.229757],[121.399817,31.229748],[121.399852,31.229743],[121.399885,31.229741],[121.399917,31.22974],[121.399952,31.22974],[121.399984,31.229742],[121.400017,31.229745],[121.40005,31.229751],[121.400082,31.22976],[121.400113,31.229772],[121.400143,31.229785],[121.400171,31.229801],[121.400199,31.229819],[121.400225,31.229841],[121.400249,31.229866],[121.400271,31.229893],[121.400288,31.229918],[121.400303,31.229944],[121.400314,31.229973],[121.400324,31.230005],[121.400332,31.230038],[121.400336,31.230068],[121.400336,31.230098],[121.400332,31.230127],[121.400326,31.230157],[121.40032,31.230187],[121.400313,31.230216],[121.400306,31.230244],[121.400296,31.230273],[121.400285,31.230304],[121.400273,31.230337],[121.400262,31.230371],[121.400253,31.230402],[121.400243,31.230433],[121.400233,31.230462],[121.400224,31.230492],[121.400214,31.23052],[121.400205,31.230549],[121.400196,31.230577],[121.400187,31.230606],[121.400178,31.230634],[121.400168,31.230663],[121.400159,31.23069],[121.400151,31.230717],[121.400142,31.230742],[121.400134,31.230766],[121.400127,31.230792],[121.400118,31.230817],[121.400109,31.230843],[121.400099,31.230872],[121.400088,31.2309],[121.400076,31.23093],[121.400062,31.23096],[121.400047,31.230989],[121.400028,31.231017],[121.400007,31.231044],[121.399984,31.231068],[121.39996,31.23109],[121.399931,31.23111],[121.399901,31.231127],[121.399869,31.231142],[121.399837,31.231154],[121.399805,31.231163],[121.399768,31.23117],[121.399729,31.231173],[121.399688,31.231174],[121.399645,31.231171],[121.399606,31.231166],[121.399568,31.231158],[121.399535,31.231149],[121.399504,31.231138],[121.399475,31.231124],[121.399449,31.231109],[121.399424,31.231093],[121.399403,31.231077],[121.399383,31.231057],[121.399364,31.231036],[121.399348,31.231012],[121.399334,31.230987],[121.399321,31.23096],[121.399312,31.230932],[121.399306,31.230901],[121.399303,31.230869],[121.399303,31.230834],[121.399305,31.230802],[121.399309,31.230771],[121.399314,31.230741],[121.399321,31.23071],[121.39933,31.230677],[121.399339,31.230644],[121.399348,31.230614],[121.399357,31.230587],[121.399365,31.230562],[121.399374,31.230536],[121.399381,31.230514],[121.399389,31.230489],[121.399397,31.230463],[121.399406,31.230436],[121.399416,31.230402],[121.399426,31.23037],[121.399436,31.230337],[121.399444,31.230308],[121.399452,31.230279],[121.399461,31.230249],[121.399469,31.23022],[121.399478,31.230192],[121.399486,31.230164],[121.399495,31.230136],[121.399504,31.230108],[121.399513,31.230081],[121.399523,31.230055],[121.399533,31.230028],[121.399544,31.230001],[121.399556,31.229975],[121.399569,31.22995],[121.399586,31.229921],[121.399604,31.229893],[121.399622,31.229865],[121.399637,31.229845],[121.399651,31.229826],[121.399672,31.229807],[121.399701,31.229787],[121.399737,31.229769],[121.399774,31.229756],[121.399812,31.229747],[121.399849,31.229741],[121.399886,31.229737],[121.399921,31.229733],[121.399954,31.229732],[121.399986,31.229731],[121.400019,31.229735],[121.400051,31.229741],[121.400083,31.22975],[121.400114,31.229762],[121.400143,31.229777],[121.400172,31.229794],[121.4002,31.229813],[121.400226,31.229834],[121.400252,31.229858],[121.400273,31.229882],[121.400291,31.229906],[121.400306,31.229933],[121.400318,31.229963],[121.400327,31.229995],[121.400334,31.230028],[121.400338,31.230061],[121.400339,31.230093],[121.400338,31.230124],[121.400334,31.230153],[121.400329,31.230183],[121.400323,31.230212],[121.400315,31.230242],[121.400302,31.230272],[121.400287,31.230301],[121.400273,31.230333],[121.400262,31.230364],[121.400252,31.230395],[121.400242,31.230426],[121.400233,31.230457],[121.400223,31.230488],[121.400214,31.230518],[121.400205,31.230547],[121.400195,31.230578],[121.400187,31.230607],[121.400177,31.230637],[121.400167,31.230667],[121.400156,31.230697],[121.400146,31.230727],[121.400135,31.230756],[121.400125,31.230785],[121.400114,31.230814],[121.400105,31.230841],[121.400096,31.230869],[121.400088,31.230896],[121.400078,31.230925],[121.400069,31.230951],[121.400058,31.230977],[121.400044,31.231001],[121.400027,31.231025],[121.400005,31.231047],[121.399981,31.231069],[121.399954,31.23109],[121.399924,31.231109],[121.399892,31.231126],[121.399855,31.231141],[121.399815,31.231154],[121.39977,31.231164],[121.399726,31.231169],[121.399684,31.231169],[121.399645,31.231167],[121.399608,31.231161],[121.399572,31.231153],[121.399539,31.231142],[121.399507,31.231129],[121.399477,31.231114],[121.399448,31.231097],[121.39942,31.231079],[121.399394,31.231058],[121.399371,31.231035],[121.399352,31.23101],[121.399337,31.230984],[121.399324,31.230958],[121.399316,31.230923],[121.399312,31.230887],[121.39931,31.230846],[121.399311,31.230811],[121.399312,31.230777],[121.399316,31.230745],[121.399321,31.230713],[121.399328,31.230681],[121.399337,31.230648],[121.399346,31.230614],[121.399356,31.230581],[121.399366,31.23055],[121.399377,31.230521],[121.399387,31.230492],[121.399396,31.230464],[121.399406,31.230435],[121.399415,31.230405],[121.399426,31.230369],[121.399437,31.230333],[121.399448,31.230296],[121.399456,31.230261],[121.399464,31.230227],[121.399472,31.230193],[121.39948,31.230162],[121.399488,31.230132],[121.399497,31.230105],[121.399501,31.230091],[121.399504,31.230082]]}}]}