{"type":"FeatureCollection","features":[{"type":"Feature","properties":{"id":"2026-08-05_running_45","type":"running","date":"2026-08-05"},"geometry":{"type":"LineString","coordinates":[[121.399532,31.230007],[121.399558,31.229969],[121.399577,31.22994],[121.399592,31.229918],[121.399608,31.229894],[121.399628,31.229869],[121.399647,31.229847],[121.399666,31.229828],[121.399689,31.229808],[121.399718,31.229788],[121.399746,31.229772],[121.399775,31.229759],[121.399808,31.229747],[121.39984,31.229738],[121.399874,31.229733],[121.399905,31.22973],[121.399933,31.229731],[121.39997,31.229735],[121.400019,31.229742],[121.400062,31.22975],[121.400096,31.229761],[121.400133,31.229776],[121.400168,31.229795],[121.400198,31.229814],[121.400224,31.229833],[121.400248,31.229854],[121.400273,31.229879],[121.400292,31.229902],[121.400306,31.229925],[121.400321,31.229952],[121.400333,31.229981],[121.400342,31.230011],[121.400346,31.230041],[121.400347,31.230072],[121.400346,31.230105],[121.400342,31.230141],[121.400336,31.230177],[121.400328,31.230207],[121.400317,31.230237],[121.400307,31.230264],[121.400295,31.230293],[121.400285,31.230322],[121.400278,31.230349],[121.40027,31.230379],[121.400262,31.230409],[121.400255,31.230437],[121.400246,31.230467],[121.400236,31.230496],[121.400225,31.230522],[121.400215,31.230549],[121.400206,31.230577],[121.400198,31.230609],[121.400191,31.23064],[121.400183,31.230667],[121.400175,31.230695],[121.400165,31.230722],[121.400154,31.230748],[121.400144,31.230778],[121.400135,31.230806],[121.400126,31.230835],[121.400118,31.230862],[121.400111,31.230886],[121.400102,31.230912],[121.400091,31.230939],[121.400078,31.230966],[121.400064,31.230991],[121.40005,31.231016],[121.400035,31.23104],[121.400014,31.231063],[121.399985,31.231086],[121.399947,31.23111],[121.399909,31.23113],[121.399877,31.231144],[121.399847,31.231154],[121.399818,31.231162],[121.399787,31.231167],[121.399756,31.231171],[121.399722,31.231173],[121.399691,31.231173],[121.399663,31.231171],[121.399633,31.231166],[121.399601,31.231159],[121.399566,31.231148],[121.399535,31.231135],[121.399511,31.231122],[121.399488,31.231108],[121.399463,31.231091],[121.399439,31.231072],[121.399419,31.231054],[121.3994,31.231031],[121.399385,31.231008],[121.399374,31.230986],[121.399365,31.230964],[121.399358,31.230943],[121.399354,31.230923],[121.399351,31.230899],[121.399351,31.230873],[121.399352,31.23085],[121.399355,31.230825],[121.399358,31.230796],[121.399362,31.230766],[121.399367,31.230738],[121.399375,31.230708],[121.399383,31.23068],[121.399392,31.230656],[121.399406,31.230626],[121.399418,31.230596],[121.399423,31.230572],[121.399428,31.230546],[121.399432,31.230521],[121.399437,31.230494],[121.399443,31.230466],[121.39945,31.230435],[121.399458,31.230406],[121.399466,31.23038],[121.399476,31.230354],[121.399486,31.230326],[121.399497,31.230299],[121.399505,31.230273],[121.399514,31.230242],[121.399522,31.230212],[121.39953,31.230182],[121.399541,31.230144],[121.399552,31.230111],[121.399562,31.230083],[121.399571,31.230056],[121.399579,31.23003],[121.399586,31.230001],[121.399593,31.229973],[121.399602,31.229947],[121.399615,31.22992],[121.399632,31.229893],[121.399651,31.229867],[121.399674,31.229843],[121.3997,31.229822],[121.399726,31.229805],[121.399754,31.229789],[121.399786,31.229774],[121.399819,31.22976],[121.399859,31.229749],[121.399896,31.229742],[121.399928,31.22974],[121.399966,31.22974],[121.400004,31.229744],[121.400042,31.22975],[121.400075,31.229759],[121.400105,31.229769],[121.400135,31.229783],[121.400168,31.2298],[121.400197,31.229818],[121.400221,31.229836],[121.400245,31.229857],[121.400268,31.229879],[121.400291,31.229904],[121.400309,31.229929],[121.400324,31.229955],[121.400337,31.229984],[121.400347,31.230013],[121.400352,31.230039],[121.400355,31.230071],[121.400355,31.230102],[121.400353,31.230132],[121.400349,31.230164],[121.400341,31.230191],[121.400331,31.230215],[121.400319,31.230242],[121.400307,31.230269],[121.400297,31.230295],[121.400287,31.230324],[121.40028,31.23035],[121.400274,31.230376],[121.400267,31.230406],[121.400259,31.230437],[121.40025,31.230468],[121.40024,31.230505],[121.40023,31.230538],[121.40022,31.230563],[121.40021,31.230592],[121.4002,31.23062],[121.400192,31.230648],[121.400183,31.230673],[121.400174,31.230698],[121.400163,31.230726],[121.400152,31.230754],[121.400142,31.230781],[121.400134,31.23081],[121.400126,31.23084],[121.40012,31.230866],[121.400111,31.230892],[121.400098,31.230923],[121.400082,31.230954],[121.400062,31.230988],[121.400042,31.23102],[121.400025,31.231045],[121.400002,31.23107],[121.399975,31.231092],[121.399944,31.231112],[121.399914,31.231129],[121.399885,31.231142],[121.399853,31.231155],[121.399822,31.231165],[121.399792,31.231172],[121.39976,31.231176],[121.399725,31.231178],[121.399692,31.231178],[121.399663,31.231175],[121.399629,31.231171],[121.399593,31.231162],[121.399552,31.231147],[121.399515,31.23113],[121.399487,31.231114],[121.399458,31.231095],[121.399433,31.231074],[121.399412,31.231053],[121.399394,31.231031],[121.399381,31.23101],[121.399368,31.230984],[121.399356,31.230956],[121.399348,31.230929],[121.399342,31.230899],[121.39934,31.230867],[121.399342,31.230834],[121.399348,31.230799],[121.399355,31.230756],[121.399363,31.230719],[121.399373,31.230683],[121.399382,31.230649],[121.399389,31.230624],[121.399398,31.230594],[121.399406,31.230564],[121.399413,31.23054],[121.399419,31.230515],[121.399426,31.23049],[121.399433,31.230464],[121.399441,31.230434],[121.39945,31.230406],[121.399458,31.230382],[121.399467,31.230353],[121.399477,31.230326],[121.399485,31.230302],[121.399495,31.230271],[121.399506,31.230239],[121.399518,31.2302],[121.399529,31.230165],[121.399537,31.230141],[121.399545,31.230116],[121.399555,31.230087],[121.399564,31.230058],[121.399573,31.23003],[121.399581,31.230004],[121.399589,31.229981],[121.399599,31.229954],[121.39961,31.229928],[121.399628,31.2299],[121.399653,31.229869],[121.399681,31.229844],[121.399708,31.229824],[121.399739,31.229805],[121.399772,31.229787],[121.399811,31.229771],[121.399855,31.229756],[121.399891,31.229748],[121.399922,31.229744],[121.399957,31.229742],[121.399991,31.229743],[121.40002,31.229747],[121.400047,31.229753],[121.400073,31.229761],[121.400104,31.229772],[121.400135,31.229785],[121.400164,31.2298],[121.400194,31.229818],[121.40022,31.229838],[121.400241,31.229857],[121.40026,31.22988],[121.400279,31.229907],[121.400299,31.229941],[121.400316,31.229977],[121.400328,31.230009],[121.400337,31.230041],[121.400341,31.230075],[121.400342,31.230108],[121.400339,31.230136],[121.400334,31.230166],[121.400327,31.230195],[121.400319,31.230224],[121.400309,31.230252],[121.400299,31.230279],[121.400287,31.230309],[121.400277,31.23034],[121.400268,31.23037],[121.400259,31.2304],[121.40025,31.230434],[121.400239,31.230476],[121.400231,31.230514],[121.400225,31.230544],[121.400218,31.230575],[121.400209,31.230607],[121.4002,31.230638],[121.400191,31.230666],[121.400182,31.230695],[121.400173,31.230725],[121.400164,31.230752],[121.400155,31.230779],[121.400146,31.230808],[121.400137,31.230837],[121.400127,31.230865],[121.400115,31.23089],[121.4001,31.23092],[121.400084,31.230949],[121.400069,31.230976],[121.400052,31.231005],[121.400032,31.231033],[121.400012,31.231058],[121.399991,31.231078],[121.399967,31.2311],[121.39994,31.231121],[121.399914,31.231139],[121.399884,31.231157],[121.399854,31.231171],[121.399825,31.23118],[121.399793,31.231185],[121.399756,31.231187],[121.39972,31.231186],[121.399688,31.231183],[121.399658,31.231178],[121.399627,31.231171],[121.399592,31.231161],[121.399549,31.231145],[121.39951,31.231127],[121.399481,31.23111],[121.399451,31.231088],[121.399426,31.231065],[121.399405,31.231042],[121.399384,31.231014],[121.399366,31.230984],[121.399354,31.230956],[121.399345,31.230928],[121.39934,31.230901],[121.39934,31.230873],[121.399343,31.230844],[121.399348,31.230816],[121.399353,31.230791],[121.399359,31.230762],[121.399367,31.23073],[121.399378,31.230691],[121.399387,31.230655],[121.399395,31.230627],[121.399402,31.230599],[121.399411,31.230567],[121.39942,31.230537],[121.399427,31.23051],[121.399434,31.230483],[121.399442,31.230452],[121.399449,31.230421],[121.399457,31.230392],[121.399467,31.230362],[121.399477,31.230335],[121.399486,31.230308],[121.399494,31.230278],[121.399503,31.230245],[121.399514,31.230206],[121.399525,31.230165],[121.399534,31.230133],[121.399542,31.230103],[121.399549,31.230073],[121.399559,31.230038],[121.399569,31.230003],[121.399579,31.229973],[121.399589,31.229946],[121.399603,31.229919],[121.399622,31.229891],[121.39964,31.229867],[121.39966,31.229847],[121.399682,31.229829],[121.399707,31.229811],[121.399736,31.229793],[121.399767,31.229777],[121.399807,31.229762],[121.399851,31.229751],[121.399886,31.229744],[121.399924,31.229741],[121.399964,31.229742],[121.4,31.229745],[121.400038,31.22975],[121.400075,31.229758],[121.400107,31.229768],[121.400138,31.22978],[121.400169,31.229797],[121.400199,31.229817],[121.400224,31.229838],[121.400246,31.229859],[121.400265,31.229882],[121.400284,31.22991],[121.400302,31.229939],[121.400318,31.229978],[121.400331,31.23002],[121.400337,31.230056],[121.40034,31.230089],[121.400339,31.230119],[121.400333,31.230154],[121.400324,31.23019],[121.400316,31.23022],[121.400308,31.230244],[121.400299,31.230271],[121.40029,31.230299],[121.400281,31.230324],[121.400271,31.230353],[121.400261,31.230384],[121.400252,31.23041],[121.400242,31.230441],[121.400232,31.230474],[121.400225,31.230502],[121.400217,31.230533],[121.400209,31.230564],[121.400202,31.230591],[121.400195,31.230617],[121.400188,31.230643],[121.400181,31.230667],[121.400172,31.230697],[121.400162,31.23073],[121.400153,31.230758],[121.400144,31.230785],[121.400136,31.230811],[121.400128,31.230836],[121.400119,31.230861],[121.400109,31.230892],[121.400099,31.23092],[121.400092,31.230938],[121.400085,31.230955],[121.400065,31.230991],[121.400034,31.231038],[121.400007,31.231072],[121.399978,31.231099],[121.399946,31.23112],[121.399917,31.231137],[121.399885,31.231154],[121.399853,31.231168],[121.399823,31.231177],[121.39979,31.231183],[121.399753,31.231186],[121.399713,31.231186],[121.399673,31.231182],[121.399629,31.231175],[121.399586,31.231164],[121.399549,31.231152],[121.399516,31.231138],[121.399479,31.231115],[121.399444,31.231088],[121.399421,31.231064],[121.399403,31.231041],[121.399385,31.231013],[121.399368,31.230984],[121.399357,31.230957],[121.399349,31.230926],[121.399345,31.230895],[121.399345,31.230866],[121.399348,31.230833],[121.399354,31.230787],[121.399359,31.230746],[121.399364,31.23072],[121.399371,31.230692],[121.399378,31.230662],[121.399385,31.230636],[121.399393,31.230602],[121.399404,31.230562],[121.399412,31.230529],[121.39942,31.2305],[121.399429,31.230467],[121.399438,31.230435],[121.399446,31.230407],[121.399455,31.230378],[121.399463,31.230352],[121.39947,31.230328],[121.399478,31.230303],[121.399488,31.230271],[121.399499,31.230238],[121.399508,31.230209],[121.399518,31.230177],[121.399528,31.230144],[121.399536,31.230116],[121.399547,31.230077],[121.39956,31.230036],[121.399569,31.230006],[121.399579,31.229977],[121.39959,31.229948],[121.399598,31.229925],[121.399617,31.229894],[121.399647,31.229858],[121.399678,31.229832],[121.39971,31.229809],[121.399743,31.22979],[121.399773,31.229775],[121.399807,31.229761],[121.399844,31.22975],[121.399877,31.229744],[121.399912,31.229741],[121.399949,31.22974],[121.399992,31.229742],[121.400039,31.229746],[121.400077,31.229752],[121.400112,31.229763],[121.400145,31.229778],[121.400175,31.229795],[121.400205,31.229815],[121.400231,31.229836],[121.400252,31.229855],[121.400272,31.229878],[121.400292,31.229905],[121.40031,31.229934],[121.400324,31.229963],[121.400333,31.229992],[121.40034,31.230024],[121.400343,31.230067],[121.400342,31.230107],[121.400335,31.230146],[121.400326,31.230186],[121.400319,31.230214],[121.40031,31.230243],[121.400301,31.230273],[121.400294,31.230299],[121.400284,31.230329],[121.400275,31.230359],[121.400267,31.230386],[121.400258,31.230416],[121.400249,31.230447],[121.40024,31.230479],[121.400231,31.230511],[121.400223,31.230538],[121.400214,31.230568],[121.400205,31.230599],[121.400197,31.230625],[121.400188,31.230654],[121.400179,31.230684],[121.40017,31.230709],[121.400162,31.230732],[121.400152,31.23076],[121.400142,31.230789],[121.400134,31.230814],[121.400124,31.230841],[121.400115,31.23087],[121.400107,31.230894],[121.400098,31.23092],[121.400088,31.230947],[121.400079,31.230973],[121.400062,31.231006],[121.400039,31.231041],[121.400012,31.231071],[121.399983,31.231098],[121.399955,31.231119],[121.399927,31.231136],[121.399893,31.231151],[121.399858,31.231164],[121.399826,31.231173],[121.399791,31.23118],[121.399754,31.231183],[121.399718,31.231184],[121.399684,31.231182],[121.399649,31.231177],[121.399613,31.231169],[121.39958,31.231159],[121.399547,31.231146],[121.399516,31.231132],[121.399485,31.231113],[121.399455,31.23109],[121.399428,31.231067],[121.399406,31.231044],[121.399385,31.231017],[121.399367,31.230988],[121.399354,31.230961],[121.399345,31.230931],[121.399338,31.230899],[121.399336,31.230871],[121.399336,31.230838],[121.39934,31.230801],[121.399344,31.230768],[121.399351,31.230736],[121.39936,31.230704],[121.399368,31.230676],[121.399376,31.230646],[121.399384,31.230617],[121.399393,31.230589],[121.399403,31.230558],[121.399414,31.230526],[121.399423,31.230498],[121.399432,31.230465],[121.399444,31.230426],[121.399456,31.230387],[121.399466,31.230355],[121.399474,31.230328],[121.399483,31.230298],[121.399493,31.230266],[121.399502,31.230237],[121.399512,31.230208],[121.399522,31.230177],[121.399532,31.230148],[121.399542,31.230121],[121.399551,31.230095],[121.399559,31.230071],[121.399569,31.230041],[121.399578,31.230011],[121.399587,31.229984],[121.399599,31.229955],[121.39962,31.229922],[121.399647,31.229887],[121.399673,31.229858],[121.399698,31.229836],[121.399726,31.229814],[121.399757,31.229794],[121.399784,31.229778],[121.399817,31.229765],[121.399851,31.229755],[121.399882,31.22975],[121.399916,31.229748],[121.399952,31.229747],[121.399987,31.229749],[121.400026,31.229755],[121.400062,31.229763],[121.400092,31.229772],[121.400127,31.229784],[121.400166,31.229804],[121.400205,31.229831],[121.400237,31.229858],[121.400263,31.229883],[121.400287,31.229911],[121.400307,31.22994],[121.400322,31.229966],[121.400333,31.229992],[121.400339,31.230022],[121.400341,31.230055],[121.40034,31.230082],[121.400337,31.23011],[121.400333,31.23014],[121.400329,31.230169],[121.400323,31.2302],[121.400315,31.230233],[121.400304,31.230263],[121.400293,31.230293],[121.400282,31.23032],[121.400271,31.23035],[121.400262,31.230381],[121.400254,31.23041],[121.400246,31.230442],[121.400236,31.230475],[121.400228,31.230506],[121.400219,31.230536],[121.400211,31.23057],[121.400202,31.230603],[121.400194,31.230633],[121.400185,31.230665],[121.400175,31.230697],[121.400165,31.230729],[121.400155,31.230763],[121.400145,31.230793],[121.400135,31.230823],[121.400125,31.230855],[121.400117,31.230883],[121.400107,31.230911],[121.400096,31.23094],[121.400086,31.230966],[121.400073,31.230992],[121.400057,31.231019],[121.400037,31.231045],[121.400012,31.231072],[121.399985,31.231096],[121.399959,31.231118],[121.399932,31.231138],[121.399903,31.231154],[121.399868,31.231168],[121.399833,31.231179],[121.399799,31.231186],[121.399766,31.231191],[121.399734,31.231193],[121.399705,31.231193],[121.399673,31.231189],[121.399639,31.231181],[121.399607,31.231172],[121.399573,31.231159],[121.399541,31.231144],[121.399514,31.231131],[121.399484,31.231112],[121.399454,31.23109],[121.399429,31.231067],[121.399408,31.231044],[121.399385,31.231016],[121.399365,31.230988],[121.39935,31.230958],[121.399338,31.230928],[121.399329,31.230898],[121.399324,31.230869],[121.399323,31.23084],[121.399329,31.230801],[121.399337,31.230757],[121.399345,31.230724],[121.399353,31.230695],[121.399362,31.230667],[121.399372,31.230637],[121.399383,31.230609],[121.399393,31.230582],[121.399403,31.230551],[121.399412,31.230519],[121.39942,31.230489],[121.399429,31.230455],[121.399438,31.23042],[121.399447,31.230388],[121.399456,31.230357],[121.399467,31.230327],[121.399477,31.230297],[121.39949,31.23026],[121.399504,31.230215],[121.399516,31.230178],[121.399524,31.230151],[121.399532,31.230128],[121.399542,31.230102],[121.399546,31.23009]]}}]}