{"type":"FeatureCollection","features":[{"type":"Feature","properties":{"id":"2026-04-25_running_33","type":"running","date":"2026-04-25"},"geometry":{"type":"LineString","coordinates":[[121.399556,31.230039],[121.399568,31.230007],[121.39958,31.229979],[121.399594,31.229955],[121.399608,31.229932],[121.399622,31.229911],[121.39964,31.229887],[121.39966,31.229864],[121.399682,31.229843],[121.399708,31.229821],[121.399735,31.229801],[121.399762,31.229787],[121.399791,31.229776],[121.399821,31.229768],[121.399851,31.229762],[121.399884,31.229759],[121.399917,31.229758],[121.399948,31.229758],[121.399982,31.229759],[121.400016,31.229762],[121.400046,31.229766],[121.400076,31.229774],[121.400107,31.229785],[121.40014,31.229799],[121.400177,31.229819],[121.400209,31.229839],[121.400231,31.229856],[121.400252,31.229877],[121.400271,31.2299],[121.400287,31.229923],[121.400301,31.229948],[121.400313,31.229975],[121.400324,31.230003],[121.400334,31.230035],[121.400341,31.230066],[121.400343,31.230096],[121.400342,31.23013],[121.400338,31.230164],[121.400331,31.230194],[121.400321,31.230228],[121.400308,31.230267],[121.400295,31.230305],[121.400285,31.230335],[121.400278,31.230355],[121.400271,31.230377],[121.400262,31.230405],[121.400253,31.230433],[121.400244,31.230461],[121.400235,31.230488],[121.400227,31.230512],[121.400218,31.230541],[121.40021,31.230568],[121.400202,31.230591],[121.400194,31.23062],[121.400185,31.230648],[121.400177,31.230673],[121.400168,31.230703],[121.400157,31.230735],[121.400145,31.230772],[121.400134,31.230807],[121.400126,31.230829],[121.400117,31.230854],[121.400107,31.230882],[121.400097,31.230908],[121.400089,31.230929],[121.40008,31.23095],[121.400071,31.230972],[121.40006,31.230998],[121.400049,31.231022],[121.400037,31.231044],[121.400015,31.231073],[121.399987,31.231102],[121.39996,31.231122],[121.39993,31.231141],[121.399902,31.231156],[121.399876,31.231167],[121.399846,31.231177],[121.399816,31.231184],[121.399789,31.231187],[121.399756,31.231188],[121.399722,31.231189],[121.39969,31.231188],[121.399658,31.231184],[121.399627,31.231179],[121.399597,31.23117],[121.399565,31.231159],[121.399534,31.231147],[121.399506,31.231134],[121.399474,31.231118],[121.399446,31.231101],[121.399424,31.231084],[121.399402,31.231062],[121.39938,31.231036],[121.399359,31.231004],[121.39934,31.230968],[121.399328,31.23094],[121.399321,31.230914],[121.399315,31.230884],[121.399312,31.230855],[121.399313,31.230828],[121.399315,31.2308],[121.39932,31.230772],[121.399327,31.230742],[121.399336,31.230715],[121.399345,31.23069],[121.399356,31.230663],[121.399369,31.230634],[121.39938,31.230606],[121.39939,31.230581],[121.399399,31.230553],[121.399409,31.230519],[121.399419,31.230485],[121.399426,31.230458],[121.399432,31.230433],[121.399439,31.230403],[121.399443,31.230375],[121.399447,31.230348],[121.399452,31.230322],[121.399459,31.230296],[121.399469,31.230267],[121.399479,31.230239],[121.399488,31.230214],[121.399498,31.230184],[121.399509,31.230154],[121.399521,31.230125],[121.399535,31.230091],[121.399548,31.230061],[121.39956,31.230036],[121.39957,31.230008],[121.399579,31.229983],[121.399589,31.229962],[121.399603,31.229937],[121.399619,31.229914],[121.399635,31.229892],[121.399655,31.229871],[121.399676,31.229851],[121.3997,31.229831],[121.399727,31.229811],[121.399753,31.229796],[121.399782,31.229784],[121.399815,31.229774],[121.399847,31.229766],[121.399877,31.229762],[121.399912,31.229759],[121.399948,31.229759],[121.399981,31.22976],[121.400016,31.229763],[121.400049,31.229768],[121.40008,31.229775],[121.400111,31.229785],[121.400144,31.229799],[121.400175,31.229815],[121.400202,31.229833],[121.400226,31.229852],[121.400245,31.22987],[121.400264,31.229893],[121.400283,31.229917],[121.400298,31.229941],[121.400313,31.229968],[121.400326,31.229997],[121.400336,31.230025],[121.400343,31.230058],[121.400345,31.230095],[121.400341,31.230142],[121.400333,31.230189],[121.400326,31.230219],[121.400317,31.230247],[121.400308,31.230274],[121.400301,31.230297],[121.400293,31.230321],[121.400285,31.230346],[121.400275,31.230377],[121.400267,31.230406],[121.400259,31.230433],[121.40025,31.230464],[121.400241,31.230494],[121.400233,31.23052],[121.400223,31.230552],[121.400213,31.230583],[121.400204,31.230612],[121.400192,31.230653],[121.40018,31.230691],[121.400171,31.230721],[121.400162,31.230749],[121.400154,31.230774],[121.400145,31.230804],[121.400135,31.230833],[121.400125,31.230862],[121.400115,31.230889],[121.400105,31.230912],[121.400094,31.23094],[121.400083,31.230965],[121.400073,31.230987],[121.40006,31.231014],[121.400045,31.231041],[121.400021,31.231069],[121.399989,31.2311],[121.399954,31.231126],[121.399919,31.231147],[121.39989,31.231161],[121.399864,31.23117],[121.399833,31.231178],[121.399798,31.231184],[121.399761,31.231187],[121.399726,31.231188],[121.399696,31.231188],[121.399663,31.231185],[121.399632,31.23118],[121.399604,31.231172],[121.399572,31.231162],[121.39954,31.23115],[121.399512,31.231137],[121.399483,31.23112],[121.399455,31.231102],[121.399432,31.231082],[121.39941,31.23106],[121.39939,31.231036],[121.399375,31.231012],[121.399363,31.230988],[121.399351,31.230962],[121.399341,31.230934],[121.399335,31.230909],[121.399329,31.230879],[121.399325,31.230849],[121.399325,31.23082],[121.399327,31.230785],[121.399333,31.230755],[121.39934,31.230728],[121.399347,31.230702],[121.399354,31.230679],[121.399362,31.23065],[121.399372,31.230617],[121.399384,31.230578],[121.399395,31.230541],[121.399403,31.230515],[121.399411,31.230483],[121.399419,31.230453],[121.399425,31.230425],[121.399433,31.230393],[121.39944,31.230361],[121.399446,31.230333],[121.399454,31.230302],[121.399462,31.230271],[121.399469,31.230246],[121.399476,31.23022],[121.399485,31.230194],[121.399495,31.230163],[121.399505,31.230135],[121.399514,31.23011],[121.399526,31.230081],[121.399536,31.230053],[121.399546,31.230029],[121.399558,31.230001],[121.39957,31.229975],[121.399581,31.229953],[121.399594,31.229927],[121.399607,31.229902],[121.399623,31.229881],[121.399651,31.229854],[121.399685,31.229826],[121.399715,31.229808],[121.399748,31.229792],[121.39978,31.229779],[121.399812,31.229769],[121.399846,31.229762],[121.399878,31.229759],[121.399916,31.229756],[121.399961,31.229757],[121.400005,31.229761],[121.400043,31.229767],[121.400078,31.229776],[121.400116,31.229788],[121.400152,31.229803],[121.400182,31.22982],[121.400213,31.22984],[121.40024,31.229863],[121.400262,31.229886],[121.400284,31.229912],[121.400302,31.229938],[121.400317,31.229965],[121.400329,31.229994],[121.400337,31.230024],[121.400343,31.230058],[121.400345,31.230095],[121.400343,31.23014],[121.400337,31.230182],[121.400329,31.230213],[121.400318,31.230247],[121.400307,31.230279],[121.400297,31.230307],[121.400287,31.230336],[121.400277,31.230368],[121.400269,31.230399],[121.400263,31.230426],[121.400256,31.230456],[121.40025,31.230485],[121.400243,31.230513],[121.400235,31.23054],[121.400227,31.230566],[121.400218,31.230597],[121.400209,31.230627],[121.400199,31.230657],[121.400189,31.230689],[121.400178,31.230719],[121.400168,31.230747],[121.400158,31.230778],[121.400148,31.23081],[121.400138,31.230839],[121.400128,31.23087],[121.400117,31.230898],[121.400107,31.230924],[121.400095,31.230952],[121.400082,31.230979],[121.400068,31.231003],[121.400052,31.231028],[121.400034,31.231053],[121.40001,31.23108],[121.399982,31.231105],[121.39995,31.231127],[121.399908,31.23115],[121.399867,31.231168],[121.399829,31.231177],[121.399793,31.231183],[121.399759,31.231185],[121.399722,31.231187],[121.399685,31.231186],[121.399648,31.231182],[121.399609,31.231174],[121.399575,31.231165],[121.399545,31.231154],[121.399514,31.231141],[121.399485,31.231125],[121.399457,31.231106],[121.39943,31.231085],[121.399408,31.231064],[121.399389,31.231039],[121.399373,31.231014],[121.399361,31.230991],[121.39935,31.230964],[121.399341,31.230936],[121.399334,31.23091],[121.399327,31.23088],[121.399323,31.230849],[121.399322,31.230818],[121.399324,31.230784],[121.399329,31.230751],[121.399336,31.230723],[121.399344,31.230693],[121.399351,31.230664],[121.399358,31.230635],[121.399366,31.230605],[121.399375,31.230577],[121.399386,31.230547],[121.399395,31.230518],[121.399402,31.230491],[121.399408,31.23046],[121.399416,31.23043],[121.399423,31.230401],[121.399432,31.230369],[121.399439,31.230339],[121.399445,31.230311],[121.399454,31.23028],[121.399462,31.230249],[121.399471,31.23022],[121.399481,31.230188],[121.399492,31.230157],[121.399503,31.230128],[121.399513,31.230101],[121.399524,31.230073],[121.399536,31.230044],[121.399547,31.230015],[121.399557,31.229989],[121.399571,31.229962],[121.399586,31.229935],[121.399602,31.22991],[121.39962,31.229884],[121.39964,31.229861],[121.399661,31.229842],[121.399688,31.229823],[121.399717,31.229805],[121.399745,31.22979],[121.399778,31.229775],[121.399813,31.229763],[121.399846,31.229756],[121.39988,31.229751],[121.399916,31.22975],[121.399956,31.229752],[121.399995,31.229756],[121.40003,31.229762],[121.40007,31.229771],[121.400115,31.229786],[121.400156,31.229804],[121.400188,31.229823],[121.400215,31.229843],[121.400242,31.229866],[121.400265,31.229891],[121.400284,31.229914],[121.400301,31.229939],[121.400316,31.229965],[121.400328,31.229989],[121.400338,31.230019],[121.400345,31.230049],[121.40035,31.230079],[121.400352,31.230108],[121.400349,31.230136],[121.400343,31.230168],[121.400334,31.230202],[121.40032,31.230243],[121.400306,31.230281],[121.400296,31.230308],[121.400285,31.230339],[121.400274,31.23037],[121.400264,31.230399],[121.400256,31.23043],[121.400249,31.230461],[121.400242,31.230489],[121.400234,31.23052],[121.400227,31.23055],[121.40022,31.23058],[121.400213,31.230609],[121.400205,31.230636],[121.400196,31.230667],[121.400186,31.230696],[121.400177,31.230721],[121.400167,31.23075],[121.400156,31.230781],[121.400146,31.23081],[121.400136,31.230843],[121.400126,31.230873],[121.400116,31.230899],[121.400105,31.230927],[121.400093,31.230955],[121.40008,31.23098],[121.400065,31.231008],[121.400048,31.231034],[121.400031,31.231058],[121.40001,31.231082],[121.399986,31.231105],[121.399956,31.231127],[121.399926,31.231145],[121.399898,31.231159],[121.399866,31.231171],[121.399832,31.23118],[121.399801,31.231185],[121.399767,31.231189],[121.399732,31.231191],[121.399699,31.231189],[121.399668,31.231186],[121.39964,31.231181],[121.399606,31.231173],[121.399572,31.231163],[121.399542,31.231152],[121.399513,31.231139],[121.399485,31.231123],[121.399458,31.231107],[121.399433,31.231087],[121.39941,31.231065],[121.399392,31.231043],[121.399375,31.231018],[121.399361,31.230992],[121.39935,31.230967],[121.399339,31.230937],[121.399331,31.230907],[121.399324,31.230877],[121.399319,31.230843],[121.399316,31.23081],[121.399318,31.230779],[121.399322,31.230747],[121.399329,31.230716],[121.399336,31.230689],[121.399344,31.230659],[121.399352,31.230627],[121.399361,31.230595],[121.399372,31.230564],[121.399383,31.230535],[121.399394,31.230503],[121.399403,31.23047],[121.399411,31.230438],[121.39942,31.2304],[121.399429,31.230363],[121.399435,31.230333],[121.399443,31.230303],[121.399452,31.230276],[121.399462,31.230245],[121.399474,31.230213],[121.399487,31.230184],[121.3995,31.230152],[121.399512,31.230123],[121.399524,31.230097],[121.399535,31.230071],[121.399547,31.230044],[121.399558,31.230014],[121.399568,31.229987],[121.399578,31.229962],[121.399593,31.229933],[121.399614,31.2299],[121.399638,31.229869],[121.399663,31.229845],[121.399692,31.229826],[121.399724,31.229807],[121.399756,31.229791],[121.399788,31.229779],[121.399823,31.229768],[121.399857,31.229762],[121.399889,31.229758],[121.399924,31.229757],[121.399961,31.229758],[121.399997,31.229762],[121.400033,31.229768],[121.400067,31.229776],[121.400103,31.229788],[121.400139,31.229802],[121.400178,31.229823],[121.400213,31.229845],[121.400238,31.229866],[121.400263,31.22989],[121.400283,31.229913],[121.4003,31.229936],[121.400316,31.229963],[121.40033,31.22999],[121.400339,31.230016],[121.400346,31.230045],[121.40035,31.230073],[121.40035,31.230102],[121.400347,31.230132],[121.400342,31.23016],[121.400336,31.23019],[121.400328,31.230218],[121.400319,31.230245],[121.40031,31.230275],[121.400301,31.230302],[121.400291,31.230329],[121.400281,31.230357],[121.400272,31.230382],[121.400263,31.230407],[121.400253,31.230436],[121.400243,31.230466],[121.400234,31.230495],[121.400224,31.230527],[121.400216,31.230558],[121.400208,31.230587],[121.400201,31.230616],[121.400193,31.230645],[121.400185,31.230677],[121.400175,31.23071],[121.400165,31.230741],[121.400153,31.230776],[121.40014,31.230816],[121.400128,31.230855],[121.400118,31.230886],[121.400107,31.230916],[121.400094,31.230949],[121.400081,31.23098],[121.400067,31.231005],[121.40005,31.231031],[121.40003,31.231056],[121.400008,31.231079],[121.399982,31.231103],[121.399955,31.231124],[121.399926,31.231142],[121.399897,31.231157],[121.399869,31.231168],[121.399836,31.231178],[121.399802,31.231185],[121.39977,31.231188],[121.399735,31.23119],[121.399702,31.231189],[121.399671,31.231187],[121.399637,31.231181],[121.399604,31.231173],[121.399574,31.231164],[121.399542,31.231153],[121.399512,31.231142],[121.399487,31.231129],[121.399461,31.231114],[121.399437,31.231098],[121.399414,31.231078],[121.399392,31.231056],[121.399375,31.231033],[121.39936,31.231008],[121.399345,31.230979],[121.399333,31.230948],[121.399323,31.230912],[121.399315,31.230876],[121.399312,31.230845],[121.399309,31.23081],[121.39931,31.230777],[121.399314,31.230747],[121.399321,31.230717],[121.399329,31.23069],[121.399339,31.230664],[121.399349,31.230637],[121.399358,31.23061],[121.399368,31.230582],[121.399378,31.230552],[121.399388,31.230525],[121.399396,31.230498],[121.399402,31.230467],[121.399408,31.230433],[121.399415,31.230397],[121.399422,31.230364],[121.399428,31.230334],[121.399436,31.230302],[121.399445,31.230273],[121.399455,31.230245],[121.399468,31.230213],[121.399481,31.230184],[121.399493,31.230156],[121.399505,31.230127],[121.399516,31.2301],[121.399525,31.230073],[121.399533,31.230046],[121.399543,31.230021],[121.399557,31.229993],[121.399571,31.229963],[121.399587,31.229936],[121.399608,31.229906],[121.399636,31.229874],[121.399666,31.229847],[121.399695,31.229824],[121.399726,31.229806],[121.399761,31.229788],[121.399796,31.229774],[121.399828,31.229764],[121.399862,31.229757],[121.399896,31.229752],[121.399927,31.229751],[121.399962,31.229751],[121.399997,31.229754],[121.400033,31.22976],[121.400068,31.229768],[121.4001,31.229778],[121.400131,31.229791],[121.400168,31.229809],[121.400206,31.229832],[121.400239,31.229858],[121.400264,31.229882],[121.400284,31.229905],[121.400303,31.229932],[121.400319,31.229959],[121.400331,31.229984],[121.400341,31.230012],[121.400348,31.23004],[121.400352,31.230065],[121.400355,31.230094],[121.400354,31.230122],[121.40035,31.230149],[121.400341,31.230184],[121.40033,31.230221],[121.400317,31.230258],[121.400307,31.230289],[121.400299,31.230312],[121.400289,31.23034],[121.400279,31.230368],[121.400271,31.230394],[121.40026,31.230424],[121.40025,31.230454],[121.400242,31.23048],[121.400231,31.230511],[121.400222,31.230541],[121.400214,31.230566],[121.400206,31.230592],[121.400197,31.230622],[121.400188,31.230651],[121.40018,31.230676],[121.40017,31.230706],[121.400161,31.230735],[121.400151,31.230764],[121.400142,31.230791],[121.400134,31.230816],[121.400124,31.230845],[121.400114,31.230872],[121.400105,31.230897],[121.400094,31.230925],[121.400084,31.230952],[121.400075,31.230975],[121.400063,31.231001],[121.40005,31.231027],[121.400036,31.231049],[121.400011,31.231079],[121.399982,31.231107],[121.399956,31.231127],[121.399927,31.231144],[121.399898,31.231158],[121.399867,31.23117],[121.399835,31.23118],[121.399802,31.231187],[121.399766,31.23119],[121.399732,31.231191],[121.3997,31.231189],[121.399664,31.231184],[121.399629,31.231178],[121.399598,31.231169],[121.399566,31.231158],[121.399536,31.231144],[121.399509,31.231131],[121.399478,31.231116],[121.399449,31.231099],[121.399426,31.231081],[121.399404,31.231059],[121.399383,31.231033],[121.399365,31.231007],[121.399351,31.23098],[121.399337,31.230952],[121.399324,31.230923],[121.399315,31.230892],[121.39931,31.230863],[121.399308,31.230832],[121.399308,31.230801],[121.399311,31.230772],[121.399317,31.230739],[121.399324,31.230706],[121.399333,31.230677],[121.399344,31.230645],[121.399355,31.230614],[121.399365,31.230586],[121.399376,31.230556],[121.399386,31.230526],[121.399395,31.2305],[121.399403,31.230471],[121.399412,31.23044],[121.39942,31.230408],[121.399429,31.230374],[121.39944,31.230337],[121.399451,31.230301],[121.399459,31.230272],[121.399471,31.23024],[121.399483,31.230208],[121.399494,31.230178],[121.399507,31.230145],[121.39952,31.230113],[121.399532,31.230083],[121.399545,31.230053],[121.399557,31.230023],[121.399567,31.229995],[121.399578,31.229965],[121.399591,31.229936],[121.399607,31.229909],[121.399627,31.229882],[121.399647,31.229859],[121.399671,31.229836],[121.399697,31.229817],[121.399724,31.2298],[121.399759,31.229782],[121.399792,31.229766],[121.399823,31.229755],[121.399856,31.229747],[121.399888,31.229741],[121.399918,31.229739],[121.399954,31.229739],[121.399989,31.229742],[121.400021,31.229747],[121.400058,31.229755],[121.400094,31.229765],[121.400127,31.229777],[121.400162,31.229793],[121.400196,31.229812],[121.400228,31.229835],[121.40026,31.229863],[121.400284,31.22989],[121.400305,31.229919],[121.400323,31.229947],[121.400338,31.229976],[121.40035,31.230004],[121.400358,31.230032],[121.400363,31.230063],[121.400364,31.230096],[121.400361,31.23013],[121.400353,31.230166],[121.400345,31.230195],[121.400336,31.230223],[121.400326,31.230251],[121.400318,31.230275],[121.400309,31.230302],[121.400297,31.230338],[121.400284,31.230376],[121.400273,31.230409],[121.400264,31.230435],[121.400254,31.230465],[121.400243,31.230496],[121.400235,31.230522],[121.400225,31.230551],[121.400215,31.230581],[121.400207,31.230605],[121.400198,31.230633],[121.400189,31.230662],[121.400179,31.230691],[121.40017,31.23072],[121.400162,31.230744],[121.400154,31.230771],[121.400145,31.230799],[121.400133,31.230835],[121.40012,31.230872],[121.40011,31.230904],[121.400099,31.230933],[121.40009,31.230955],[121.40008,31.23098],[121.40007,31.231006],[121.400057,31.23103],[121.400035,31.23106],[121.400009,31.231088],[121.399986,31.23111],[121.399959,31.231129],[121.399931,31.231145],[121.3999,31.231159],[121.399867,31.231171],[121.399835,31.23118],[121.399797,31.231186],[121.39975,31.231191],[121.399701,31.231192],[121.39966,31.231189],[121.399625,31.231184],[121.399589,31.231177],[121.399553,31.231166],[121.399524,31.231154],[121.399495,31.231138],[121.399468,31.231119],[121.399446,31.231101],[121.399422,31.231078],[121.3994,31.231052],[121.399382,31.231027],[121.399367,31.231002],[121.399354,31.230976],[121.399342,31.230948],[121.399333,31.230919],[121.399327,31.23089],[121.399324,31.230858],[121.399322,31.230824],[121.399322,31.230796],[121.399324,31.230765],[121.39933,31.230733],[121.399336,31.230701],[121.399343,31.230667],[121.399349,31.230636],[121.399358,31.230607],[121.399368,31.230576],[121.399378,31.230546],[121.399386,31.230519],[121.399393,31.230492],[121.399401,31.230464],[121.399411,31.230432],[121.399421,31.230399],[121.39943,31.230369],[121.39944,31.230338],[121.399451,31.230307],[121.399462,31.230276],[121.399473,31.230246],[121.399483,31.230222],[121.399492,31.230198],[121.399503,31.230171],[121.399513,31.230145],[121.399523,31.230116],[121.399535,31.230086],[121.399547,31.230058],[121.399559,31.230029],[121.399572,31.229998],[121.399583,31.229969],[121.399597,31.229939],[121.399612,31.229911],[121.399629,31.229886],[121.399654,31.229859],[121.399691,31.22983],[121.399734,31.229802],[121.399771,31.229781],[121.399804,31.229765],[121.399841,31.229751],[121.399878,31.229741],[121.39991,31.229737],[121.399945,31.229737],[121.39998,31.229739],[121.400013,31.229743],[121.400049,31.22975],[121.400086,31.229758],[121.400121,31.22977],[121.400155,31.229784],[121.400187,31.229804],[121.400217,31.229827],[121.400243,31.229849],[121.400272,31.229881],[121.4003,31.229916],[121.400319,31.229945],[121.400333,31.229975],[121.400345,31.230005],[121.400352,31.230037],[121.400357,31.230071],[121.400358,31.2301],[121.400355,31.230132],[121.400349,31.230167],[121.400341,31.2302],[121.400332,31.230231],[121.400321,31.230264],[121.400311,31.230295],[121.400301,31.230324],[121.40029,31.230356],[121.400278,31.230387],[121.400264,31.230423],[121.400249,31.23046],[121.400235,31.230493],[121.400223,31.230523],[121.400212,31.230551],[121.400201,31.230582],[121.400191,31.230609],[121.400183,31.230636],[121.400174,31.230666],[121.400165,31.230694],[121.400158,31.230721],[121.40015,31.230747],[121.400142,31.230774],[121.400134,31.230803],[121.400125,31.230834],[121.400118,31.230862],[121.40011,31.23089],[121.400101,31.230917],[121.40009,31.230946],[121.400076,31.230977],[121.400061,31.231006],[121.400045,31.231033],[121.400025,31.231059],[121.4,31.231086],[121.399973,31.231112],[121.399945,31.231132],[121.399914,31.231148],[121.399883,31.231162],[121.39985,31.231172],[121.399816,31.231182],[121.399783,31.231189],[121.399745,31.231194],[121.399705,31.231197],[121.399669,31.231197],[121.399632,31.231193],[121.399591,31.231184],[121.39955,31.23117],[121.399516,31.231154],[121.399489,31.231137],[121.399462,31.231118],[121.399436,31.231096],[121.399414,31.231074],[121.399392,31.231048],[121.399372,31.231021],[121.399358,31.230997],[121.399348,31.230972],[121.399341,31.230946],[121.399336,31.230917],[121.399333,31.230883],[121.39933,31.230847],[121.399328,31.230811],[121.399329,31.230769],[121.399335,31.230725],[121.399344,31.230685],[121.399352,31.230653],[121.399359,31.230627],[121.399367,31.230598],[121.399376,31.230567],[121.399383,31.230541],[121.399391,31.230511],[121.399399,31.230479],[121.399406,31.230452],[121.399415,31.230422],[121.399423,31.23039],[121.399433,31.230359],[121.399442,31.230327],[121.399451,31.230299],[121.399461,31.230268],[121.399472,31.230236],[121.399482,31.230208],[121.399494,31.230177],[121.399506,31.230145],[121.399516,31.230118],[121.399528,31.230088],[121.399541,31.230057],[121.399552,31.230032],[121.399564,31.230003],[121.399577,31.229973],[121.399588,31.22995],[121.399599,31.229924],[121.399619,31.229894],[121.399648,31.229863],[121.399676,31.229838],[121.399703,31.22982],[121.399735,31.229801],[121.399767,31.229785],[121.399796,31.229773],[121.39983,31.229763],[121.399868,31.229755],[121.399902,31.229751],[121.399937,31.229749],[121.399975,31.229751],[121.400014,31.229754],[121.400049,31.22976],[121.400086,31.229769],[121.400123,31.229781],[121.400156,31.229796],[121.400188,31.229814],[121.400217,31.229835],[121.400244,31.229858],[121.400269,31.229885],[121.40029,31.229912],[121.400309,31.229941],[121.400325,31.229971],[121.400336,31.23],[121.400346,31.230038],[121.400352,31.230081],[121.400351,31.230121],[121.400346,31.230159],[121.40034,31.230191],[121.400331,31.230225],[121.400321,31.23026],[121.400311,31.23029],[121.400301,31.23032],[121.400289,31.230352],[121.400278,31.230386],[121.400268,31.23042],[121.400259,31.230453],[121.40025,31.230485],[121.40024,31.23052],[121.400229,31.230553],[121.400219,31.230585],[121.400209,31.230615],[121.400198,31.230641],[121.400187,31.23067],[121.400176,31.230701],[121.400166,31.230729],[121.400157,31.23076],[121.400147,31.230792],[121.400138,31.230824],[121.400129,31.230855],[121.40012,31.230886],[121.400109,31.230918],[121.400097,31.230947],[121.400083,31.230976],[121.400068,31.231004],[121.400049,31.231032],[121.400027,31.231059],[121.400002,31.231085],[121.399976,31.231109],[121.399943,31.231134],[121.399905,31.231156],[121.399873,31.231171],[121.399842,31.231182],[121.399807,31.23119],[121.399773,31.231195],[121.399742,31.231197],[121.399705,31.231196],[121.399665,31.231194],[121.399628,31.231188],[121.399591,31.23118],[121.399555,31.231169],[121.399521,31.231155],[121.399491,31.231138],[121.399465,31.23112],[121.399439,31.231099],[121.399416,31.231078],[121.399391,31.231049],[121.399368,31.231017],[121.399354,31.23099],[121.399345,31.230963],[121.39934,31.230936],[121.399337,31.230904],[121.399334,31.230868],[121.399332,31.230834],[121.399332,31.230798],[121.399333,31.230762],[121.399336,31.23073],[121.399342,31.230695],[121.399348,31.23066],[121.399354,31.230629],[121.39936,31.230596],[121.399367,31.230562],[121.399375,31.230532],[121.399386,31.230493],[121.399398,31.230455],[121.399409,31.230422],[121.399419,31.23039],[121.399427,31.230362],[121.399436,31.230332],[121.399444,31.230302],[121.399452,31.230274],[121.399461,31.230245],[121.399469,31.23022],[121.399478,31.230195],[121.399488,31.230166],[121.3995,31.230137],[121.399513,31.230106],[121.399526,31.230075],[121.399538,31.230048],[121.399549,31.230021],[121.399563,31.229992],[121.399577,31.229966],[121.399593,31.229939],[121.399611,31.229911],[121.399633,31.229882],[121.399657,31.229856],[121.399682,31.229836],[121.39971,31.229816],[121.399744,31.229796],[121.39978,31.229777],[121.399818,31.229763],[121.399858,31.229753],[121.399894,31.229747],[121.399931,31.229745],[121.399973,31.229746],[121.400014,31.229748],[121.40005,31.229752],[121.400087,31.22976],[121.400131,31.229775],[121.400174,31.229796],[121.400207,31.229817],[121.400234,31.229837],[121.400259,31.229861],[121.400283,31.229887],[121.400302,31.229915],[121.40032,31.229944],[121.400334,31.229972],[121.400346,31.230002],[121.400357,31.230034],[121.400364,31.230065],[121.400365,31.230095],[121.400361,31.23013],[121.400354,31.230164],[121.400347,31.230192],[121.400337,31.230222],[121.400327,31.230254],[121.400316,31.230283],[121.400302,31.230315],[121.400288,31.23035],[121.400276,31.230383],[121.400267,31.230419],[121.400258,31.230454],[121.400248,31.230488],[121.400238,31.230521],[121.400229,31.23055],[121.40022,31.230579],[121.400212,31.230607],[121.400203,31.230635],[121.400193,31.230665],[121.400183,31.230695],[121.400172,31.230729],[121.400161,31.230765],[121.400151,31.230798],[121.400141,31.230831],[121.400132,31.230863],[121.400123,31.230891],[121.400112,31.230921],[121.400099,31.230951],[121.400084,31.230978],[121.400066,31.231006],[121.400045,31.231035],[121.400021,31.231062],[121.399993,31.231089],[121.399964,31.231113],[121.399933,31.231136],[121.3999,31.231156],[121.399867,31.231172],[121.399831,31.231185],[121.399791,31.231193],[121.399751,31.231197],[121.399713,31.231198],[121.399672,31.231196],[121.399631,31.23119],[121.399595,31.231181],[121.399558,31.231168],[121.399523,31.231151],[121.399495,31.231135],[121.399467,31.231118],[121.399437,31.231097],[121.399412,31.231077],[121.399388,31.231052],[121.399365,31.231023],[121.39935,31.230996],[121.39934,31.230969],[121.399334,31.230941],[121.399331,31.230907],[121.39933,31.23087],[121.399328,31.230832],[121.399327,31.230791],[121.39933,31.23074],[121.399334,31.230691],[121.39934,31.230655],[121.399346,31.230622],[121.399353,31.230589],[121.399359,31.230559],[121.399369,31.230528],[121.399379,31.230494],[121.399389,31.230463],[121.399399,31.23043],[121.399408,31.230398],[121.399417,31.230368],[121.399426,31.230338],[121.399435,31.230311],[121.399445,31.23028],[121.399457,31.230247],[121.399469,31.230215],[121.399484,31.230172],[121.3995,31.230126],[121.399513,31.23009],[121.399527,31.230055],[121.399542,31.230019],[121.399557,31.229986],[121.399574,31.229957],[121.399594,31.22993],[121.399616,31.229903],[121.399643,31.229873],[121.399676,31.229842],[121.39971,31.229816],[121.399745,31.229795],[121.39978,31.229778],[121.399821,31.229764],[121.399862,31.229754],[121.399898,31.229749],[121.399944,31.229747],[121.399993,31.229748],[121.400035,31.229752],[121.400072,31.229758],[121.400105,31.229766],[121.40014,31.229777],[121.400174,31.229792],[121.400207,31.22981],[121.400238,31.229831],[121.400263,31.229852],[121.400286,31.229876],[121.400306,31.229902],[121.400322,31.229929],[121.400336,31.22996],[121.400349,31.229993],[121.400358,31.230024],[121.400363,31.230056],[121.400364,31.2301],[121.400358,31.230148],[121.40035,31.230185],[121.400338,31.230222],[121.400326,31.230258],[121.400315,31.230289],[121.400303,31.23032],[121.400291,31.230354],[121.400279,31.230389],[121.400269,31.230422],[121.400259,31.230455],[121.400249,31.230489],[121.400238,31.230524],[121.400227,31.230558],[121.400218,31.23059],[121.400209,31.230626],[121.400201,31.230661],[121.400193,31.230693],[121.400184,31.230727],[121.400172,31.230761],[121.40016,31.230793],[121.40015,31.230823],[121.400138,31.230855],[121.400127,31.230888],[121.400116,31.23092],[121.400102,31.230953],[121.400087,31.230984],[121.40007,31.231012],[121.40005,31.23104],[121.400027,31.231067],[121.399999,31.231095],[121.399967,31.231121],[121.399935,31.231142],[121.3999,31.231163],[121.399862,31.23118],[121.399813,31.231193],[121.399758,31.231201],[121.399713,31.231202],[121.399669,31.231197],[121.399625,31.231189],[121.399587,31.23118],[121.399548,31.231164],[121.39951,31.231146],[121.399477,31.231126],[121.399444,31.231103],[121.399414,31.231078],[121.399391,31.231054],[121.39937,31.231025],[121.399353,31.230994],[121.399342,31.230967],[121.399336,31.230937],[121.399333,31.230904],[121.399332,31.230873],[121.399333,31.230839],[121.399336,31.230803],[121.39934,31.230771],[121.399344,31.230735],[121.39935,31.230698],[121.399357,31.230664],[121.399365,31.23063],[121.399373,31.230594],[121.399379,31.23056],[121.399384,31.230524],[121.399389,31.230489],[121.399395,31.230454],[121.399402,31.230423],[121.399411,31.23039],[121.399421,31.230356],[121.39943,31.230324],[121.39944,31.230293],[121.399451,31.230253],[121.399463,31.23021],[121.399475,31.230173],[121.399487,31.23014],[121.3995,31.230109],[121.399513,31.230077],[121.399526,31.230046],[121.399542,31.230013],[121.399559,31.22998],[121.399577,31.22995],[121.399598,31.229922],[121.39962,31.229894],[121.399647,31.229866],[121.399676,31.229839],[121.399706,31.229817],[121.399741,31.229797],[121.399777,31.22978],[121.399823,31.229766],[121.399874,31.229757],[121.399915,31.229753],[121.399958,31.229755],[121.400002,31.229758],[121.400043,31.229764],[121.400088,31.229773],[121.400132,31.229786],[121.400171,31.229801],[121.400206,31.229818],[121.40024,31.229839],[121.40027,31.229865],[121.400295,31.229893],[121.400317,31.229925],[121.400336,31.229959],[121.400348,31.229991],[121.400356,31.230022],[121.40036,31.230053],[121.40036,31.230082],[121.400359,31.230116],[121.400355,31.230152],[121.400348,31.230183],[121.400339,31.230216],[121.400329,31.23025],[121.400318,31.230281],[121.400306,31.230315],[121.400294,31.23035],[121.400283,31.230381],[121.400273,31.230414],[121.400263,31.230447],[121.400254,31.230477],[121.400245,31.230505],[121.400236,31.230536],[121.400227,31.230569],[121.400218,31.230603],[121.400208,31.230638],[121.400198,31.230669],[121.400188,31.230702],[121.400177,31.230733],[121.400166,31.23076],[121.400153,31.23079],[121.40014,31.230823],[121.400129,31.230856],[121.400117,31.23089],[121.400103,31.230926],[121.400086,31.230961],[121.400068,31.230996],[121.400048,31.23103],[121.400022,31.231066],[121.399993,31.231101],[121.399963,31.23113],[121.399929,31.231154],[121.399894,31.231175],[121.399851,31.231193],[121.3998,31.231205],[121.399752,31.231211],[121.399709,31.231212],[121.399663,31.231208],[121.399617,31.2312],[121.399578,31.231189],[121.399539,31.231173],[121.399502,31.231153],[121.399471,31.231133],[121.399441,31.231112],[121.399412,31.231087],[121.399387,31.231061],[121.399364,31.231031],[121.399346,31.230999],[121.399334,31.23097],[121.399326,31.230939],[121.399321,31.230907],[121.399319,31.230877],[121.399321,31.230842],[121.399326,31.230805],[121.399334,31.230771],[121.399343,31.230734],[121.399352,31.230695],[121.399359,31.230658],[121.399367,31.230621],[121.399375,31.230585],[121.399382,31.230552],[121.399389,31.230517],[121.399396,31.230483],[121.399403,31.230446],[121.39941,31.230407],[121.399416,31.230369],[121.399424,31.23033],[121.399433,31.230291],[121.399442,31.230258],[121.399451,31.230226],[121.399462,31.230196],[121.399472,31.230168],[121.399484,31.230136],[121.399495,31.230102],[121.399507,31.230067],[121.399522,31.230024],[121.399539,31.229987],[121.399556,31.229963],[121.399577,31.229937],[121.3996,31.22991],[121.399625,31.229883],[121.399653,31.229856],[121.399681,31.229833],[121.399714,31.229811],[121.399751,31.229792],[121.399789,31.229777],[121.399828,31.229766],[121.399872,31.229759],[121.399915,31.229756],[121.399955,31.229757],[121.399999,31.229761],[121.400045,31.229767],[121.400088,31.229776],[121.400129,31.229787],[121.400168,31.229801],[121.400207,31.22982],[121.400239,31.229842],[121.400268,31.229869],[121.400293,31.229898],[121.400313,31.229928],[121.400331,31.229962],[121.400344,31.23],[121.400353,31.230036],[121.400357,31.230075],[121.400358,31.230124],[121.400352,31.230177],[121.400342,31.23022],[121.400331,31.230255],[121.400318,31.230289],[121.400306,31.230324],[121.400295,31.230356],[121.400283,31.230391],[121.40027,31.230427],[121.400258,31.230463],[121.400246,31.2305],[121.400236,31.230533],[121.400226,31.23057],[121.400215,31.230608],[121.400204,31.230643],[121.400193,31.230681],[121.400182,31.230718],[121.400171,31.230751],[121.400161,31.230786],[121.40015,31.230822],[121.400139,31.230859],[121.400127,31.230894],[121.400112,31.230932],[121.400096,31.230971],[121.400079,31.231006],[121.400058,31.231041],[121.400031,31.231075],[121.4,31.231105],[121.399966,31.231133],[121.399933,31.231156],[121.399895,31.231177],[121.399853,31.231195],[121.399811,31.231207],[121.399766,31.231214],[121.399721,31.231217],[121.399665,31.231211],[121.399607,31.231198],[121.399565,31.231183],[121.399523,31.231161],[121.399483,31.231136],[121.399448,31.23111],[121.399416,31.231081],[121.399386,31.23105],[121.399363,31.23102],[121.399345,31.23099],[121.399334,31.230959],[121.399327,31.230922],[121.399322,31.230884],[121.399318,31.230848],[121.399318,31.23081],[121.399321,31.230772],[121.399326,31.230739],[121.399333,31.230696],[121.399342,31.23065],[121.399352,31.230612],[121.399361,31.230575],[121.399369,31.23054],[121.399377,31.230504],[121.399384,31.230467],[121.399391,31.230433],[121.399398,31.230396],[121.399406,31.230358],[121.399416,31.230321],[121.399428,31.230284],[121.39944,31.230249],[121.399453,31.230211],[121.399467,31.230172],[121.39948,31.230137],[121.399492,31.230099],[121.399501,31.230059],[121.399507,31.230018],[121.399513,31.229974],[121.399523,31.229931],[121.399538,31.229898],[121.399557,31.229876],[121.399579,31.229858],[121.399591,31.229846]]}}]}