{"type":"FeatureCollection","features":[{"type":"Feature","properties":{"id":"2026-03-28_running_24","type":"running","date":"2026-03-28"},"geometry":{"type":"LineString","coordinates":[[121.399537,31.230002],[121.399559,31.229966],[121.399565,31.229955],[121.399581,31.229933],[121.399598,31.229911],[121.39962,31.229888],[121.399645,31.229867],[121.399671,31.229846],[121.399696,31.229828],[121.399723,31.22981],[121.399752,31.229794],[121.399781,31.229781],[121.399809,31.229771],[121.399839,31.229762],[121.39987,31.229756],[121.399901,31.229752],[121.399931,31.229751],[121.399961,31.229752],[121.399991,31.229756],[121.400021,31.229762],[121.400052,31.229771],[121.400081,31.229781],[121.40011,31.229794],[121.400136,31.229807],[121.400162,31.229822],[121.400188,31.229839],[121.400212,31.229857],[121.400234,31.229878],[121.400251,31.229899],[121.400268,31.229921],[121.400282,31.229945],[121.400296,31.229972],[121.400308,31.23],[121.400317,31.230029],[121.400322,31.23006],[121.400324,31.230093],[121.400324,31.230128],[121.40032,31.23016],[121.400315,31.230189],[121.400308,31.230214],[121.400301,31.23024],[121.400294,31.230266],[121.400286,31.230292],[121.400279,31.230315],[121.400272,31.230339],[121.400265,31.230364],[121.400256,31.230393],[121.400247,31.230421],[121.400239,31.23045],[121.400231,31.230477],[121.400223,31.230505],[121.400215,31.230533],[121.400207,31.230561],[121.400199,31.230588],[121.400191,31.230615],[121.400182,31.230642],[121.400174,31.230668],[121.400167,31.230693],[121.40016,31.230716],[121.400153,31.230738],[121.400145,31.230763],[121.400137,31.230788],[121.40013,31.230813],[121.400123,31.230832],[121.400116,31.230854],[121.400108,31.230876],[121.4001,31.230901],[121.40009,31.230926],[121.400079,31.230951],[121.400065,31.230979],[121.40005,31.231005],[121.400032,31.231031],[121.400014,31.231053],[121.399993,31.231075],[121.399971,31.231095],[121.399947,31.231115],[121.399923,31.231132],[121.399896,31.231149],[121.39987,31.231163],[121.399843,31.231177],[121.399817,31.231187],[121.399789,31.231195],[121.399761,31.231201],[121.399732,31.231205],[121.399702,31.231206],[121.399669,31.231205],[121.399636,31.231201],[121.399604,31.231195],[121.399572,31.231186],[121.399542,31.231175],[121.399511,31.231162],[121.399483,31.231148],[121.399456,31.231132],[121.399434,31.231115],[121.399412,31.231095],[121.399393,31.231074],[121.399375,31.231051],[121.39936,31.231028],[121.399345,31.231004],[121.399332,31.230979],[121.399323,31.230954],[121.399315,31.230926],[121.399311,31.230899],[121.399308,31.230865],[121.399308,31.230834],[121.39931,31.230802],[121.399315,31.230774],[121.39932,31.230746],[121.399327,31.230719],[121.399334,31.230694],[121.399341,31.23067],[121.399349,31.230645],[121.399356,31.23062],[121.399364,31.230594],[121.399372,31.230569],[121.399381,31.230544],[121.39939,31.230519],[121.399399,31.230492],[121.399409,31.230465],[121.399418,31.230438],[121.399427,31.23041],[121.399435,31.230383],[121.399444,31.230356],[121.399453,31.230331],[121.399462,31.230306],[121.399472,31.230279],[121.399481,31.230253],[121.399489,31.230227],[121.399497,31.2302],[121.399506,31.230173],[121.399515,31.230146],[121.399525,31.230119],[121.399534,31.230092],[121.399544,31.230066],[121.399553,31.23004],[121.39956,31.230014],[121.399568,31.229988],[121.399576,31.229965],[121.399587,31.229942],[121.399601,31.229919],[121.399619,31.229896],[121.39964,31.229876],[121.399662,31.229857],[121.399685,31.229841],[121.399708,31.229825],[121.399733,31.22981],[121.399758,31.229797],[121.399786,31.229785],[121.399815,31.229774],[121.399846,31.229764],[121.399876,31.229758],[121.399906,31.229755],[121.399936,31.229754],[121.399967,31.229756],[121.399997,31.22976],[121.400027,31.229766],[121.400056,31.229774],[121.400083,31.229784],[121.400109,31.229797],[121.400135,31.229811],[121.40016,31.229828],[121.400183,31.229845],[121.400206,31.229864],[121.400227,31.229886],[121.400246,31.229908],[121.400261,31.229931],[121.400273,31.229955],[121.400283,31.22998],[121.400291,31.230007],[121.400297,31.230036],[121.400301,31.230067],[121.400302,31.230102],[121.400301,31.230134],[121.400297,31.230163],[121.400292,31.230188],[121.400286,31.230212],[121.40028,31.230234],[121.400274,31.230255],[121.400269,31.230275],[121.400262,31.230299],[121.400255,31.230323],[121.400248,31.23035],[121.40024,31.230377],[121.400233,31.230404],[121.400227,31.230428],[121.400221,31.23045],[121.400214,31.230474],[121.400208,31.230499],[121.400201,31.230523],[121.400194,31.230548],[121.400186,31.230576],[121.400179,31.230603],[121.400171,31.23063],[121.400164,31.230657],[121.400157,31.230683],[121.400149,31.230709],[121.400143,31.230733],[121.400136,31.23076],[121.400129,31.230785],[121.400122,31.23081],[121.400116,31.230832],[121.400108,31.230857],[121.4001,31.230882],[121.400091,31.230907],[121.400082,31.230931],[121.400068,31.230961],[121.400051,31.230993],[121.400031,31.231025],[121.400009,31.231052],[121.399986,31.231076],[121.399963,31.231097],[121.399939,31.231115],[121.399914,31.231132],[121.399887,31.231147],[121.39986,31.231161],[121.399831,31.231172],[121.399801,31.231182],[121.399769,31.23119],[121.399737,31.231195],[121.399703,31.231198],[121.39967,31.231198],[121.399636,31.231195],[121.399604,31.231191],[121.399573,31.231183],[121.399545,31.231174],[121.399514,31.231161],[121.399486,31.231147],[121.399459,31.231131],[121.399436,31.231114],[121.399416,31.231093],[121.399397,31.231071],[121.399381,31.231048],[121.399366,31.231023],[121.399352,31.230998],[121.39934,31.230971],[121.39933,31.230944],[121.399322,31.230917],[121.399318,31.230889],[121.399316,31.23086],[121.399316,31.23083],[121.399317,31.230798],[121.399322,31.230767],[121.399328,31.230737],[121.399336,31.230709],[121.399344,31.230682],[121.399353,31.230655],[121.399363,31.230629],[121.399373,31.230601],[121.399383,31.230573],[121.399392,31.230546],[121.3994,31.230518],[121.399408,31.230491],[121.399416,31.230463],[121.399423,31.230436],[121.39943,31.230408],[121.399436,31.230381],[121.399443,31.230352],[121.399451,31.230325],[121.399459,31.2303],[121.399468,31.230274],[121.399478,31.230249],[121.399487,31.230223],[121.399495,31.230197],[121.399505,31.23017],[121.399514,31.230143],[121.399524,31.230115],[121.399535,31.230086],[121.399545,31.230057],[121.399555,31.230028],[121.399565,31.230002],[121.399577,31.229973],[121.399591,31.229946],[121.399608,31.229919],[121.399628,31.229895],[121.399649,31.229873],[121.399675,31.229851],[121.3997,31.229831],[121.399727,31.229814],[121.399753,31.2298],[121.399781,31.229786],[121.399809,31.229775],[121.399838,31.229765],[121.399864,31.229759],[121.399893,31.229755],[121.399922,31.229753],[121.399951,31.229754],[121.399979,31.229757],[121.40001,31.229762],[121.400041,31.229769],[121.400072,31.229778],[121.400103,31.22979],[121.400132,31.229804],[121.400159,31.229818],[121.400182,31.229833],[121.400203,31.229849],[121.400222,31.229866],[121.400239,31.229886],[121.400255,31.229908],[121.400269,31.229932],[121.400281,31.229957],[121.400292,31.229984],[121.400299,31.230011],[121.400304,31.230039],[121.400307,31.230069],[121.400308,31.230101],[121.400307,31.230135],[121.400303,31.23017],[121.400298,31.2302],[121.400291,31.230226],[121.400285,31.230246],[121.40028,31.230265],[121.400273,31.230286],[121.400266,31.230308],[121.400259,31.230333],[121.400252,31.230357],[121.400245,31.230381],[121.400238,31.230405],[121.400231,31.230428],[121.400224,31.230454],[121.400217,31.230479],[121.400209,31.230504],[121.400202,31.23053],[121.400194,31.230555],[121.400187,31.23058],[121.40018,31.230604],[121.400174,31.230627],[121.400167,31.230653],[121.40016,31.230679],[121.400153,31.230705],[121.400146,31.23073],[121.400139,31.230755],[121.400131,31.230783],[121.400123,31.230811],[121.400115,31.230838],[121.400107,31.230862],[121.400099,31.230887],[121.40009,31.230913],[121.400079,31.230939],[121.400068,31.230965],[121.400052,31.230993],[121.400033,31.231021],[121.40001,31.23105],[121.399986,31.231074],[121.399962,31.231096],[121.399936,31.231115],[121.39991,31.231133],[121.399882,31.231149],[121.399855,31.231161],[121.399827,31.231171],[121.399797,31.231179],[121.399768,31.231186],[121.399736,31.23119],[121.399704,31.231191],[121.399671,31.231191],[121.39964,31.231187],[121.399608,31.231182],[121.399578,31.231174],[121.39955,31.231164],[121.399522,31.231153],[121.399496,31.23114],[121.39947,31.231126],[121.399449,31.231111],[121.399428,31.231093],[121.399409,31.231074],[121.399391,31.231054],[121.399378,31.231033],[121.399366,31.231012],[121.399356,31.230989],[121.399346,31.230965],[121.399338,31.230939],[121.399332,31.230912],[121.399328,31.230884],[121.399327,31.230855],[121.399329,31.230822],[121.399334,31.230788],[121.399341,31.230752],[121.399348,31.230722],[121.399356,31.230696],[121.399362,31.230674],[121.399369,31.230651],[121.399376,31.230626],[121.399384,31.230597],[121.399392,31.230568],[121.3994,31.230539],[121.399407,31.230514],[121.399413,31.230488],[121.399421,31.230461],[121.399428,31.230434],[121.399435,31.230407],[121.399441,31.230384],[121.399448,31.230361],[121.399454,31.230336],[121.399461,31.230312],[121.399468,31.230286],[121.399475,31.230259],[121.399482,31.230232],[121.39949,31.230204],[121.399497,31.230178],[121.399504,31.230152],[121.39951,31.230129],[121.399518,31.230102],[121.399525,31.230076],[121.399533,31.230049],[121.399542,31.230024],[121.399551,31.23],[121.399561,31.229977],[121.399576,31.229949],[121.399595,31.229921],[121.399617,31.229893],[121.39964,31.229869],[121.399665,31.229848],[121.39969,31.229828],[121.399716,31.229812],[121.399745,31.229797],[121.399774,31.229784],[121.399804,31.229774],[121.399833,31.229766],[121.399863,31.22976],[121.399893,31.229756],[121.399924,31.229754],[121.399954,31.229755],[121.399985,31.229757],[121.400015,31.229762],[121.400045,31.229769],[121.400074,31.229778],[121.400101,31.229789],[121.400128,31.229803],[121.400152,31.229818],[121.400174,31.229834],[121.400192,31.229851],[121.40021,31.229869],[121.400229,31.22989],[121.400247,31.229912],[121.400264,31.229936],[121.400279,31.229959],[121.400292,31.229985],[121.400302,31.230011],[121.400308,31.230039],[121.400312,31.230067],[121.400314,31.230098],[121.400314,31.23013],[121.400311,31.230161],[121.400305,31.230192],[121.400299,31.23022],[121.400291,31.230248],[121.400284,31.230272],[121.400276,31.230296],[121.400268,31.23032],[121.400261,31.230345],[121.400253,31.23037],[121.400246,31.230393],[121.400238,31.23042],[121.40023,31.230446],[121.400222,31.230473],[121.400215,31.230499],[121.400209,31.230524],[121.400201,31.230552],[121.400194,31.230576],[121.400187,31.230603],[121.40018,31.230628],[121.400172,31.230655],[121.400165,31.230681],[121.400157,31.230705],[121.40015,31.230729],[121.400143,31.230751],[121.400134,31.230776],[121.400126,31.2308],[121.400117,31.230824],[121.400109,31.230848],[121.4001,31.230871],[121.400091,31.230894],[121.400083,31.230914],[121.400072,31.230935],[121.40006,31.23096],[121.400042,31.230988],[121.400021,31.231016],[121.399996,31.231045],[121.399972,31.23107],[121.399946,31.231092],[121.399919,31.231111],[121.399888,31.23113],[121.399856,31.231145],[121.399823,31.231158],[121.399793,31.231167],[121.399764,31.231175],[121.399734,31.231179],[121.399703,31.231181],[121.399671,31.231179],[121.399638,31.231176],[121.399606,31.23117],[121.399574,31.231162],[121.399544,31.231153],[121.399516,31.231142],[121.39949,31.23113],[121.399468,31.231117],[121.399449,31.231104],[121.399429,31.231087],[121.39941,31.231068],[121.399393,31.231047],[121.399379,31.231025],[121.399367,31.231002],[121.399355,31.230976],[121.399346,31.230948],[121.399338,31.230918],[121.399333,31.230889],[121.399331,31.230857],[121.399332,31.230825],[121.399334,31.23079],[121.399338,31.23076],[121.399343,31.230732],[121.399349,31.23071],[121.399356,31.230685],[121.399363,31.23066],[121.39937,31.230634],[121.399377,31.230608],[121.399385,31.230582],[121.399392,31.230556],[121.399399,31.230529],[121.399406,31.230503],[121.399413,31.230476],[121.39942,31.230451],[121.399427,31.230425],[121.399434,31.230396],[121.399442,31.230367],[121.39945,31.230336],[121.399458,31.230309],[121.399464,31.230282],[121.399471,31.230258],[121.399477,31.230234],[121.399484,31.230208],[121.399492,31.230181],[121.3995,31.230154],[121.399508,31.230127],[121.399515,31.230101],[121.399523,31.230076],[121.399531,31.230052],[121.399538,31.23003],[121.399547,31.230008],[121.399557,31.229982],[121.399571,31.229954],[121.399588,31.229925],[121.399608,31.229898],[121.399629,31.229875],[121.399649,31.229854],[121.399671,31.229835],[121.399695,31.229818],[121.399719,31.229803],[121.399747,31.22979],[121.399775,31.229779],[121.399804,31.229769],[121.399832,31.229763],[121.399862,31.229758],[121.399893,31.229754],[121.399925,31.229753],[121.399957,31.229754],[121.399988,31.229758],[121.400019,31.229763],[121.400049,31.22977],[121.400079,31.22978],[121.400109,31.229791],[121.400137,31.229805],[121.400164,31.229822],[121.400191,31.229841],[121.400215,31.229861],[121.400237,31.229883],[121.400255,31.229905],[121.400271,31.229929],[121.400284,31.229953],[121.400294,31.229978],[121.400302,31.230004],[121.400308,31.230032],[121.400312,31.230059],[121.400314,31.230092],[121.400314,31.230124],[121.400312,31.230157],[121.400306,31.230187],[121.4003,31.230213],[121.400292,31.23024],[121.400285,31.230263],[121.400277,31.230288],[121.40027,31.230312],[121.400262,31.230339],[121.400254,31.230366],[121.400246,31.230392],[121.400239,31.230416],[121.400232,31.230442],[121.400223,31.230473],[121.400213,31.230508],[121.400203,31.230542],[121.400194,31.230575],[121.400185,31.230603],[121.400177,31.230632],[121.400168,31.23066],[121.40016,31.230688],[121.400152,31.230715],[121.400143,31.230742],[121.400135,31.230768],[121.400127,31.230793],[121.400119,31.230815],[121.400112,31.230836],[121.400103,31.230859],[121.400095,31.230882],[121.400085,31.230905],[121.400073,31.230931],[121.400059,31.230958],[121.400042,31.230988],[121.400022,31.231015],[121.399998,31.231042],[121.399972,31.231068],[121.399945,31.23109],[121.399918,31.231109],[121.39989,31.231124],[121.399861,31.231138],[121.399832,31.23115],[121.399801,31.231159],[121.39977,31.231167],[121.399738,31.231172],[121.399705,31.231173],[121.39967,31.231173],[121.399635,31.231171],[121.399602,31.231166],[121.399568,31.231158],[121.399532,31.231147],[121.3995,31.231134],[121.399472,31.23112],[121.399449,31.231104],[121.399427,31.231085],[121.399407,31.231066],[121.399389,31.231043],[121.399373,31.231021],[121.39936,31.230997],[121.39935,31.230973],[121.399341,31.230947],[121.399334,31.23092],[121.39933,31.230892],[121.399329,31.230864],[121.399329,31.230834],[121.399331,31.230805],[121.399336,31.230774],[121.399342,31.230745],[121.399349,31.230717],[121.399356,31.230689],[121.399364,31.230659],[121.399372,31.230629],[121.399381,31.230594],[121.399389,31.230561],[121.399397,31.230526],[121.399404,31.230499],[121.39941,31.230472],[121.399417,31.230446],[121.399424,31.230419],[121.399432,31.23039],[121.39944,31.230363],[121.399449,31.230334],[121.399457,31.230305],[121.399465,31.230278],[121.399473,31.230251],[121.399481,31.230224],[121.399489,31.230197],[121.399496,31.23017],[121.399504,31.230143],[121.399513,31.230115],[121.399522,31.230086],[121.399531,31.230057],[121.399541,31.23003],[121.399552,31.230002],[121.399563,31.229975],[121.399577,31.229948],[121.399593,31.229924],[121.399611,31.2299],[121.399632,31.229878],[121.399653,31.229858],[121.399677,31.229838],[121.399703,31.22982],[121.39973,31.229804],[121.39976,31.229791],[121.39979,31.229779],[121.399821,31.22977],[121.399853,31.229763],[121.399886,31.229758],[121.399918,31.229756],[121.399951,31.229757],[121.399983,31.22976],[121.400014,31.229765],[121.400046,31.229772],[121.400077,31.229781],[121.400107,31.229791],[121.400135,31.229804],[121.400163,31.22982],[121.400188,31.229838],[121.400213,31.229858],[121.400235,31.229881],[121.400258,31.229908],[121.400277,31.229936],[121.400292,31.229965],[121.400302,31.229993],[121.40031,31.230024],[121.400315,31.230057],[121.400317,31.23009],[121.400315,31.230128],[121.400312,31.230158],[121.400307,31.230186],[121.400301,31.230207],[121.400294,31.23023],[121.400287,31.230257],[121.400279,31.230283],[121.400271,31.230308],[121.400263,31.230332],[121.400255,31.230357],[121.400246,31.230385],[121.400238,31.230413],[121.400229,31.230441],[121.400221,31.23047],[121.400212,31.230498],[121.400204,31.230526],[121.400197,31.230552],[121.400189,31.230579],[121.400181,31.230606],[121.400173,31.230635],[121.400165,31.230665],[121.400157,31.230693],[121.400149,31.230721],[121.400142,31.230748],[121.400134,31.230774],[121.400127,31.230798],[121.400118,31.230824],[121.40011,31.23085],[121.400101,31.230876],[121.400092,31.230901],[121.400082,31.230927],[121.400071,31.230952],[121.400058,31.230977],[121.40004,31.231005],[121.400019,31.231033],[121.399996,31.231058],[121.399972,31.231081],[121.399947,31.231102],[121.39992,31.231121],[121.399893,31.231137],[121.399863,31.23115],[121.399833,31.231161],[121.399802,31.23117],[121.39977,31.231175],[121.399736,31.231178],[121.3997,31.231179],[121.399662,31.231178],[121.399624,31.231176],[121.399589,31.231171],[121.399558,31.231164],[121.399527,31.231153],[121.399498,31.23114],[121.399471,31.231125],[121.39945,31.231109],[121.399428,31.23109],[121.399408,31.23107],[121.399389,31.231047],[121.399373,31.231025],[121.399358,31.231001],[121.399346,31.230975],[121.399336,31.230949],[121.399328,31.230923],[121.399323,31.230895],[121.399319,31.230866],[121.399318,31.230837],[121.399321,31.230808],[121.399326,31.23078],[121.399333,31.230751],[121.399341,31.230724],[121.399348,31.230697],[121.399357,31.230669],[121.399365,31.230642],[121.399374,31.230615],[121.399384,31.230586],[121.399392,31.230557],[121.399399,31.230528],[121.399406,31.2305],[121.399413,31.230473],[121.399419,31.230445],[121.399426,31.230418],[121.399433,31.230389],[121.399441,31.23036],[121.399449,31.230332],[121.399457,31.230303],[121.399466,31.230275],[121.399474,31.230248],[121.399483,31.23022],[121.399491,31.230194],[121.3995,31.230166],[121.39951,31.23014],[121.399519,31.230113],[121.399529,31.230086],[121.399538,31.230058],[121.399548,31.23003],[121.399558,31.230004],[121.399568,31.229978],[121.399582,31.229951],[121.399597,31.229925],[121.399614,31.229901],[121.399633,31.229879],[121.399653,31.229859],[121.399677,31.229839],[121.399703,31.229821],[121.399732,31.229805],[121.399762,31.229792],[121.399793,31.229782],[121.399825,31.229773],[121.399856,31.229767],[121.399887,31.229763],[121.399919,31.229761],[121.399951,31.229763],[121.399982,31.229767],[121.400013,31.229774],[121.400044,31.229782],[121.400075,31.229791],[121.400106,31.229801],[121.400136,31.229814],[121.400164,31.229828],[121.400192,31.229846],[121.400218,31.229865],[121.400242,31.229886],[121.400262,31.22991],[121.400278,31.229934],[121.400291,31.229961],[121.400301,31.229989],[121.400309,31.230019],[121.400314,31.230052],[121.400318,31.230087],[121.400318,31.23012],[121.400316,31.230151],[121.400311,31.230179],[121.400305,31.230206],[121.400299,31.23023],[121.400292,31.230257],[121.400284,31.230284],[121.400275,31.230312],[121.400266,31.230339],[121.400258,31.230365],[121.400249,31.230391],[121.400242,31.230415],[121.400234,31.230441],[121.400225,31.230467],[121.400217,31.230493],[121.400208,31.230521],[121.400198,31.230549],[121.400189,31.230578],[121.40018,31.230606],[121.40017,31.230634],[121.400161,31.230662],[121.400152,31.230689],[121.400142,31.230717],[121.400133,31.230744],[121.400125,31.230771],[121.400116,31.230798],[121.400107,31.230824],[121.400099,31.230849],[121.400091,31.230874],[121.400083,31.230898],[121.400074,31.230923],[121.400062,31.230951],[121.400047,31.230982],[121.40003,31.23101],[121.400011,31.231037],[121.399989,31.231063],[121.399966,31.231086],[121.399941,31.231107],[121.399915,31.231125],[121.399888,31.23114],[121.399859,31.231153],[121.399822,31.231164],[121.399785,31.231172],[121.399745,31.231178],[121.399708,31.231181],[121.399671,31.231181],[121.399635,31.23118],[121.3996,31.231175],[121.399567,31.231168],[121.399536,31.231158],[121.399507,31.231145],[121.399479,31.23113],[121.399453,31.231114],[121.39943,31.231096],[121.399409,31.231077],[121.39939,31.231057],[121.399374,31.231034],[121.39936,31.23101],[121.399348,31.230986],[121.399338,31.23096],[121.399329,31.230933],[121.399323,31.230905],[121.399319,31.230877],[121.399319,31.230848],[121.399322,31.230819],[121.399327,31.23079],[121.399334,31.230762],[121.399342,31.230735],[121.39935,31.230706],[121.399357,31.230678],[121.399364,31.230649],[121.399371,31.230621],[121.399378,31.230591],[121.399386,31.230561],[121.399393,31.230534],[121.399401,31.230505],[121.399408,31.230476],[121.399416,31.230447],[121.399423,31.230418],[121.399431,31.230389],[121.39944,31.230359],[121.399448,31.23033],[121.399458,31.230302],[121.399468,31.230273],[121.399477,31.230247],[121.399487,31.23022],[121.399497,31.230193],[121.399507,31.230165],[121.399516,31.230136],[121.399524,31.230108],[121.399533,31.23008],[121.399541,31.230052],[121.39955,31.230025],[121.39956,31.229999],[121.399572,31.229973],[121.399585,31.229948],[121.3996,31.229923],[121.399617,31.229898],[121.399635,31.229876],[121.399657,31.229854],[121.39968,31.229834],[121.399707,31.229816],[121.399735,31.229801],[121.399766,31.229787],[121.399798,31.229776],[121.399831,31.229766],[121.399864,31.229759],[121.399895,31.229754],[121.399928,31.229753],[121.39996,31.229755],[121.399992,31.229759],[121.400024,31.229765],[121.400057,31.229773],[121.400091,31.229782],[121.400123,31.229793],[121.400155,31.229806],[121.400185,31.229821],[121.40021,31.229838],[121.400234,31.229858],[121.400255,31.22988],[121.400273,31.229904],[121.400288,31.229928],[121.4003,31.229954],[121.400308,31.229979],[121.400315,31.230005],[121.400319,31.230031],[121.400321,31.230058],[121.400322,31.230086],[121.40032,31.230115],[121.400315,31.230145],[121.400309,31.230174],[121.400302,31.230203],[121.400294,31.230232],[121.400285,31.230262],[121.400276,31.230293],[121.400267,31.230324],[121.400259,31.230354],[121.40025,31.230385],[121.400242,31.230415],[121.400233,31.230446],[121.400223,31.230475],[121.400213,31.230504],[121.400202,31.230535],[121.400191,31.230565],[121.40018,31.230595],[121.400169,31.230627],[121.400159,31.230658],[121.400149,31.230689],[121.400141,31.230718],[121.400133,31.230749],[121.400126,31.23078],[121.400118,31.230809],[121.400109,31.230839],[121.4001,31.230867],[121.40009,31.230898],[121.400078,31.230927],[121.400065,31.230957],[121.40005,31.230984],[121.400034,31.231011],[121.400014,31.231037],[121.399993,31.231062],[121.39997,31.231084],[121.399945,31.231104],[121.399919,31.231122],[121.39989,31.231138],[121.39986,31.231151],[121.399826,31.231162],[121.39979,31.23117],[121.399752,31.231176],[121.399715,31.231178],[121.399677,31.231178],[121.39964,31.231176],[121.399604,31.231172],[121.399571,31.231165],[121.39954,31.231155],[121.39951,31.231143],[121.399482,31.23113],[121.399455,31.231114],[121.399433,31.231099],[121.399414,31.231083],[121.399396,31.231063],[121.39938,31.231043],[121.399366,31.231019],[121.399353,31.230995],[121.399342,31.230969],[121.399334,31.230942],[121.399327,31.230914],[121.399324,31.230886],[121.399323,31.230858],[121.399325,31.230829],[121.399329,31.230801],[121.399335,31.230772],[121.399342,31.230744],[121.399349,31.230714],[121.399356,31.230684],[121.399364,31.230655],[121.399371,31.230626],[121.399379,31.230597],[121.399388,31.230568],[121.399396,31.23054],[121.399405,31.230511],[121.399412,31.230481],[121.39942,31.230451],[121.399427,31.230419],[121.399435,31.230388],[121.399443,31.230356],[121.399451,31.230324],[121.399459,31.230293],[121.399469,31.230262],[121.39948,31.230231],[121.399492,31.230198],[121.399502,31.230168],[121.399512,31.230137],[121.39952,31.23011],[121.399527,31.230082],[121.399534,31.230056],[121.399542,31.23003],[121.399551,31.230004],[121.399562,31.229978],[121.399574,31.229951],[121.39959,31.229925],[121.399608,31.2299],[121.399628,31.229876],[121.399651,31.229854],[121.399676,31.229833],[121.399704,31.229815],[121.399733,31.229798],[121.399764,31.229784],[121.399799,31.229771],[121.399832,31.229761],[121.399866,31.229754],[121.399898,31.22975],[121.399931,31.229749],[121.399965,31.229751],[121.399996,31.229754],[121.40003,31.22976],[121.400063,31.229767],[121.400096,31.229777],[121.400128,31.229789],[121.400159,31.229804],[121.400188,31.22982],[121.400213,31.229839],[121.400235,31.229859],[121.400255,31.229881],[121.400272,31.229903],[121.400286,31.229927],[121.400298,31.229952],[121.400309,31.229981],[121.400318,31.230011],[121.400325,31.230042],[121.400329,31.230075],[121.40033,31.230108],[121.400328,31.230139],[121.400323,31.23017],[121.400317,31.230201],[121.40031,31.230231],[121.400302,31.230262],[121.400293,31.230293],[121.400283,31.230325],[121.400274,31.230354],[121.400264,31.230384],[121.400254,31.230413],[121.400243,31.230444],[121.400234,31.230472],[121.400225,31.2305],[121.400217,31.230526],[121.400208,31.230553],[121.400198,31.23058],[121.400188,31.230609],[121.400178,31.230638],[121.400168,31.230667],[121.400158,31.230697],[121.400149,31.230727],[121.400139,31.230756],[121.400129,31.230786],[121.400119,31.230815],[121.400109,31.230843],[121.400099,31.23087],[121.400089,31.230896],[121.400078,31.230921],[121.400066,31.230946],[121.400051,31.230971],[121.400034,31.230998],[121.400013,31.231024],[121.399991,31.231049],[121.399966,31.231072],[121.39994,31.231093],[121.399913,31.231112],[121.399884,31.231129],[121.399854,31.231144],[121.399822,31.231157],[121.399787,31.231166],[121.399751,31.231173],[121.399713,31.231177],[121.399675,31.231178],[121.399639,31.231178],[121.399604,31.231174],[121.399571,31.231167],[121.39954,31.231158],[121.39951,31.231147],[121.399481,31.231133],[121.399453,31.231117],[121.399428,31.231098],[121.399404,31.231078],[121.399383,31.231055],[121.399364,31.231029],[121.399349,31.231003],[121.399336,31.230976],[121.399328,31.230947],[121.399323,31.230918],[121.399321,31.230888],[121.399322,31.230859],[121.399325,31.230829],[121.399329,31.2308],[121.399334,31.23077],[121.399339,31.230741],[121.399345,31.23071],[121.399352,31.230682],[121.399359,31.230654],[121.399367,31.230626],[121.399376,31.230597],[121.399384,31.230568],[121.399392,31.230541],[121.3994,31.230511],[121.399407,31.230482],[121.399414,31.230452],[121.399421,31.230421],[121.399429,31.230391],[121.399437,31.230361],[121.399446,31.230331],[121.399456,31.230301],[121.399466,31.230271],[121.399476,31.230242],[121.399486,31.230213],[121.399496,31.230186],[121.399506,31.23016],[121.399516,31.230134],[121.399526,31.230107],[121.399535,31.230078],[121.399544,31.230049],[121.399553,31.230019],[121.399564,31.22999],[121.399576,31.229962],[121.399592,31.229934],[121.39961,31.229906],[121.39963,31.22988],[121.399652,31.229858],[121.399677,31.229838],[121.399703,31.229821],[121.399731,31.229805],[121.399759,31.229792],[121.399791,31.229781],[121.399823,31.229771],[121.399856,31.229763],[121.39989,31.229757],[121.399923,31.229754],[121.399956,31.229753],[121.399989,31.229755],[121.400023,31.229759],[121.400058,31.229766],[121.400094,31.229776],[121.400128,31.229789],[121.40016,31.229803],[121.40019,31.22982],[121.400217,31.229841],[121.400241,31.229865],[121.400263,31.229892],[121.400281,31.229921],[121.400297,31.22995],[121.400309,31.22998],[121.400319,31.230012],[121.400327,31.230049],[121.40033,31.230087],[121.40033,31.230124],[121.400326,31.230154],[121.400321,31.230183],[121.400314,31.230212],[121.400307,31.23024],[121.400298,31.230268],[121.40029,31.230296],[121.400281,31.230324],[121.400272,31.230352],[121.400262,31.23038],[121.400253,31.230409],[121.400243,31.230437],[121.400233,31.230466],[121.400224,31.230496],[121.400215,31.230522],[121.400206,31.23055],[121.400197,31.230578],[121.400187,31.230608],[121.400177,31.230638],[121.400168,31.230668],[121.400158,31.230698],[121.400148,31.230729],[121.400139,31.230758],[121.400129,31.230788],[121.400119,31.230816],[121.400109,31.230843],[121.400099,31.23087],[121.40009,31.230897],[121.400076,31.230926],[121.400059,31.230956],[121.400037,31.230988],[121.400013,31.231017],[121.399989,31.231044],[121.399963,31.231069],[121.399937,31.231091],[121.399909,31.23111],[121.39988,31.231128],[121.399848,31.231145],[121.399815,31.231158],[121.399779,31.231168],[121.399742,31.231175],[121.399705,31.231179],[121.399668,31.23118],[121.399632,31.231179],[121.399597,31.231175],[121.399563,31.231168],[121.39953,31.231159],[121.3995,31.231148],[121.399471,31.231133],[121.399445,31.231116],[121.399421,31.231096],[121.399401,31.231074],[121.399382,31.231049],[121.399366,31.231023],[121.399352,31.230993],[121.399339,31.230957],[121.399331,31.23092],[121.399326,31.230884],[121.399326,31.230853],[121.399327,31.230826],[121.399331,31.230798],[121.399335,31.230771],[121.399341,31.230742],[121.399347,31.230714],[121.399354,31.230684],[121.399361,31.230655],[121.399369,31.230625],[121.399377,31.230595],[121.399385,31.230565],[121.399392,31.230536],[121.399398,31.23051],[121.399405,31.230484],[121.399411,31.230458],[121.399419,31.230433],[121.399427,31.230405],[121.399437,31.230378],[121.399446,31.230347],[121.399456,31.230316],[121.399466,31.230285],[121.399475,31.230254],[121.399485,31.230224],[121.399494,31.230194],[121.399503,31.230164],[121.399513,31.230135],[121.399522,31.230107],[121.399531,31.230079],[121.399541,31.230051],[121.39955,31.230024],[121.39956,31.229997],[121.399572,31.229969],[121.399588,31.229939],[121.399611,31.229907],[121.399634,31.229879],[121.39966,31.229855],[121.399689,31.229833],[121.399718,31.229815],[121.39975,31.229798],[121.399782,31.229784],[121.399816,31.229773],[121.39985,31.229764],[121.399883,31.229759],[121.399918,31.229756],[121.399953,31.229756],[121.399988,31.229759],[121.400021,31.229764],[121.400054,31.22977],[121.400088,31.229779],[121.400121,31.22979],[121.400153,31.229804],[121.400182,31.229821],[121.400209,31.229841],[121.400234,31.229863],[121.400255,31.229887],[121.400274,31.229913],[121.40029,31.229941],[121.400303,31.229969],[121.400313,31.229999],[121.400321,31.230034],[121.400325,31.230073],[121.400325,31.230112],[121.400321,31.230148],[121.400315,31.230181],[121.400306,31.230214],[121.400297,31.230244],[121.400288,31.230273],[121.40028,31.230302],[121.400271,31.230335],[121.400262,31.230367],[121.400253,31.230398],[121.400244,31.230427],[121.400235,31.230456],[121.400225,31.230485],[121.400215,31.230514],[121.400206,31.230544],[121.400197,31.230575],[121.400188,31.230604],[121.40018,31.230634],[121.400171,31.230665],[121.400162,31.230696],[121.400151,31.230731],[121.400139,31.230767],[121.400128,31.230803],[121.400118,31.230831],[121.400109,31.230858],[121.4001,31.230884],[121.400089,31.230911],[121.400076,31.230939],[121.40006,31.230968],[121.400041,31.230996],[121.400021,31.231021],[121.4,31.231044],[121.399977,31.231064],[121.399953,31.231083],[121.399927,31.2311],[121.399899,31.231116],[121.399869,31.231131],[121.399835,31.231145],[121.3998,31.231156],[121.399762,31.231164],[121.399724,31.231169],[121.399683,31.231171],[121.399645,31.231169],[121.399608,31.231164],[121.399573,31.231156],[121.399539,31.231145],[121.399506,31.231132],[121.399474,31.231117],[121.399443,31.231098],[121.399415,31.231075],[121.399391,31.231049],[121.399373,31.231021],[121.399358,31.230992],[121.399347,31.230961],[121.39934,31.230929],[121.399337,31.230892],[121.399336,31.230854],[121.399338,31.230817],[121.399341,31.230784],[121.399346,31.230753],[121.399352,31.23072],[121.399359,31.230689],[121.399365,31.230657],[121.399372,31.230624],[121.39938,31.230591],[121.39939,31.230558],[121.3994,31.230526],[121.399409,31.230495],[121.399419,31.230465],[121.399428,31.230435],[121.399438,31.230405],[121.399448,31.230374],[121.399456,31.230344],[121.399466,31.230312],[121.399475,31.230281],[121.399487,31.230249],[121.399497,31.230218],[121.399507,31.230185],[121.399517,31.230153],[121.399527,31.23012],[121.399537,31.230089],[121.399548,31.230055],[121.399559,31.230023],[121.39957,31.229991],[121.399583,31.229961],[121.399599,31.229932],[121.399618,31.229904],[121.399641,31.229878],[121.399667,31.229855],[121.399694,31.229834],[121.399723,31.229817],[121.399753,31.229801],[121.399787,31.229787],[121.39982,31.229775],[121.399854,31.229766],[121.39989,31.22976],[121.399925,31.229757],[121.399961,31.229757],[121.399997,31.22976],[121.400035,31.229766],[121.400074,31.229774],[121.400112,31.229786],[121.400148,31.229801],[121.40018,31.229818],[121.400208,31.229838],[121.400235,31.22986],[121.400258,31.229884],[121.400279,31.229909],[121.400296,31.229936],[121.40031,31.229964],[121.400322,31.229995],[121.40033,31.230027],[121.400336,31.230059],[121.400338,31.230092],[121.400336,31.230124],[121.400331,31.230155],[121.400324,31.230186],[121.400314,31.230217],[121.400303,31.230247],[121.400291,31.230278],[121.400279,31.230309],[121.400268,31.230341],[121.400257,31.230374],[121.400247,31.230407],[121.400236,31.230439],[121.400226,31.23047],[121.400216,31.230504],[121.400206,31.230541],[121.400197,31.230576],[121.400188,31.23061],[121.400179,31.230642],[121.40017,31.230675],[121.400162,31.230707],[121.400154,31.230741],[121.400145,31.230776],[121.400135,31.230811],[121.400126,31.230844],[121.400115,31.230876],[121.400101,31.23091],[121.400083,31.230944],[121.400062,31.230976],[121.40004,31.231004],[121.400011,31.231033],[121.39998,31.23106],[121.399947,31.231086],[121.399918,31.231106],[121.399886,31.231123],[121.399854,31.231137],[121.39982,31.231148],[121.399784,31.231155],[121.399747,31.23116],[121.399709,31.231163],[121.39967,31.231163],[121.39963,31.231159],[121.399591,31.231152],[121.399553,31.231143],[121.399517,31.231131],[121.399484,31.231117],[121.399455,31.231101],[121.39943,31.231083],[121.399408,31.231063],[121.399388,31.231038],[121.399373,31.231013],[121.399361,31.230985],[121.399354,31.230957],[121.399351,31.230929],[121.39935,31.230898],[121.399351,31.230867],[121.399353,31.230834],[121.399356,31.230802],[121.39936,31.230769],[121.399366,31.230736],[121.399374,31.230697],[121.399383,31.23066],[121.399393,31.230623],[121.399402,31.230589],[121.39941,31.230557],[121.399418,31.230525],[121.399426,31.230494],[121.399435,31.230463],[121.399445,31.23043],[121.399455,31.230399],[121.399465,31.230368],[121.399474,31.230338],[121.399485,31.230306],[121.399495,31.230275],[121.399506,31.230244],[121.399516,31.230213],[121.399525,31.23018],[121.399537,31.23014],[121.399549,31.230101],[121.399562,31.230061],[121.399572,31.230028],[121.399585,31.229995],[121.399599,31.229965],[121.399617,31.229935],[121.399637,31.229908],[121.39966,31.229882],[121.399687,31.229857],[121.399716,31.229834],[121.399748,31.229812],[121.399781,31.229795],[121.399816,31.22978],[121.399852,31.229769],[121.399889,31.229761],[121.399927,31.229757],[121.399965,31.229756],[121.400004,31.229757],[121.400043,31.229761],[121.400082,31.229769],[121.400118,31.229779],[121.400153,31.229793],[121.400185,31.229809],[121.400214,31.229828],[121.400241,31.22985],[121.400265,31.229874],[121.400286,31.2299],[121.400303,31.229927],[121.400316,31.229956],[121.400326,31.229986],[121.400333,31.230018],[121.400336,31.23005],[121.400337,31.230083],[121.400337,31.230117],[121.400334,31.23015],[121.400328,31.230184],[121.40032,31.230218],[121.400312,31.230249],[121.400302,31.230281],[121.400292,31.230312],[121.40028,31.230346],[121.400269,31.230377],[121.400258,31.230408],[121.400247,31.230439],[121.400237,31.23047],[121.400226,31.230502],[121.400217,31.230536],[121.400207,31.23057],[121.400197,31.230603],[121.400187,31.230636],[121.400177,31.23067],[121.400168,31.230703],[121.400158,31.230737],[121.400147,31.230771],[121.400136,31.230803],[121.400125,31.230833],[121.400116,31.230862],[121.400106,31.230891],[121.400094,31.23092],[121.400079,31.230949],[121.400061,31.230976],[121.40004,31.231002],[121.400018,31.231026],[121.399994,31.231049],[121.39997,31.231071],[121.399943,31.231091],[121.399915,31.231109],[121.399886,31.231124],[121.399853,31.231137],[121.399819,31.231148],[121.399783,31.231155],[121.399749,31.23116],[121.399713,31.231161],[121.399678,31.23116],[121.399644,31.231157],[121.399613,31.231152],[121.399579,31.231145],[121.399546,31.231136],[121.399512,31.231123],[121.399482,31.231109],[121.399453,31.231093],[121.39943,31.231075],[121.39941,31.231055],[121.399393,31.231032],[121.39938,31.231006],[121.39937,31.230977],[121.399363,31.230945],[121.399359,31.230911],[121.399358,31.230876],[121.399358,31.23084],[121.399361,31.230805],[121.399365,31.230771],[121.399371,31.230737],[121.399379,31.230705],[121.399387,31.230674],[121.399396,31.230644],[121.399403,31.230614],[121.399411,31.230585],[121.399418,31.230555],[121.399426,31.230526],[121.399434,31.230494],[121.399443,31.230464],[121.399452,31.230433],[121.399461,31.230402],[121.399471,31.230371],[121.399481,31.230339],[121.399492,31.230306],[121.399503,31.230272],[121.399513,31.230239],[121.399524,31.230206],[121.399537,31.23017],[121.399549,31.230134],[121.399559,31.230097],[121.399568,31.230061],[121.399577,31.230025],[121.399582,31.230007],[121.399585,31.229995]]}}]}