{"type":"FeatureCollection","features":[{"type":"Feature","properties":{"id":"2026-03-10_running_20","type":"running","date":"2026-03-10"},"geometry":{"type":"LineString","coordinates":[[121.399563,31.23],[121.399589,31.229946],[121.399599,31.229929],[121.39962,31.229895],[121.399644,31.229865],[121.399672,31.22984],[121.399699,31.229822],[121.399726,31.229807],[121.399752,31.229792],[121.399785,31.229778],[121.399822,31.229768],[121.39986,31.229762],[121.399896,31.229759],[121.399935,31.229759],[121.399974,31.229761],[121.400011,31.229767],[121.400047,31.229776],[121.40008,31.229787],[121.400112,31.229801],[121.400141,31.229815],[121.400169,31.229833],[121.400197,31.229852],[121.400224,31.229874],[121.400248,31.229897],[121.400269,31.229924],[121.400284,31.229951],[121.400297,31.229983],[121.400306,31.230015],[121.400312,31.230049],[121.400314,31.230082],[121.400315,31.230113],[121.400311,31.230142],[121.400302,31.230169],[121.40029,31.230199],[121.400279,31.230231],[121.40027,31.230263],[121.400261,31.230293],[121.400251,31.230324],[121.400241,31.230355],[121.40023,31.230388],[121.40022,31.230421],[121.400209,31.230454],[121.4002,31.230483],[121.400191,31.230513],[121.400182,31.230542],[121.400174,31.23057],[121.400165,31.230598],[121.400157,31.230626],[121.400147,31.230653],[121.400137,31.230682],[121.400126,31.230711],[121.400115,31.23074],[121.400102,31.230772],[121.400089,31.230804],[121.400077,31.230838],[121.400067,31.230867],[121.400056,31.230897],[121.400045,31.230927],[121.400031,31.230955],[121.400016,31.230981],[121.399999,31.231005],[121.39998,31.231028],[121.39996,31.23105],[121.399939,31.23107],[121.399914,31.231088],[121.399888,31.231104],[121.39986,31.231117],[121.399827,31.231128],[121.399791,31.231137],[121.399749,31.231144],[121.399711,31.231147],[121.399673,31.231147],[121.399638,31.231142],[121.399605,31.231135],[121.399571,31.231125],[121.399537,31.231114],[121.399503,31.231101],[121.399471,31.231086],[121.399444,31.231068],[121.399421,31.231048],[121.3994,31.231027],[121.399382,31.231005],[121.399366,31.23098],[121.399351,31.230955],[121.399338,31.23093],[121.399328,31.230903],[121.399321,31.230876],[121.399318,31.230848],[121.399318,31.23082],[121.39932,31.23079],[121.399324,31.230758],[121.399329,31.230728],[121.399336,31.230699],[121.399345,31.230671],[121.399356,31.230642],[121.399367,31.230611],[121.39938,31.230579],[121.399391,31.230549],[121.3994,31.230522],[121.399409,31.230497],[121.399418,31.230471],[121.399427,31.230444],[121.399436,31.230417],[121.399444,31.230392],[121.399453,31.230365],[121.399461,31.23034],[121.39947,31.230311],[121.399479,31.230282],[121.399489,31.230253],[121.399499,31.230224],[121.399508,31.230194],[121.399518,31.230166],[121.399528,31.230138],[121.399536,31.230114],[121.399545,31.230089],[121.399557,31.230062],[121.399569,31.230033],[121.399582,31.230005],[121.399596,31.229977],[121.399611,31.229951],[121.399628,31.229925],[121.399644,31.229903],[121.399661,31.229882],[121.399678,31.229862],[121.399697,31.229844],[121.399716,31.229827],[121.399737,31.22981],[121.39976,31.229796],[121.399795,31.229781],[121.399834,31.229768],[121.399878,31.229756],[121.399916,31.229752],[121.399951,31.229751],[121.399984,31.229752],[121.400016,31.229757],[121.400047,31.229766],[121.400078,31.229779],[121.400108,31.229795],[121.400141,31.229814],[121.400171,31.229836],[121.400199,31.229859],[121.400224,31.229885],[121.400245,31.229912],[121.400264,31.22994],[121.400278,31.229969],[121.40029,31.23],[121.4003,31.23003],[121.400308,31.23006],[121.400314,31.230089],[121.400316,31.230117],[121.400311,31.230143],[121.400303,31.230172],[121.400294,31.230202],[121.400286,31.230234],[121.40028,31.230264],[121.400272,31.230294],[121.400263,31.230324],[121.400253,31.230354],[121.400243,31.230385],[121.400233,31.230415],[121.400224,31.230442],[121.400215,31.230468],[121.400207,31.230495],[121.400198,31.230522],[121.40019,31.230549],[121.400181,31.230576],[121.400172,31.230604],[121.400162,31.230632],[121.400153,31.23066],[121.400143,31.230688],[121.400132,31.230716],[121.400123,31.230741],[121.400112,31.230769],[121.4001,31.230797],[121.400089,31.230825],[121.400077,31.230853],[121.400065,31.23088],[121.400052,31.230906],[121.40004,31.23093],[121.400027,31.230954],[121.400013,31.230978],[121.399996,31.231004],[121.399978,31.231028],[121.39996,31.231051],[121.39994,31.231072],[121.39992,31.231091],[121.399898,31.231108],[121.399875,31.231121],[121.399841,31.231135],[121.399802,31.231144],[121.399758,31.231151],[121.399719,31.231153],[121.399682,31.231153],[121.399647,31.231151],[121.399613,31.231147],[121.399581,31.23114],[121.399549,31.231131],[121.39952,31.23112],[121.399492,31.231106],[121.399466,31.231089],[121.399441,31.23107],[121.399417,31.231049],[121.399396,31.231027],[121.399378,31.231003],[121.399363,31.23098],[121.39935,31.230956],[121.39934,31.23093],[121.399333,31.230903],[121.399328,31.230875],[121.399327,31.230845],[121.399327,31.230813],[121.399329,31.23078],[121.399334,31.230743],[121.39934,31.230707],[121.399349,31.230673],[121.399357,31.230645],[121.399366,31.230616],[121.399374,31.230588],[121.399383,31.230559],[121.399391,31.230531],[121.3994,31.230504],[121.399409,31.230476],[121.399418,31.230447],[121.399426,31.230419],[121.399434,31.23039],[121.399442,31.230363],[121.39945,31.230334],[121.399459,31.230305],[121.399468,31.230276],[121.399477,31.230246],[121.399486,31.230216],[121.399495,31.230185],[121.399504,31.230155],[121.399514,31.230124],[121.399525,31.230094],[121.399535,31.230062],[121.399546,31.230032],[121.399558,31.230002],[121.39957,31.229973],[121.399585,31.229944],[121.399601,31.229917],[121.39962,31.229892],[121.399641,31.229868],[121.399664,31.229847],[121.399688,31.229828],[121.399716,31.229811],[121.399744,31.229796],[121.399775,31.229782],[121.399805,31.229772],[121.39984,31.229764],[121.399877,31.229758],[121.399914,31.229754],[121.39995,31.229755],[121.399984,31.229758],[121.400019,31.229766],[121.40005,31.229776],[121.400082,31.229789],[121.40011,31.229804],[121.40014,31.229821],[121.400168,31.22984],[121.400196,31.229861],[121.40022,31.229885],[121.40024,31.229908],[121.400257,31.229932],[121.40027,31.229957],[121.400281,31.229982],[121.40029,31.230009],[121.400296,31.230037],[121.400303,31.230067],[121.400308,31.230097],[121.400309,31.230123],[121.400303,31.230151],[121.400295,31.230179],[121.400287,31.230209],[121.400281,31.230238],[121.400274,31.230266],[121.400267,31.230294],[121.400259,31.230321],[121.400251,31.230347],[121.400243,31.230371],[121.400237,31.230392],[121.400232,31.230411],[121.400228,31.230427],[121.400226,31.23044],[121.400227,31.230448],[121.40023,31.230451],[121.400235,31.230452],[121.400243,31.230453],[121.40025,31.230454],[121.400258,31.230456],[121.400261,31.230458],[121.400263,31.230461],[121.400259,31.23047],[121.400253,31.230482],[121.400248,31.230494],[121.400242,31.230509],[121.400235,31.230525],[121.400227,31.230544],[121.40022,31.230563],[121.400212,31.230583],[121.400204,31.230603],[121.400195,31.230625],[121.400187,31.230645],[121.400178,31.230666],[121.400167,31.23069],[121.400155,31.230717],[121.400143,31.230743],[121.400131,31.230769],[121.40012,31.230794],[121.400107,31.230823],[121.400095,31.23085],[121.400083,31.230876],[121.400072,31.230899],[121.40006,31.230922],[121.400046,31.230946],[121.40003,31.230971],[121.400013,31.230995],[121.399994,31.231018],[121.399973,31.231042],[121.399949,31.231066],[121.399924,31.231089],[121.399899,31.23111],[121.399875,31.231126],[121.399849,31.231141],[121.399812,31.231152],[121.399771,31.23116],[121.399727,31.231163],[121.399689,31.231163],[121.399652,31.23116],[121.399616,31.231154],[121.399582,31.231146],[121.399548,31.231136],[121.399517,31.231123],[121.399487,31.231108],[121.399459,31.23109],[121.399432,31.23107],[121.399408,31.231047],[121.399386,31.231023],[121.399366,31.230997],[121.39935,31.230971],[121.399335,31.230941],[121.399323,31.230912],[121.399314,31.230881],[121.39931,31.23085],[121.399308,31.230817],[121.399308,31.230783],[121.399311,31.230748],[121.399315,31.230713],[121.399322,31.230682],[121.39933,31.230652],[121.399338,31.230623],[121.399347,31.230594],[121.399355,31.230565],[121.399363,31.230535],[121.399372,31.230506],[121.39938,31.230477],[121.399388,31.230448],[121.399396,31.230419],[121.399403,31.230391],[121.39941,31.230362],[121.399417,31.230332],[121.399425,31.230302],[121.399433,31.230273],[121.399442,31.230244],[121.399451,31.230214],[121.399459,31.230186],[121.399469,31.230158],[121.399479,31.230132],[121.39949,31.230106],[121.399501,31.23008],[121.399512,31.230052],[121.399523,31.230025],[121.399534,31.229996],[121.399546,31.229968],[121.399561,31.229938],[121.399577,31.22991],[121.399596,31.229883],[121.399616,31.229859],[121.399639,31.229835],[121.399663,31.229815],[121.399689,31.229797],[121.399715,31.229784],[121.399741,31.229774],[121.399767,31.229766],[121.399797,31.22976],[121.399832,31.229755],[121.39987,31.229752],[121.399906,31.22975],[121.399948,31.229753],[121.399988,31.229759],[121.400029,31.22977],[121.400065,31.229783],[121.4001,31.229799],[121.400133,31.229818],[121.400162,31.22984],[121.400189,31.229864],[121.400215,31.229889],[121.400237,31.229913],[121.400256,31.229938],[121.400268,31.229967],[121.400279,31.229998],[121.400289,31.23003],[121.400296,31.230059],[121.400298,31.230089],[121.400298,31.230119],[121.400294,31.23015],[121.400289,31.23018],[121.400283,31.230209],[121.400275,31.230239],[121.400266,31.230268],[121.400257,31.230297],[121.400247,31.230327],[121.400238,31.230355],[121.40023,31.230384],[121.400223,31.23041],[121.400224,31.230435],[121.400221,31.230464],[121.400217,31.230495],[121.400204,31.230531],[121.400193,31.230565],[121.400181,31.230597],[121.400169,31.230627],[121.400157,31.230657],[121.400145,31.230687],[121.400134,31.230715],[121.400123,31.230743],[121.400113,31.230771],[121.400104,31.230801],[121.400097,31.230829],[121.400091,31.230855],[121.400084,31.230882],[121.400074,31.230908],[121.400063,31.230935],[121.40005,31.23096],[121.400033,31.230986],[121.400015,31.231011],[121.399995,31.231035],[121.399973,31.231058],[121.399949,31.23108],[121.399926,31.2311],[121.3999,31.231117],[121.399871,31.231132],[121.39984,31.231145],[121.399806,31.231155],[121.399772,31.231163],[121.399739,31.231168],[121.399707,31.23117],[121.399675,31.23117],[121.399642,31.231167],[121.39961,31.231162],[121.399579,31.231155],[121.399548,31.231145],[121.39952,31.231133],[121.399493,31.23112],[121.399467,31.231105],[121.399443,31.231089],[121.399418,31.231069],[121.399396,31.231047],[121.399376,31.231023],[121.399359,31.230998],[121.399344,31.230971],[121.399332,31.230944],[121.399323,31.230915],[121.399317,31.230885],[121.399313,31.230853],[121.399313,31.230819],[121.399317,31.230785],[121.399323,31.230753],[121.399332,31.230722],[121.399341,31.230693],[121.39935,31.230663],[121.39936,31.230631],[121.399369,31.2306],[121.399379,31.230567],[121.399387,31.230537],[121.399396,31.230506],[121.399403,31.230475],[121.39941,31.230445],[121.399417,31.230414],[121.399426,31.230384],[121.399434,31.230353],[121.399443,31.230321],[121.399452,31.230289],[121.399462,31.230257],[121.399473,31.230226],[121.399483,31.230195],[121.399494,31.230166],[121.399505,31.230139],[121.399516,31.230113],[121.399526,31.230087],[121.399536,31.23006],[121.399546,31.230034],[121.399556,31.230007],[121.399569,31.229979],[121.399584,31.22995],[121.399602,31.22992],[121.399622,31.22989],[121.399647,31.229861],[121.399674,31.229836],[121.399704,31.229814],[121.399735,31.229796],[121.399767,31.229782],[121.399799,31.229772],[121.399834,31.229764],[121.399871,31.229758],[121.399908,31.229755],[121.399946,31.229755],[121.399983,31.229759],[121.400019,31.229766],[121.400053,31.229776],[121.400085,31.229787],[121.400116,31.229801],[121.400142,31.229817],[121.40017,31.229837],[121.400198,31.229858],[121.400223,31.229879],[121.400244,31.229902],[121.40026,31.229928],[121.400275,31.229959],[121.400289,31.22999],[121.400299,31.230022],[121.400305,31.230052],[121.400309,31.230084],[121.400309,31.230116],[121.400307,31.230147],[121.400303,31.230178],[121.400296,31.230209],[121.400287,31.230238],[121.400277,31.230267],[121.400266,31.230295],[121.400256,31.230324],[121.400246,31.230352],[121.400236,31.230381],[121.400229,31.23041],[121.400222,31.230439],[121.400216,31.230469],[121.400209,31.2305],[121.400201,31.230533],[121.400192,31.230566],[121.400182,31.230598],[121.400172,31.23063],[121.400161,31.23066],[121.400149,31.23069],[121.400138,31.230719],[121.400128,31.230749],[121.400119,31.23078],[121.400111,31.230812],[121.400102,31.230844],[121.400092,31.230875],[121.400082,31.230905],[121.40007,31.230934],[121.400058,31.230963],[121.400042,31.230992],[121.400025,31.231018],[121.400005,31.231043],[121.399982,31.231066],[121.399957,31.231087],[121.399931,31.231106],[121.399903,31.231123],[121.399873,31.231137],[121.399841,31.231149],[121.399808,31.231159],[121.399775,31.231166],[121.399741,31.231171],[121.399709,31.231174],[121.399675,31.231172],[121.399642,31.231168],[121.399608,31.231161],[121.399577,31.231152],[121.399545,31.23114],[121.399513,31.231125],[121.399482,31.231109],[121.399451,31.23109],[121.399422,31.231069],[121.399397,31.231046],[121.399376,31.23102],[121.399358,31.230994],[121.399342,31.230966],[121.39933,31.230938],[121.39932,31.230908],[121.399312,31.230878],[121.399307,31.230849],[121.399307,31.230818],[121.399312,31.230788],[121.39932,31.230757],[121.39933,31.230729],[121.39934,31.2307],[121.399351,31.230672],[121.399361,31.230643],[121.39937,31.230616],[121.399379,31.230588],[121.399387,31.23056],[121.399395,31.230531],[121.399404,31.2305],[121.399413,31.230469],[121.399421,31.230438],[121.39943,31.230407],[121.399439,31.230379],[121.399448,31.23035],[121.399457,31.23032],[121.399466,31.23029],[121.399476,31.230259],[121.399487,31.230229],[121.399497,31.2302],[121.399508,31.230171],[121.399518,31.230144],[121.399529,31.230114],[121.399539,31.230085],[121.399549,31.230053],[121.399562,31.230019],[121.399576,31.229986],[121.399593,31.229954],[121.399613,31.229924],[121.399637,31.229894],[121.399664,31.229866],[121.399692,31.229842],[121.399723,31.229821],[121.399754,31.229803],[121.399787,31.229787],[121.399825,31.229774],[121.399863,31.229764],[121.399901,31.229758],[121.399938,31.229755],[121.399974,31.229756],[121.400011,31.229762],[121.400044,31.229771],[121.400077,31.229782],[121.400109,31.229795],[121.40014,31.229811],[121.400169,31.229829],[121.400198,31.229848],[121.400225,31.229865],[121.400247,31.229882],[121.400262,31.229902],[121.400275,31.229925],[121.40029,31.229952],[121.400305,31.22998],[121.400318,31.230009],[121.400327,31.230041],[121.40033,31.230079],[121.40033,31.230119],[121.400325,31.230162],[121.400319,31.230197],[121.400311,31.23023],[121.400304,31.230262],[121.400296,31.230294],[121.400287,31.230326],[121.400277,31.230358],[121.400266,31.23039],[121.400254,31.230421],[121.400243,31.230452],[121.400233,31.230484],[121.400224,31.230516],[121.400214,31.230548],[121.400205,31.230581],[121.400194,31.230613],[121.400181,31.230652],[121.400166,31.230693],[121.40015,31.230737],[121.400138,31.230773],[121.400127,31.230806],[121.400117,31.230837],[121.400108,31.230866],[121.400098,31.230896],[121.400088,31.230925],[121.400075,31.230955],[121.400058,31.230983],[121.400039,31.23101],[121.400018,31.231037],[121.399994,31.231061],[121.399967,31.231083],[121.399938,31.231103],[121.399907,31.23112],[121.399873,31.231136],[121.399837,31.231149],[121.399804,31.23116],[121.399769,31.231168],[121.399733,31.231173],[121.399696,31.231175],[121.399658,31.231174],[121.399621,31.231169],[121.399584,31.231162],[121.399549,31.231151],[121.399515,31.231138],[121.399483,31.231121],[121.399455,31.231103],[121.399428,31.231081],[121.399405,31.231058],[121.399382,31.23103],[121.399365,31.231001],[121.399349,31.23097],[121.399337,31.23094],[121.399327,31.230908],[121.399321,31.230875],[121.399319,31.230839],[121.399321,31.230805],[121.399325,31.230771],[121.399332,31.230737],[121.399342,31.230703],[121.399353,31.230669],[121.399365,31.230637],[121.399377,31.230606],[121.399388,31.230577],[121.3994,31.230547],[121.399411,31.230516],[121.399421,31.230485],[121.399431,31.230454],[121.399441,31.230422],[121.399451,31.230389],[121.399462,31.230352],[121.399475,31.230313],[121.399488,31.230273],[121.399499,31.230235],[121.39951,31.230198],[121.399519,31.230162],[121.399526,31.230128],[121.399529,31.230111],[121.399531,31.230099]]}}]}