{"type":"FeatureCollection","features":[{"type":"Feature","properties":{"id":"2026-05-31_walking_43","type":"walking","date":"2026-05-31"},"geometry":{"type":"LineString","coordinates":[[121.210036,31.286435],[121.210023,31.286437],[121.210008,31.286435],[121.209993,31.286436],[121.209985,31.286438],[121.209979,31.286443],[121.209968,31.286452],[121.209961,31.286455],[121.209948,31.286457],[121.209929,31.286462],[121.209908,31.286472],[121.209886,31.286492],[121.209872,31.286493],[121.209859,31.286495],[121.209846,31.286499],[121.209834,31.286498],[121.20983,31.286497],[121.209826,31.286496],[121.209829,31.286503],[121.20982,31.286511],[121.209808,31.28652],[121.209792,31.28653],[121.209777,31.286538],[121.209758,31.286545],[121.209738,31.286552],[121.20971,31.286564],[121.209703,31.286571],[121.209698,31.286575],[121.209695,31.286582],[121.209685,31.286581],[121.209675,31.286588],[121.20966,31.286592],[121.209653,31.286603],[121.209645,31.286612],[121.20964,31.286618],[121.209633,31.286624],[121.209626,31.286631],[121.209616,31.286638],[121.209604,31.286646],[121.209596,31.286659],[121.209588,31.286667],[121.209584,31.286673],[121.209559,31.286676],[121.20954,31.286677],[121.209524,31.286677],[121.209509,31.286679],[121.209496,31.286682],[121.209484,31.286686],[121.209475,31.286691],[121.209472,31.286693],[121.209467,31.2867],[121.209462,31.286707],[121.209455,31.286719],[121.209447,31.286723],[121.209438,31.286725],[121.209438,31.286725],[121.209432,31.286731],[121.209416,31.286732],[121.209389,31.286734],[121.209378,31.286733],[121.209363,31.28673],[121.20935,31.286725],[121.209339,31.286719],[121.209328,31.286717],[121.209317,31.286716],[121.209309,31.286712],[121.209298,31.286712],[121.209284,31.286717],[121.209269,31.286721],[121.209258,31.286721],[121.209253,31.286716],[121.209253,31.28671],[121.209266,31.286713],[121.209266,31.286713],[121.209266,31.286713],[121.209265,31.286716],[121.209265,31.286716],[121.209265,31.286716],[121.209265,31.286716],[121.209265,31.286716],[121.209262,31.286711],[121.209251,31.286696],[121.209238,31.286683],[121.209227,31.286672],[121.209218,31.286666],[121.209215,31.286662],[121.209207,31.286658],[121.2092,31.286651],[121.209201,31.286643],[121.209196,31.286634],[121.209193,31.286625],[121.209182,31.286616],[121.209181,31.286596],[121.209177,31.286592],[121.209172,31.286591],[121.209164,31.286594],[121.209169,31.286589],[121.209174,31.28659],[121.209178,31.286589],[121.209154,31.286568],[121.209149,31.286556],[121.209146,31.286543],[121.209145,31.286533],[121.20915,31.286532],[121.209152,31.286529],[121.209148,31.28652],[121.209141,31.286507],[121.209132,31.286496],[121.209118,31.286486],[121.209102,31.286476],[121.209072,31.28645],[121.209069,31.286437],[121.209062,31.286422],[121.209055,31.28641],[121.209046,31.286404],[121.209041,31.2864],[121.209037,31.286386],[121.209031,31.286376],[121.209024,31.286367],[121.209028,31.286373],[121.209028,31.286362],[121.209022,31.286352],[121.209014,31.286343],[121.209007,31.286332],[121.208998,31.286323],[121.20899,31.286317],[121.208982,31.286313],[121.208955,31.28632],[121.208948,31.286326],[121.208929,31.286312],[121.208923,31.286327],[121.208917,31.286339],[121.208908,31.28635],[121.208903,31.28636],[121.208898,31.286369],[121.208895,31.286378],[121.208898,31.286387],[121.208893,31.286396],[121.208885,31.286402],[121.2089,31.28642],[121.208898,31.28643],[121.208889,31.286434],[121.208888,31.286443],[121.208882,31.286451],[121.208882,31.286466],[121.208881,31.286474],[121.20888,31.286482],[121.208877,31.286493],[121.208878,31.286506],[121.208875,31.286514],[121.208873,31.286521],[121.208867,31.286528],[121.208854,31.286533],[121.20884,31.286539],[121.208826,31.286544],[121.208818,31.28655],[121.208807,31.286555],[121.208798,31.28656],[121.208785,31.286568],[121.208769,31.286571],[121.208754,31.28657],[121.208731,31.286563],[121.208717,31.286564],[121.208705,31.286558],[121.208689,31.286553],[121.208676,31.286552],[121.208667,31.286545],[121.208657,31.286544],[121.208654,31.286541],[121.208646,31.28654],[121.20864,31.286537],[121.208636,31.286532],[121.208621,31.286534],[121.208605,31.286532],[121.20859,31.286531],[121.208576,31.286532],[121.208569,31.286533],[121.208558,31.286535],[121.208534,31.286544],[121.208525,31.286549],[121.208516,31.286551],[121.208507,31.286555],[121.208497,31.28656],[121.208486,31.286567],[121.208476,31.286575],[121.20847,31.286583],[121.208466,31.286591],[121.20846,31.286602],[121.208452,31.286625],[121.208438,31.286645],[121.208434,31.286655],[121.20843,31.286665],[121.208427,31.286672],[121.208419,31.286689],[121.208412,31.286701],[121.2084,31.286711],[121.208391,31.28672],[121.208382,31.28672],[121.208384,31.286725],[121.208376,31.28673],[121.208366,31.286735],[121.208357,31.286734],[121.208347,31.286735],[121.208332,31.286736],[121.208318,31.286737],[121.2083,31.286738],[121.208285,31.286737],[121.208275,31.286735],[121.208264,31.286733],[121.208253,31.286731],[121.208229,31.286726],[121.208216,31.286722],[121.208201,31.286718],[121.208186,31.286717],[121.208182,31.286709],[121.20818,31.28671],[121.208173,31.286703],[121.208164,31.286704],[121.20816,31.286708],[121.208154,31.286709],[121.208146,31.28671],[121.20814,31.286709],[121.208126,31.286707],[121.208113,31.28671],[121.208096,31.28671],[121.208086,31.286708],[121.208076,31.286708],[121.20805,31.286712],[121.208039,31.286716],[121.208027,31.286719],[121.208013,31.28672],[121.208005,31.286721],[121.207994,31.286722],[121.207981,31.286722],[121.207967,31.286723],[121.207953,31.286722],[121.207941,31.286715],[121.207933,31.286702],[121.207928,31.286692],[121.207924,31.286685],[121.207919,31.286674],[121.207908,31.286663],[121.207897,31.286652],[121.20789,31.286644],[121.20788,31.286635],[121.207875,31.286636],[121.207864,31.286639],[121.207856,31.286653],[121.207852,31.286664],[121.207845,31.286677],[121.207844,31.286689],[121.20784,31.2867],[121.207843,31.286711],[121.207842,31.286723],[121.207843,31.286731],[121.207838,31.286739],[121.207836,31.28675],[121.207831,31.286761],[121.207823,31.286772],[121.20781,31.28678],[121.207799,31.286785],[121.207775,31.28679],[121.207758,31.286789],[121.20774,31.286788],[121.207725,31.286788],[121.207716,31.286778],[121.207707,31.286765],[121.207697,31.286755],[121.207688,31.286748],[121.207679,31.286741],[121.207666,31.286734],[121.207654,31.286727],[121.207641,31.286724],[121.207627,31.286722],[121.207616,31.286721],[121.207605,31.286725],[121.207595,31.286724],[121.207582,31.286722],[121.207568,31.28672],[121.207558,31.286722],[121.207543,31.286725],[121.207528,31.28673],[121.207517,31.286736],[121.207499,31.286742],[121.20749,31.286745],[121.207482,31.286746],[121.207474,31.286747],[121.207464,31.286746],[121.207456,31.286745],[121.207446,31.286746],[121.207434,31.286747],[121.207425,31.286747],[121.207415,31.286745],[121.207406,31.286746],[121.207396,31.286745],[121.207385,31.286745],[121.207376,31.286741],[121.207364,31.286737],[121.207352,31.286731],[121.207339,31.286723],[121.207333,31.286715],[121.207322,31.28671],[121.207312,31.286705],[121.2073,31.2867],[121.207292,31.286697],[121.207279,31.286688],[121.207267,31.28669],[121.207264,31.286686],[121.207254,31.286688],[121.207238,31.286686],[121.207223,31.286685],[121.20721,31.286689],[121.207197,31.28669],[121.207186,31.286692],[121.207175,31.286694],[121.207142,31.286683],[121.207131,31.286686],[121.207123,31.28669],[121.207117,31.286695],[121.20711,31.286702],[121.207106,31.286706],[121.207102,31.286705],[121.2071,31.286705],[121.207099,31.286711],[121.207097,31.286718],[121.207095,31.286727],[121.207091,31.286735],[121.207085,31.286743],[121.207077,31.28675],[121.207072,31.286757],[121.207066,31.28676],[121.207061,31.286764],[121.207055,31.286766],[121.207049,31.286769],[121.207041,31.286771],[121.20703,31.286773],[121.207017,31.286773],[121.207004,31.286773],[121.206989,31.286773],[121.206975,31.286769],[121.20696,31.286762],[121.206946,31.286757],[121.206936,31.286749],[121.206926,31.286745],[121.206921,31.286742],[121.206924,31.286742],[121.206919,31.286739],[121.206911,31.286736],[121.206905,31.286727],[121.206897,31.286723],[121.206888,31.286716],[121.206873,31.28671],[121.206864,31.286704],[121.206852,31.2867],[121.206837,31.286702],[121.206823,31.286706],[121.206812,31.286716],[121.206786,31.286737],[121.206773,31.286743],[121.206764,31.286753],[121.206756,31.286756],[121.20675,31.28676],[121.206746,31.286765],[121.20674,31.28677],[121.206726,31.286779],[121.206714,31.286789],[121.2067,31.286793],[121.206696,31.286794],[121.206685,31.286799],[121.206675,31.28681],[121.206662,31.286822],[121.206647,31.286832],[121.206633,31.28684],[121.206619,31.28686],[121.206607,31.286871],[121.206598,31.286878],[121.206591,31.286883],[121.206583,31.286887],[121.206576,31.28689],[121.206569,31.286892],[121.206564,31.286897],[121.20656,31.286899],[121.206549,31.286916],[121.20652,31.286938],[121.206509,31.28695],[121.206507,31.286961],[121.206511,31.286968],[121.206521,31.286976],[121.206528,31.286982],[121.206541,31.286983],[121.206552,31.286986],[121.206562,31.28699],[121.206569,31.286994],[121.20657,31.287006],[121.206579,31.287013],[121.206586,31.28702],[121.206589,31.287028],[121.206589,31.287034],[121.20659,31.287042],[121.206591,31.287066],[121.206592,31.287081],[121.206588,31.287093],[121.206582,31.2871],[121.206575,31.287108],[121.206575,31.287113],[121.206573,31.287122],[121.206568,31.287132],[121.206566,31.287147],[121.206563,31.287164],[121.206563,31.287177],[121.206562,31.287191],[121.206557,31.287201],[121.206555,31.28721],[121.206554,31.287218],[121.206553,31.287228],[121.206552,31.287238],[121.206545,31.287264],[121.206537,31.287279],[121.206531,31.287292],[121.206528,31.287303],[121.206522,31.287312],[121.206521,31.28732],[121.206516,31.287328],[121.206509,31.287334],[121.206503,31.287342],[121.206496,31.287355],[121.206485,31.287366],[121.206474,31.287375],[121.206465,31.287384],[121.20646,31.287391],[121.206457,31.287396],[121.206452,31.287402],[121.206447,31.287405],[121.20645,31.287403],[121.20645,31.287403],[121.20645,31.287403],[121.206455,31.287399],[121.206461,31.28739],[121.206466,31.287378],[121.206473,31.287367],[121.206481,31.287357],[121.206489,31.287345],[121.206493,31.287338],[121.206497,31.287331],[121.206501,31.287323],[121.206503,31.287317],[121.206506,31.287307],[121.206515,31.287298],[121.206524,31.287284],[121.206533,31.28728],[121.206537,31.287254],[121.206544,31.287248],[121.206545,31.287236],[121.206546,31.287226],[121.206549,31.287224],[121.206547,31.287215],[121.206551,31.287205],[121.206552,31.2872],[121.206552,31.287184],[121.206553,31.287169],[121.206556,31.287157],[121.206559,31.287143],[121.20656,31.287133],[121.20656,31.287121],[121.20656,31.287109],[121.206561,31.287097],[121.206566,31.287087],[121.206578,31.287073],[121.206584,31.287064],[121.206582,31.287053],[121.206579,31.287039],[121.206576,31.287027],[121.206573,31.287013],[121.206569,31.286999],[121.206559,31.286991],[121.206551,31.286984],[121.206541,31.28698],[121.206533,31.286975],[121.206524,31.286968],[121.206516,31.286965],[121.206506,31.286956],[121.206496,31.286945],[121.206491,31.286934],[121.206491,31.286921],[121.206508,31.286906],[121.206516,31.2869],[121.206526,31.286894],[121.206536,31.286887],[121.206548,31.286875],[121.206565,31.286864],[121.206578,31.286855],[121.206592,31.286842],[121.206609,31.286826],[121.206622,31.286818],[121.206632,31.286808],[121.206634,31.286804],[121.206637,31.286802],[121.206647,31.286793],[121.206661,31.286785],[121.206683,31.286767],[121.206695,31.286759],[121.206706,31.286751],[121.206718,31.286742],[121.206729,31.286733],[121.206741,31.286724],[121.206752,31.286714],[121.206761,31.286704],[121.206773,31.286692],[121.206787,31.286683],[121.206803,31.286677],[121.206817,31.286668],[121.20683,31.286661],[121.206839,31.286654],[121.206852,31.286646],[121.206858,31.286644],[121.20687,31.286637],[121.20689,31.286622],[121.206899,31.286616],[121.206912,31.286607],[121.206926,31.286604],[121.206934,31.286596],[121.206947,31.286591],[121.206958,31.286584],[121.206972,31.286581],[121.206983,31.286574],[121.206996,31.28657],[121.207008,31.286567],[121.207023,31.286562],[121.207034,31.286554],[121.207046,31.286544],[121.20706,31.286538],[121.207073,31.286538],[121.207086,31.286535],[121.207108,31.28653],[121.207124,31.286526],[121.20714,31.286522],[121.207151,31.286515],[121.207163,31.286509],[121.207179,31.286504],[121.207219,31.286493],[121.207238,31.286487],[121.207255,31.286486],[121.207274,31.286486],[121.207288,31.286483],[121.207302,31.286475],[121.207317,31.286472],[121.20733,31.286468],[121.20734,31.286466],[121.207353,31.286464],[121.207382,31.28646],[121.207401,31.286456],[121.207417,31.286455],[121.20743,31.286452],[121.207443,31.286452],[121.207457,31.286454],[121.207469,31.286449],[121.207483,31.286446],[121.207496,31.286441],[121.207512,31.286436],[121.207526,31.286436],[121.207538,31.286433],[121.207555,31.286434],[121.207571,31.286438],[121.207583,31.28644],[121.207594,31.286446],[121.207606,31.286451],[121.207631,31.286468],[121.207642,31.286476],[121.20765,31.286492],[121.20766,31.286503],[121.207669,31.286515],[121.207676,31.286525],[121.207684,31.286544],[121.207687,31.286557],[121.207691,31.286571],[121.207691,31.286584],[121.207691,31.286598],[121.207689,31.286624],[121.207693,31.286633],[121.207694,31.286644],[121.207695,31.286653],[121.207694,31.286662],[121.207694,31.286675],[121.207697,31.286688],[121.207705,31.286703],[121.207708,31.286718],[121.207711,31.286731],[121.207714,31.286743],[121.20772,31.286761],[121.207728,31.286772],[121.207757,31.286807],[121.207757,31.286817],[121.207765,31.286831],[121.207772,31.286846],[121.207777,31.286862],[121.207777,31.286877],[121.207774,31.286888],[121.207773,31.2869],[121.207767,31.286911],[121.207755,31.286936],[121.207765,31.286918],[121.207766,31.286933],[121.207768,31.286943],[121.207762,31.286956],[121.207759,31.286968],[121.207764,31.286979],[121.207774,31.286985],[121.20778,31.286986],[121.207785,31.286988],[121.207788,31.28699],[121.207777,31.286988],[121.207779,31.287],[121.207768,31.28702],[121.207769,31.287036],[121.207773,31.287055],[121.207768,31.28707],[121.207769,31.287098],[121.207772,31.287113],[121.207769,31.287126],[121.207774,31.287134],[121.207767,31.287144],[121.207765,31.28715],[121.207776,31.28716],[121.207779,31.287172],[121.207774,31.287182],[121.207778,31.287194],[121.207779,31.287213],[121.207781,31.287229],[121.207781,31.287238],[121.207779,31.287257],[121.207777,31.287267],[121.207781,31.287286],[121.207784,31.287301],[121.207779,31.287325],[121.207777,31.287342],[121.207776,31.287351],[121.207773,31.287357],[121.207773,31.287367],[121.20777,31.287379],[121.207776,31.287391],[121.207778,31.287405],[121.207774,31.28742],[121.207774,31.287434],[121.207772,31.287449],[121.207775,31.287464],[121.207776,31.28747],[121.207776,31.287478],[121.207775,31.287489],[121.207773,31.287505],[121.207771,31.287521],[121.207776,31.287544],[121.207773,31.287556],[121.207768,31.287583],[121.207766,31.287596],[121.207766,31.287604],[121.207769,31.28761],[121.207769,31.28762],[121.207761,31.28763],[121.207758,31.287645],[121.207764,31.287658],[121.207759,31.287664],[121.207763,31.287677],[121.207769,31.28769],[121.20777,31.287705],[121.207807,31.287765],[121.207806,31.287779],[121.207806,31.287804],[121.207808,31.287816],[121.207811,31.287831],[121.207813,31.287839],[121.207818,31.287846],[121.207823,31.287856],[121.20783,31.287868],[121.207836,31.287885],[121.207833,31.287901],[121.207826,31.287912],[121.207814,31.287921],[121.207807,31.287931],[121.207802,31.287936],[121.207804,31.287937],[121.207804,31.287937],[121.207804,31.287937],[121.207806,31.287933],[121.207816,31.287937],[121.20781,31.287937],[121.207812,31.287933],[121.207815,31.287929],[121.207815,31.287929],[121.207817,31.287933],[121.207825,31.287938],[121.207834,31.287949],[121.207847,31.28796],[121.207858,31.287972],[121.207868,31.287985],[121.20788,31.287999],[121.207888,31.288011],[121.207893,31.288021],[121.207896,31.288033],[121.207902,31.288047],[121.207906,31.288061],[121.207912,31.288076],[121.207918,31.288064],[121.207916,31.288081],[121.207919,31.288096],[121.207928,31.288099],[121.207933,31.288113],[121.20794,31.288116],[121.207947,31.288119],[121.207952,31.288122],[121.20795,31.288135],[121.207953,31.288146],[121.207954,31.288168],[121.20796,31.288195],[121.207961,31.28822],[121.207937,31.288309],[121.207945,31.288325],[121.207948,31.28834],[121.207951,31.288349],[121.207957,31.288352],[121.207962,31.28836],[121.207963,31.288371],[121.207962,31.288385],[121.207956,31.288399],[121.207954,31.288413],[121.207951,31.288428],[121.207954,31.288442],[121.207961,31.288463],[121.207965,31.288477],[121.207969,31.288488],[121.207963,31.2885],[121.207963,31.288508],[121.20797,31.288514],[121.20797,31.288526],[121.207975,31.28854],[121.207979,31.288555],[121.207997,31.288585],[121.208009,31.288597],[121.208017,31.288611],[121.208021,31.288622],[121.20802,31.288633],[121.208036,31.288632],[121.208047,31.288634],[121.208042,31.288645],[121.208055,31.288649],[121.208058,31.288658],[121.208067,31.288662],[121.208081,31.288664],[121.208089,31.288669],[121.208092,31.288677],[121.208098,31.288687],[121.208103,31.288695],[121.208111,31.288705],[121.208123,31.288717],[121.208128,31.288722],[121.208133,31.28872],[121.20814,31.288724],[121.208148,31.288729],[121.208155,31.288733],[121.208166,31.288735],[121.208181,31.288736],[121.208195,31.28874],[121.208203,31.28874],[121.208207,31.288741],[121.208217,31.288743],[121.208232,31.288745],[121.208248,31.288742],[121.208263,31.288737],[121.208276,31.288727],[121.208291,31.288719],[121.208315,31.288707],[121.208327,31.288703],[121.208338,31.288701],[121.208348,31.288697],[121.208361,31.288691],[121.208374,31.288684],[121.208381,31.288676],[121.208393,31.288673],[121.208405,31.288664],[121.208429,31.288652],[121.208439,31.288643],[121.208449,31.288635],[121.208456,31.288626],[121.208469,31.288622],[121.20848,31.288617],[121.208493,31.288609],[121.208509,31.288598],[121.208527,31.288589],[121.20854,31.28858],[121.208553,31.288573],[121.208562,31.288568],[121.208569,31.288567],[121.208588,31.288563],[121.208596,31.288559],[121.208604,31.288552],[121.20861,31.288546],[121.208616,31.288543],[121.208614,31.288541],[121.208628,31.288548],[121.208628,31.288548],[121.208627,31.288539],[121.208637,31.288532],[121.20865,31.288527],[121.208663,31.288522],[121.208676,31.288517],[121.208692,31.288514],[121.208708,31.288511],[121.208722,31.288508],[121.208733,31.288501],[121.208744,31.288495],[121.208758,31.288487],[121.208771,31.288478],[121.208785,31.288467],[121.2088,31.288454],[121.208819,31.288445],[121.208833,31.288436],[121.208848,31.288424],[121.208859,31.28841],[121.208872,31.2884],[121.208885,31.288398],[121.208893,31.288392],[121.208899,31.288385],[121.208912,31.288371],[121.208921,31.288359],[121.208926,31.288356],[121.208931,31.28835],[121.20894,31.288344],[121.208948,31.288339],[121.208959,31.288338],[121.208968,31.288337],[121.208977,31.288329],[121.208985,31.28832],[121.208998,31.288317],[121.209009,31.288313],[121.209019,31.288306],[121.20903,31.288297],[121.20904,31.288288],[121.209048,31.288279],[121.209055,31.288268],[121.209069,31.288255],[121.209077,31.288251],[121.209087,31.288244],[121.209099,31.288237],[121.209111,31.288229],[121.209123,31.288226],[121.209132,31.288217],[121.209145,31.288216],[121.209155,31.288212],[121.209163,31.288206],[121.209166,31.288201],[121.209173,31.288197],[121.20918,31.28819],[121.209196,31.28818],[121.209211,31.288171],[121.20922,31.288161],[121.209232,31.288159],[121.209254,31.288152],[121.209266,31.288145],[121.209276,31.288142],[121.209287,31.288136],[121.209301,31.288134],[121.20931,31.288114],[121.209323,31.288114],[121.209338,31.288111],[121.209351,31.288105],[121.209357,31.288092],[121.209374,31.288089],[121.209386,31.288092],[121.209395,31.288092],[121.209405,31.288088],[121.209423,31.28808],[121.209437,31.28808],[121.209447,31.288081],[121.20946,31.288083],[121.209473,31.288089],[121.209487,31.288096],[121.2095,31.288103],[121.209513,31.288108],[121.209527,31.288117],[121.209541,31.288126],[121.209558,31.288134],[121.209587,31.288164],[121.20961,31.288179],[121.20962,31.288182],[121.209628,31.288201],[121.209631,31.288206],[121.209646,31.288209],[121.209658,31.288213],[121.209668,31.288213],[121.209678,31.288212],[121.209698,31.288226],[121.209709,31.288235],[121.209718,31.288241],[121.209725,31.28825],[121.209727,31.288247],[121.209729,31.288246],[121.209731,31.288245],[121.209739,31.288246],[121.209743,31.288246],[121.209749,31.28824],[121.209759,31.288227],[121.209766,31.288219],[121.209785,31.28821],[121.209796,31.288204],[121.209771,31.288173],[121.209787,31.288159],[121.209811,31.288142],[121.209917,31.288042],[121.209853,31.287977],[121.209881,31.287963],[121.209898,31.287953],[121.209981,31.288431],[121.209981,31.288431],[121.209976,31.288441],[121.209979,31.288454],[121.209983,31.28849],[121.209979,31.288519],[121.209983,31.288536],[121.209987,31.288505],[121.209979,31.288508],[121.209978,31.288519],[121.209972,31.288523],[121.209979,31.288531],[121.209978,31.288537],[121.209982,31.288543],[121.20998,31.288542],[121.209976,31.288535],[121.209976,31.288529],[121.209984,31.28853],[121.209992,31.288525],[121.210002,31.288517],[121.210012,31.288513],[121.210019,31.288507],[121.210019,31.288501],[121.210017,31.288496],[121.210022,31.288494],[121.210026,31.288493],[121.210026,31.288493],[121.210026,31.288493],[121.210026,31.288493],[121.210026,31.288493],[121.210026,31.288493],[121.210034,31.288489],[121.210036,31.288489],[121.210047,31.288482],[121.210051,31.28848],[121.210062,31.288472],[121.21007,31.28846],[121.210073,31.288455],[121.210074,31.288451],[121.210082,31.288445],[121.210077,31.288445],[121.210073,31.288444],[121.210076,31.288444],[121.210087,31.288446],[121.210101,31.28845],[121.210109,31.288446],[121.210103,31.288436],[121.210103,31.288436],[121.210086,31.288435],[121.210061,31.288442],[121.21006,31.288435],[121.210054,31.28843],[121.210056,31.288415],[121.21006,31.288403],[121.210066,31.288387],[121.21007,31.288379],[121.210076,31.288362],[121.210088,31.288353],[121.210092,31.288345],[121.210091,31.288334],[121.210094,31.288325],[121.210099,31.288314],[121.210111,31.288307],[121.20993,31.288922],[121.209942,31.288953],[121.209911,31.289004],[121.209985,31.289063],[121.209954,31.289037],[121.210014,31.288958],[121.210038,31.28894],[121.210042,31.288922],[121.210054,31.288904],[121.210046,31.288926],[121.210054,31.288941],[121.210069,31.288931],[121.210078,31.288925],[121.210088,31.288913],[121.210091,31.288902],[121.210089,31.288896],[121.210085,31.288889],[121.210073,31.288887],[121.210055,31.28889],[121.210046,31.288887],[121.210022,31.288891],[121.210016,31.288893],[121.210006,31.288892],[121.209991,31.28889],[121.209976,31.288888],[121.209952,31.288886],[121.209951,31.288881],[121.209953,31.288873],[121.209969,31.288865],[121.209965,31.288858],[121.209961,31.288854],[121.209979,31.288853],[121.210008,31.288868],[121.210371,31.288543],[121.210353,31.288537],[121.210368,31.288541],[121.21038,31.288555],[121.210442,31.288684],[121.210457,31.288696],[121.210518,31.288739],[121.210563,31.288773],[121.210561,31.288775],[121.210531,31.288741],[121.210513,31.28872],[121.210492,31.288696],[121.210469,31.288684],[121.210476,31.288689],[121.210472,31.288693],[121.21047,31.288695],[121.210473,31.288697],[121.210481,31.288704],[121.210498,31.288732],[121.210505,31.288743],[121.210514,31.288757],[121.210522,31.288763],[121.210529,31.288764],[121.210527,31.288762],[121.210536,31.288763],[121.210534,31.288766],[121.210541,31.288768],[121.210544,31.288766],[121.210592,31.288798],[121.210595,31.288799],[121.210602,31.288807],[121.210613,31.288814],[121.210619,31.288817],[121.210625,31.288817],[121.210633,31.288818],[121.210668,31.288832],[121.210676,31.288835],[121.210683,31.288838],[121.210687,31.288837],[121.210689,31.288837],[121.210693,31.288834],[121.210697,31.288832],[121.210704,31.288835],[121.210708,31.288837],[121.210712,31.288838],[121.210716,31.28884],[121.210719,31.28884],[121.210719,31.28884],[121.210711,31.288844],[121.210713,31.288851],[121.21073,31.288852],[121.210744,31.288846],[121.210768,31.288827],[121.210778,31.288822],[121.210789,31.288818],[121.210806,31.288817],[121.210819,31.288813],[121.210831,31.288806],[121.210844,31.288798],[121.210852,31.288795],[121.210867,31.288791],[121.210882,31.288789],[121.210896,31.288788],[121.210905,31.288784],[121.210911,31.288778],[121.210917,31.288776],[121.210927,31.288771],[121.210938,31.288762],[121.21095,31.288755],[121.210963,31.28875],[121.210971,31.288746],[121.21098,31.288743],[121.210987,31.288743],[121.210992,31.288741],[121.210997,31.288742],[121.210999,31.288742],[121.210999,31.288742],[121.210999,31.288742],[121.211002,31.288738],[121.211008,31.288734],[121.211017,31.28873],[121.211028,31.288723],[121.211043,31.288719],[121.211054,31.288722],[121.211059,31.288726],[121.211055,31.288719],[121.211049,31.288718],[121.211049,31.288718],[121.211049,31.288718],[121.211049,31.288718],[121.211049,31.288718],[121.211049,31.288718],[121.211045,31.288719],[121.211046,31.288716],[121.211046,31.288716],[121.211046,31.288716],[121.211038,31.288716],[121.211033,31.288722],[121.211033,31.288722],[121.211033,31.288722],[121.211033,31.288722],[121.211033,31.288722],[121.211033,31.288722],[121.211033,31.288722],[121.211033,31.288722],[121.211033,31.288722],[121.211033,31.288722],[121.211033,31.288722],[121.211033,31.288722],[121.211033,31.288722],[121.211033,31.288722],[121.211033,31.288722],[121.211033,31.288722],[121.211033,31.288722],[121.211033,31.288722],[121.211033,31.288722],[121.211033,31.288722],[121.211033,31.288722],[121.211033,31.288722],[121.211033,31.288722],[121.211033,31.288722],[121.211033,31.288722],[121.211033,31.288722],[121.211033,31.288722],[121.211033,31.288722],[121.211033,31.288722],[121.211033,31.288722],[121.211033,31.288722],[121.211033,31.288722],[121.211033,31.288722],[121.211033,31.288722],[121.211033,31.288722],[121.211033,31.288722],[121.211033,31.288722],[121.211033,31.288722],[121.211033,31.288722],[121.211033,31.288722],[121.211033,31.288722],[121.211033,31.288722],[121.211033,31.288722],[121.211033,31.288722],[121.211033,31.288722],[121.211033,31.288722],[121.211033,31.288722],[121.211033,31.288722],[121.21103,31.28872],[121.211024,31.288713],[121.211019,31.288699],[121.21101,31.288681],[121.210999,31.288662],[121.210993,31.288646],[121.210988,31.288634],[121.210982,31.288626],[121.210975,31.288617],[121.210966,31.288608],[121.210945,31.288589],[121.210936,31.288578],[121.210917,31.288565],[121.210911,31.288553],[121.210903,31.288545],[121.210896,31.288536],[121.210892,31.288525],[121.210889,31.288514],[121.210883,31.288511],[121.210882,31.288507],[121.210886,31.288495],[121.21088,31.288486],[121.210874,31.288481],[121.210871,31.288472],[121.210864,31.288467],[121.210857,31.288463],[121.210851,31.288458],[121.210846,31.288454],[121.210839,31.288448],[121.210834,31.288441],[121.210828,31.288433],[121.210822,31.288425],[121.210815,31.288419],[121.210806,31.288412],[121.210797,31.288409],[121.210784,31.288396],[121.210781,31.288392],[121.21078,31.288383],[121.210774,31.288379],[121.210758,31.288375],[121.210754,31.288374],[121.210798,31.288401],[121.210796,31.288398],[121.210796,31.288398],[121.210796,31.288398],[121.210796,31.288398],[121.21079,31.288378],[121.210759,31.288347],[121.210759,31.288335],[121.210762,31.288319],[121.210769,31.288295],[121.210767,31.288281],[121.210764,31.28827],[121.210755,31.288251],[121.210749,31.288239],[121.210745,31.288227],[121.210744,31.288216],[121.210733,31.288184],[121.210732,31.288164],[121.210727,31.288141],[121.210729,31.288132],[121.210725,31.288131],[121.210718,31.288129],[121.210712,31.288124],[121.210711,31.288114],[121.210712,31.28811],[121.210713,31.288104],[121.210711,31.2881],[121.210715,31.288097],[121.210722,31.288091],[121.210721,31.28809],[121.21072,31.288085],[121.210721,31.288082],[121.210722,31.288075],[121.21072,31.288069],[121.210715,31.288059],[121.210712,31.288047],[121.210713,31.288029],[121.210705,31.28802],[121.210697,31.288011],[121.210688,31.288],[121.210683,31.287992],[121.210671,31.287979],[121.210661,31.287968],[121.210652,31.28796],[121.210635,31.287959],[121.210597,31.287955],[121.210568,31.287959],[121.210513,31.28796],[121.210463,31.287948],[121.210405,31.287926],[121.210384,31.287911],[121.210358,31.287903],[121.210325,31.28789],[121.210301,31.287881],[121.210278,31.28787],[121.210257,31.287866],[121.210232,31.28786],[121.210209,31.28785],[121.210153,31.287812],[121.210143,31.287818],[121.210134,31.287804],[121.21012,31.287799],[121.210106,31.287795],[121.210093,31.287789],[121.210075,31.287787],[121.210055,31.287786],[121.210044,31.287781],[121.210037,31.287776],[121.210033,31.287768],[121.210027,31.287755],[121.210024,31.287745],[121.210021,31.287735],[121.210016,31.287717],[121.210009,31.287708],[121.209998,31.287694],[121.209989,31.287687],[121.209982,31.287682],[121.209987,31.287674],[121.209988,31.287668],[121.209981,31.28766],[121.209982,31.28765],[121.209973,31.287644],[121.209942,31.287619],[121.209926,31.28761],[121.209911,31.287599],[121.2099,31.287597],[121.209888,31.28759],[121.209884,31.287586],[121.209879,31.287578],[121.209868,31.287565],[121.209851,31.287549],[121.209835,31.287534],[121.209828,31.287525],[121.209818,31.287516],[121.209807,31.287504],[121.209797,31.287491],[121.20978,31.287475],[121.209766,31.287457],[121.209756,31.287447],[121.209749,31.287436],[121.209736,31.287421],[121.209725,31.287406],[121.209715,31.287394],[121.209711,31.287381],[121.209705,31.287366],[121.209699,31.287353],[121.209691,31.287342],[121.209673,31.287314],[121.209664,31.287307],[121.209657,31.287294],[121.209647,31.287278],[121.209668,31.287235],[121.209661,31.287223],[121.20965,31.287207],[121.209642,31.287193],[121.209632,31.28718],[121.209619,31.287166],[121.209613,31.287154],[121.209606,31.287143],[121.209597,31.28713],[121.209588,31.287122],[121.20969,31.287223],[121.20955,31.287092],[121.209536,31.28708],[121.209528,31.287071],[121.209519,31.287062],[121.209507,31.287049],[121.209499,31.287037],[121.209487,31.287024],[121.209478,31.287013],[121.209465,31.287003],[121.209445,31.286989],[121.209437,31.28698],[121.209427,31.286972],[121.20942,31.286964],[121.209411,31.286956],[121.209403,31.286947],[121.20939,31.286934],[121.209377,31.286922],[121.20939,31.286896],[121.20938,31.286885],[121.209375,31.286877],[121.209371,31.286865],[121.209371,31.286855],[121.209366,31.286845],[121.209361,31.286844],[121.209354,31.286838],[121.209349,31.286828],[121.209339,31.286814],[121.209331,31.286802],[121.209323,31.286792],[121.209312,31.28678],[121.209299,31.286767],[121.209257,31.286731],[121.209251,31.28672],[121.209239,31.286712],[121.209221,31.286697],[121.209213,31.286686],[121.209207,31.286671],[121.209193,31.286658],[121.209183,31.28665],[121.20918,31.286638],[121.20918,31.286625],[121.209194,31.286602],[121.209186,31.286591],[121.209181,31.286583],[121.209174,31.286579],[121.209171,31.28657],[121.209162,31.286562],[121.209155,31.286554],[121.209149,31.286543],[121.20914,31.286531],[121.209169,31.286522],[121.209126,31.286511],[121.209123,31.286505],[121.209118,31.286495],[121.209111,31.286482],[121.209099,31.286469],[121.209088,31.286455],[121.209079,31.286446],[121.209068,31.286437],[121.209063,31.286427],[121.209054,31.286406],[121.20904,31.286389],[121.209027,31.286378],[121.209016,31.286366],[121.209007,31.286351],[121.209022,31.286314],[121.208977,31.286309],[121.208969,31.286299],[121.208962,31.286291],[121.208957,31.286282],[121.208952,31.286274],[121.20895,31.286261],[121.208943,31.286251],[121.208933,31.286241],[121.208934,31.286236],[121.20893,31.286225],[121.208923,31.286214],[121.208909,31.286201],[121.208898,31.286189],[121.208886,31.286177],[121.208873,31.286165],[121.208862,31.28615],[121.208851,31.286138],[121.20884,31.286123],[121.208829,31.286109],[121.208818,31.286099],[121.208815,31.286089],[121.208824,31.286066],[121.208818,31.286057],[121.208812,31.286049],[121.208805,31.286039],[121.208801,31.286029],[121.208792,31.286017],[121.20878,31.286007],[121.208768,31.285993],[121.208757,31.28598],[121.208748,31.285968],[121.208742,31.285958],[121.208722,31.285974],[121.208707,31.285957],[121.208762,31.285927],[121.208687,31.285922],[121.20868,31.285915],[121.208675,31.285902],[121.208665,31.285893],[121.208658,31.285883],[121.20865,31.285875],[121.208627,31.285866],[121.208622,31.285853],[121.208614,31.285841],[121.208609,31.285831],[121.208598,31.28582],[121.20859,31.285806],[121.208581,31.285795],[121.208578,31.285786],[121.208573,31.285778],[121.208571,31.285767],[121.208573,31.285746],[121.208567,31.285735],[121.208559,31.28572],[121.208546,31.285691],[121.208544,31.285675],[121.208538,31.28566],[121.208533,31.285645],[121.208525,31.285631],[121.208517,31.285618],[121.20851,31.285602],[121.2085,31.285589],[121.208491,31.285577],[121.208486,31.285562],[121.208482,31.285551],[121.208478,31.285539],[121.208473,31.28553],[121.208468,31.285522],[121.208456,31.285508],[121.208454,31.285497],[121.208449,31.285484],[121.208443,31.28547],[121.208437,31.285455],[121.208431,31.285439],[121.208427,31.285424],[121.208418,31.285411],[121.208407,31.285397],[121.208395,31.285385],[121.208385,31.285378],[121.208371,31.28537],[121.20836,31.28536],[121.208349,31.285356],[121.208337,31.285346],[121.208326,31.285337],[121.208315,31.285326],[121.208295,31.285309],[121.208284,31.285305],[121.208274,31.285301],[121.208263,31.285299],[121.20825,31.285297],[121.208236,31.285295],[121.208222,31.285293],[121.208208,31.28529],[121.208191,31.285284],[121.208176,31.28528],[121.208146,31.285275],[121.208131,31.285271],[121.208114,31.285267],[121.208087,31.285257],[121.208073,31.285253],[121.208037,31.285244],[121.208008,31.285231],[121.207997,31.285224],[121.207989,31.285215],[121.207981,31.285207],[121.207975,31.285197],[121.207966,31.28519],[121.207946,31.285174],[121.207936,31.285163],[121.207926,31.28515],[121.207915,31.285137],[121.207895,31.285117],[121.207887,31.285109],[121.20788,31.285099],[121.207867,31.28508],[121.207862,31.285069],[121.207856,31.285056],[121.207851,31.285042],[121.207849,31.285031],[121.207846,31.285019],[121.207849,31.284996],[121.207849,31.284996],[121.207858,31.284872],[121.207858,31.284872],[121.207858,31.284872],[121.207858,31.284872],[121.207858,31.284872],[121.207858,31.284872],[121.207858,31.284872],[121.207851,31.284751],[121.207851,31.284751],[121.207851,31.284751],[121.207851,31.284751],[121.207851,31.284751],[121.207851,31.284751],[121.207851,31.284751],[121.207851,31.284751],[121.207851,31.284751],[121.207784,31.284665],[121.207784,31.284665],[121.207784,31.284665],[121.207784,31.284665],[121.207784,31.284665],[121.207784,31.284665],[121.207784,31.284665],[121.207784,31.284665],[121.207773,31.284642],[121.207627,31.284448],[121.207627,31.284448],[121.207627,31.284448],[121.207627,31.284448],[121.207627,31.284448],[121.207627,31.284448],[121.207627,31.284448],[121.207627,31.284448],[121.207584,31.284396],[121.207584,31.284396],[121.207584,31.284396],[121.207584,31.284396],[121.207584,31.284396],[121.207584,31.284396],[121.207584,31.284396],[121.207584,31.284396],[121.20756,31.284385],[121.20756,31.284385],[121.20756,31.284385],[121.20756,31.284385],[121.20756,31.284385],[121.20756,31.284385],[121.207509,31.284325],[121.207464,31.284262],[121.207464,31.284262],[121.207464,31.284262],[121.207464,31.284262],[121.207464,31.284262],[121.207464,31.284262],[121.207464,31.284262],[121.207464,31.284262],[121.20737,31.284178],[121.20737,31.284178],[121.20737,31.284178],[121.20737,31.284178],[121.20737,31.284178],[121.20737,31.284178],[121.20737,31.284178],[121.20737,31.284178],[121.20737,31.284175],[121.207368,31.284087],[121.207368,31.284087],[121.207368,31.284087],[121.207368,31.284087],[121.207368,31.284087],[121.207368,31.284087],[121.207368,31.284087],[121.207368,31.284087],[121.207465,31.283946],[121.207465,31.283946],[121.207465,31.283946],[121.207465,31.283946],[121.207465,31.283946],[121.207465,31.283946],[121.207465,31.283946],[121.207465,31.283946],[121.207477,31.283936],[121.20757,31.283852],[121.20757,31.283852],[121.20757,31.283852],[121.20757,31.283852],[121.20757,31.283852],[121.207581,31.283845],[121.207581,31.283845],[121.207667,31.283761],[121.207667,31.283761],[121.207667,31.283761],[121.207667,31.283761],[121.207667,31.283761],[121.207667,31.283761],[121.207667,31.283761],[121.207667,31.283761],[121.207667,31.283761],[121.207696,31.283729],[121.207696,31.283729],[121.207696,31.283729],[121.207696,31.283729],[121.207696,31.283729],[121.207696,31.283729],[121.207696,31.283729],[121.207696,31.283729],[121.207696,31.283729],[121.207798,31.283721],[121.207798,31.283721],[121.207798,31.283721],[121.207798,31.283721],[121.207798,31.283721],[121.207798,31.283721],[121.207798,31.283721],[121.207798,31.283721],[121.207815,31.28372],[121.207842,31.283673],[121.207842,31.283673],[121.207842,31.283673],[121.207842,31.283673],[121.207842,31.283673],[121.207842,31.283673],[121.207842,31.283673],[121.207869,31.283627],[121.207869,31.283627],[121.207869,31.283627],[121.207869,31.283627],[121.207869,31.283627],[121.207869,31.283627],[121.207869,31.283627],[121.207869,31.283627],[121.207869,31.283627],[121.207861,31.283639],[121.207861,31.283639],[121.207861,31.283639],[121.207861,31.283639],[121.207861,31.283639],[121.207861,31.283639],[121.207861,31.283639],[121.207861,31.283639],[121.207861,31.283639],[121.2078,31.283687],[121.2078,31.283687],[121.2078,31.283687],[121.2078,31.283687],[121.2078,31.283687],[121.2078,31.283687],[121.2078,31.283687],[121.2078,31.283687],[121.207787,31.283699],[121.207784,31.283732],[121.207784,31.283732],[121.207784,31.283732],[121.207784,31.283732],[121.207784,31.283732],[121.207784,31.283732],[121.207784,31.283732],[121.207784,31.283732],[121.207791,31.283707],[121.207791,31.283707],[121.207791,31.283707],[121.207791,31.283707],[121.207791,31.283707],[121.207791,31.283707],[121.207791,31.283707],[121.207791,31.283707],[121.207791,31.283707],[121.207789,31.283705],[121.207789,31.283705],[121.207789,31.283705],[121.207789,31.283705],[121.207789,31.283705],[121.207789,31.283705],[121.207789,31.283705],[121.207789,31.283705],[121.207854,31.283654],[121.207854,31.283654],[121.207854,31.283654],[121.207854,31.283654],[121.207854,31.283654],[121.207854,31.283654],[121.207854,31.283654],[121.207854,31.283654],[121.207854,31.283654],[121.207854,31.283654],[121.20785,31.283648],[121.20785,31.283648],[121.20785,31.283648],[121.20785,31.283648],[121.20785,31.283648],[121.20785,31.283648],[121.20785,31.283648],[121.20785,31.283648],[121.20785,31.283648],[121.207802,31.283679],[121.207802,31.283679],[121.207802,31.283679],[121.207802,31.283679],[121.207802,31.283679],[121.207802,31.283679],[121.207802,31.283679],[121.207802,31.283679],[121.207802,31.283679],[121.207786,31.283689],[121.207746,31.283704],[121.207746,31.283704],[121.207746,31.283704],[121.207746,31.283704],[121.207746,31.283704],[121.207746,31.283704],[121.207746,31.283704],[121.207746,31.283704],[121.20776,31.283705],[121.20776,31.283705],[121.20776,31.283705],[121.20776,31.283705],[121.20776,31.283705],[121.20776,31.283705],[121.20776,31.283705],[121.20776,31.283705],[121.20776,31.283705],[121.207762,31.283697],[121.207762,31.283697],[121.207762,31.283697],[121.207762,31.283697],[121.207762,31.283697],[121.207762,31.283697],[121.207762,31.283697],[121.207762,31.283697],[121.207762,31.283697],[121.207762,31.283697],[121.207762,31.283697],[121.207762,31.283697],[121.207762,31.283697],[121.207762,31.283697],[121.207762,31.283697],[121.207762,31.283697],[121.207762,31.283697],[121.207762,31.283697],[121.207762,31.283697],[121.207762,31.283697],[121.207762,31.283697],[121.207762,31.283697],[121.207762,31.283697],[121.207762,31.283697],[121.207762,31.283697],[121.207762,31.283697],[121.207762,31.283697],[121.207762,31.283697],[121.207762,31.283697],[121.207762,31.283697],[121.207762,31.283697],[121.207762,31.283697],[121.207762,31.283697],[121.207762,31.283697],[121.207762,31.283697],[121.207762,31.283697],[121.207762,31.283697],[121.207762,31.283697],[121.207762,31.283697],[121.207762,31.283697],[121.207762,31.283697],[121.207762,31.283697],[121.207762,31.283697],[121.207762,31.283697],[121.207762,31.283697],[121.207762,31.283697],[121.207762,31.283697],[121.207762,31.283697],[121.207762,31.283697],[121.207762,31.283697],[121.207762,31.283697],[121.207762,31.283697],[121.207762,31.283697],[121.207762,31.283697],[121.207762,31.283697],[121.207762,31.283697],[121.207762,31.283697],[121.207762,31.283697],[121.207762,31.283697],[121.207762,31.283697],[121.207762,31.283697],[121.207762,31.283697],[121.20778,31.283704],[121.20778,31.283704],[121.20778,31.283704],[121.20778,31.283704],[121.20778,31.283704],[121.20778,31.283704],[121.20778,31.283704],[121.20778,31.283704],[121.20778,31.283704],[121.20778,31.283704],[121.20769,31.283733],[121.20769,31.283733],[121.20769,31.283733],[121.20769,31.283733],[121.20769,31.283733],[121.20769,31.283733],[121.20769,31.283733],[121.20769,31.283733],[121.20769,31.283733],[121.207677,31.28372],[121.207677,31.28372],[121.207677,31.28372],[121.207677,31.28372],[121.207677,31.28372],[121.207677,31.28372],[121.207677,31.28372],[121.207677,31.28372],[121.207677,31.28372],[121.207677,31.28372],[121.207677,31.28372],[121.207677,31.28372],[121.207677,31.28372],[121.207677,31.28372],[121.207677,31.28372],[121.207677,31.28372],[121.207677,31.28372],[121.207677,31.28372],[121.207677,31.28372],[121.207677,31.28372],[121.207677,31.28372],[121.207677,31.28372],[121.207677,31.28372],[121.207677,31.28372],[121.207677,31.28372],[121.207677,31.28372],[121.207677,31.28372],[121.207677,31.28372],[121.207677,31.28372],[121.207677,31.28372],[121.207677,31.28372],[121.207677,31.28372],[121.207677,31.28372],[121.207677,31.28372],[121.207677,31.28372],[121.207675,31.283717],[121.207675,31.283717],[121.207675,31.283717],[121.207675,31.283717],[121.207675,31.283717],[121.207675,31.283717],[121.207675,31.283717],[121.207675,31.283717],[121.207675,31.283717],[121.207675,31.283717],[121.207675,31.283717],[121.207675,31.283717],[121.207675,31.283717],[121.207675,31.283717],[121.207675,31.283717],[121.207675,31.283717],[121.207675,31.283717],[121.207675,31.283717],[121.207675,31.283717],[121.207675,31.283717],[121.207675,31.283717],[121.207675,31.283717],[121.207675,31.283717],[121.207675,31.283717],[121.207675,31.283717],[121.207675,31.283717],[121.207675,31.283717],[121.207675,31.283717],[121.207675,31.283717],[121.207675,31.283717],[121.207675,31.283717],[121.207675,31.283717],[121.207675,31.283717],[121.207675,31.283717],[121.207675,31.283717],[121.207675,31.283717],[121.207675,31.283717],[121.207675,31.283717],[121.207675,31.283717],[121.207675,31.283717],[121.207675,31.283717],[121.207675,31.283717],[121.207675,31.283717],[121.207675,31.283717],[121.207675,31.283717],[121.207675,31.283717],[121.207675,31.283717],[121.207675,31.283717],[121.207675,31.283717],[121.207675,31.283717],[121.207675,31.283717],[121.207675,31.283717],[121.207675,31.283717],[121.207675,31.283717],[121.207675,31.283717],[121.207677,31.283717],[121.207677,31.283717],[121.207677,31.283717],[121.207677,31.283717],[121.207677,31.283717],[121.207677,31.283717],[121.207677,31.283717],[121.207677,31.283717],[121.207677,31.283717],[121.207677,31.283717],[121.207668,31.283714],[121.207668,31.283714],[121.207668,31.283714],[121.207668,31.283714],[121.207668,31.283714],[121.207668,31.283714],[121.207668,31.283714],[121.207668,31.283714],[121.207575,31.283619],[121.207575,31.283619],[121.207575,31.283619],[121.207575,31.283619],[121.207575,31.283619],[121.207575,31.283619],[121.207575,31.283619],[121.207575,31.283619],[121.207575,31.283619],[121.207565,31.283606],[121.207505,31.283512],[121.207505,31.283512],[121.207505,31.283512],[121.207505,31.283512],[121.207505,31.283512],[121.207505,31.283512],[121.207505,31.283512],[121.207437,31.283387],[121.207437,31.283387],[121.207437,31.283387],[121.207437,31.283387],[121.207437,31.283387],[121.207437,31.283387],[121.207437,31.283387],[121.207437,31.283387],[121.207437,31.283387],[121.207446,31.283376],[121.207519,31.283323],[121.207519,31.283323],[121.207519,31.283323],[121.207519,31.283323],[121.207519,31.283323],[121.207519,31.283323],[121.207612,31.283264],[121.207612,31.283264],[121.207612,31.283264],[121.207612,31.283264],[121.207612,31.283264],[121.207612,31.283264],[121.207612,31.283264],[121.207612,31.283264],[121.207612,31.283264],[121.207615,31.28327],[121.207615,31.28327],[121.207615,31.28327],[121.207615,31.28327],[121.207615,31.28327],[121.207615,31.28327],[121.207615,31.28327],[121.207615,31.28327],[121.207615,31.28327],[121.207635,31.283244],[121.207635,31.283244],[121.207635,31.283244],[121.207635,31.283244],[121.207635,31.283244],[121.207635,31.283244],[121.207635,31.283244],[121.207635,31.283244],[121.207635,31.283244],[121.207633,31.283236]]}}]}