{"type":"FeatureCollection","features":[{"type":"Feature","properties":{"id":"2026-08-05_cycling_46","type":"cycling","date":"2026-08-05"},"geometry":{"type":"LineString","coordinates":[[121.391774,31.227413],[121.391792,31.227456],[121.391798,31.227495],[121.391807,31.227534],[121.391814,31.227572],[121.39182,31.22761],[121.391825,31.227649],[121.391831,31.227687],[121.391837,31.227726],[121.391841,31.227764],[121.391846,31.227802],[121.39185,31.227841],[121.391851,31.227882],[121.391851,31.227923],[121.391851,31.227966],[121.391849,31.228009],[121.391847,31.228051],[121.391846,31.228091],[121.391845,31.228129],[121.391844,31.228165],[121.391842,31.2282],[121.391841,31.228237],[121.391841,31.228276],[121.391841,31.228317],[121.391841,31.22836],[121.391841,31.228412],[121.391842,31.228463],[121.391843,31.228515],[121.391843,31.228564],[121.391844,31.228611],[121.391846,31.22865],[121.391814,31.228702],[121.391814,31.228741],[121.391777,31.228793],[121.391776,31.228836],[121.391774,31.228878],[121.391806,31.228908],[121.391805,31.228953],[121.39184,31.228986],[121.39184,31.22903],[121.391842,31.229074],[121.391844,31.229118],[121.391846,31.229171],[121.391849,31.229224],[121.39185,31.229277],[121.391851,31.229331],[121.391851,31.229385],[121.39185,31.229431],[121.39185,31.229475],[121.391849,31.229518],[121.391848,31.22956],[121.39185,31.229602],[121.391851,31.229643],[121.391818,31.229697],[121.391818,31.229739],[121.391784,31.229792],[121.391782,31.229834],[121.391781,31.229875],[121.391815,31.229905],[121.391817,31.229953],[121.391856,31.22999],[121.391868,31.230036],[121.391887,31.230081],[121.391915,31.230121],[121.39195,31.23015],[121.39199,31.230171],[121.392033,31.230188],[121.392078,31.230201],[121.392122,31.230213],[121.392166,31.230225],[121.392211,31.230238],[121.392257,31.230252],[121.392308,31.230266],[121.392363,31.230278],[121.39242,31.23029],[121.392479,31.230301],[121.39255,31.230314],[121.39262,31.230326],[121.392688,31.230339],[121.392754,31.230352],[121.39282,31.230366],[121.392875,31.230379],[121.39293,31.230393],[121.392985,31.230407],[121.393043,31.230421],[121.393084,31.230455],[121.393139,31.23047],[121.393192,31.230486],[121.393224,31.230519],[121.393272,31.230537],[121.393332,31.230537],[121.393375,31.230555],[121.393417,31.230574],[121.393485,31.230579],[121.393538,31.230598],[121.393592,31.230615],[121.393647,31.230633],[121.393702,31.230649],[121.393748,31.230662],[121.393794,31.230676],[121.393841,31.230691],[121.393889,31.230706],[121.393939,31.230723],[121.393988,31.230741],[121.394036,31.230763],[121.394084,31.230787],[121.394125,31.230821],[121.394167,31.23085],[121.394202,31.230889],[121.394239,31.230914],[121.394279,31.230945],[121.394318,31.230985],[121.39436,31.231023],[121.394408,31.231053],[121.394453,31.231099],[121.394492,31.231145],[121.394533,31.231175],[121.394562,31.231219],[121.394585,31.231265],[121.394601,31.231312],[121.394609,31.231358],[121.394613,31.231405],[121.394615,31.231454],[121.394617,31.231502],[121.394617,31.231551],[121.394615,31.231601],[121.394612,31.231648],[121.394606,31.231704],[121.394598,31.23176],[121.394592,31.231815],[121.394585,31.231869],[121.394566,31.231935],[121.394563,31.23198],[121.394561,31.232024],[121.394559,31.232071],[121.394557,31.232119],[121.39457,31.232155],[121.394568,31.232205],[121.394567,31.232255],[121.394566,31.232304],[121.394565,31.232352],[121.394565,31.232399],[121.394565,31.232448],[121.394565,31.232496],[121.394564,31.232551],[121.39456,31.232605],[121.394554,31.23266],[121.394548,31.232712],[121.394542,31.232764],[121.394536,31.232808],[121.394531,31.232851],[121.394528,31.232893],[121.394523,31.232935],[121.394519,31.232976],[121.394515,31.233018],[121.394512,31.233059],[121.394509,31.233101],[121.394504,31.233144],[121.394499,31.233187],[121.394474,31.233247],[121.394469,31.233293],[121.394465,31.233348],[121.394463,31.2334],[121.394462,31.233451],[121.39448,31.233481],[121.394481,31.233523],[121.394482,31.23355],[121.394483,31.233574],[121.394485,31.233595],[121.394488,31.233614],[121.394494,31.233631],[121.394503,31.233648],[121.394518,31.233664],[121.394539,31.23368],[121.394568,31.233694],[121.394601,31.233705],[121.394641,31.233713],[121.394686,31.233718],[121.394745,31.233722],[121.394806,31.233726],[121.394867,31.233731],[121.394928,31.233735],[121.394987,31.233739],[121.395035,31.233742],[121.395078,31.233745],[121.39512,31.233749],[121.395164,31.233754],[121.395208,31.23376],[121.395254,31.233766],[121.395304,31.233771],[121.39536,31.233773],[121.395419,31.233773],[121.39548,31.233773],[121.395542,31.233773],[121.395608,31.233773],[121.395684,31.233771],[121.395757,31.233767],[121.39583,31.233761],[121.395903,31.233754],[121.395974,31.233747],[121.396031,31.233746],[121.396087,31.233748],[121.396141,31.233752],[121.396192,31.233756],[121.396244,31.23376],[121.396296,31.233761],[121.39635,31.233761],[121.396407,31.233759],[121.396466,31.233757],[121.396525,31.233755],[121.396584,31.233753],[121.396642,31.233751],[121.396708,31.233751],[121.396771,31.233754],[121.396833,31.233759],[121.396892,31.233765],[121.396949,31.233772],[121.396993,31.233777],[121.397035,31.23378],[121.397074,31.233778],[121.397107,31.233772],[121.397134,31.233761],[121.397152,31.233745],[121.39716,31.233724],[121.397161,31.233697],[121.397158,31.233668],[121.397155,31.233637],[121.397156,31.233605],[121.39716,31.233574],[121.397169,31.233542],[121.397178,31.233511],[121.397188,31.233482],[121.397194,31.233453],[121.397198,31.233424],[121.3972,31.233399],[121.3972,31.233371],[121.397199,31.23334],[121.3972,31.233305],[121.397203,31.233266],[121.397208,31.233224],[121.397214,31.233181],[121.397219,31.233139],[121.397222,31.233099],[121.397223,31.23306],[121.397223,31.233023],[121.397223,31.232989],[121.397223,31.232953],[121.397227,31.232921],[121.397231,31.232893],[121.397237,31.23287],[121.397244,31.232851],[121.397251,31.23284],[121.397257,31.232832],[121.397262,31.232827],[121.397266,31.232823],[121.397269,31.232818],[121.39727,31.232812],[121.397271,31.232806],[121.397271,31.232801],[121.397269,31.232797],[121.397268,31.232795],[121.397266,31.232795],[121.397265,31.232794],[121.397262,31.232791],[121.397261,31.232788],[121.39726,31.232785],[121.39726,31.232782],[121.397261,31.232779],[121.397261,31.232776],[121.397261,31.232771],[121.39726,31.232761],[121.397258,31.232746],[121.397257,31.232724],[121.397258,31.232697],[121.397261,31.232664],[121.397264,31.232627],[121.397268,31.232584],[121.397271,31.23254],[121.397272,31.232494],[121.397271,31.23245],[121.397266,31.232401],[121.397261,31.232358],[121.397257,31.232319],[121.397254,31.232282],[121.397251,31.232249],[121.397252,31.232226],[121.397254,31.232204],[121.397258,31.232182],[121.397263,31.232161],[121.39727,31.232136],[121.397277,31.232105],[121.397284,31.232068],[121.39729,31.232026],[121.397294,31.231981],[121.397297,31.231936],[121.397301,31.231891],[121.397307,31.231846],[121.397318,31.231795],[121.397332,31.231746],[121.39735,31.2317],[121.397374,31.231658],[121.397404,31.231622],[121.397434,31.231602],[121.397466,31.23159],[121.397497,31.231584],[121.397525,31.231582],[121.397545,31.231582],[121.397561,31.231582],[121.397574,31.231582],[121.397584,31.23158],[121.397589,31.231579],[121.397594,31.231579],[121.397598,31.231578],[121.397602,31.231579],[121.397613,31.231584],[121.397628,31.231591],[121.397646,31.231599],[121.397667,31.231606],[121.397688,31.231611],[121.397704,31.231612],[121.397718,31.23161],[121.397731,31.231608],[121.397745,31.231606],[121.397763,31.231606],[121.397786,31.231607],[121.397812,31.231611],[121.39784,31.231617],[121.397868,31.231625],[121.397895,31.231634],[121.397919,31.231644],[121.397941,31.231658],[121.397959,31.231672],[121.397972,31.231691],[121.397981,31.231716],[121.397988,31.231748],[121.397993,31.231787],[121.397996,31.231834],[121.397996,31.231887],[121.397994,31.231943],[121.397989,31.232],[121.397984,31.232055],[121.397978,31.232109],[121.397972,31.232159],[121.397966,31.232209],[121.397959,31.232254],[121.397949,31.232296],[121.397939,31.232335],[121.39793,31.232372],[121.39792,31.232406],[121.39791,31.23244],[121.397901,31.232469],[121.397893,31.23249],[121.397883,31.232515],[121.397882,31.232514]]}}]}