{"type":"FeatureCollection","features":[{"type":"Feature","properties":{"id":"2026-04-18_running_31","type":"running","date":"2026-04-18"},"geometry":{"type":"LineString","coordinates":[[121.399545,31.230003],[121.399559,31.229965],[121.399563,31.229954],[121.39957,31.229932],[121.399579,31.229913],[121.399595,31.229895],[121.399615,31.229877],[121.399638,31.229858],[121.399662,31.229836],[121.399688,31.229814],[121.399717,31.229794],[121.399747,31.229777],[121.399785,31.22976],[121.399822,31.229747],[121.399858,31.229738],[121.39989,31.229733],[121.399921,31.22973],[121.399953,31.229728],[121.399985,31.229728],[121.400016,31.229731],[121.400047,31.229737],[121.400077,31.229746],[121.400108,31.229758],[121.400138,31.229772],[121.400168,31.229788],[121.400194,31.229806],[121.40022,31.229828],[121.400243,31.229851],[121.400264,31.229876],[121.400283,31.229906],[121.4003,31.229935],[121.400313,31.229965],[121.400321,31.229993],[121.400328,31.23002],[121.400332,31.230049],[121.400333,31.230079],[121.400331,31.23011],[121.400327,31.230142],[121.400321,31.230175],[121.400312,31.23021],[121.400303,31.230242],[121.400295,31.230269],[121.400287,31.230295],[121.400279,31.230322],[121.400271,31.230351],[121.400262,31.230381],[121.400252,31.230415],[121.400241,31.230451],[121.400232,31.230483],[121.400224,31.230511],[121.400217,31.230537],[121.400209,31.230563],[121.400201,31.23059],[121.400192,31.230619],[121.400183,31.230647],[121.400174,31.230676],[121.400164,31.230704],[121.400155,31.230732],[121.400145,31.230759],[121.400136,31.230786],[121.400127,31.230812],[121.400118,31.230838],[121.400109,31.230861],[121.400099,31.230886],[121.400089,31.23091],[121.400079,31.230934],[121.400068,31.230957],[121.400055,31.23098],[121.40004,31.231004],[121.400021,31.231029],[121.399997,31.231055],[121.39997,31.231079],[121.399943,31.231099],[121.399915,31.231117],[121.399886,31.231133],[121.399858,31.231145],[121.399827,31.231155],[121.399796,31.231161],[121.399763,31.231165],[121.399729,31.231166],[121.399693,31.231165],[121.399653,31.231161],[121.399615,31.231154],[121.399579,31.231145],[121.39955,31.231134],[121.399523,31.231122],[121.399497,31.231108],[121.399471,31.231092],[121.399446,31.231075],[121.399421,31.231056],[121.3994,31.231036],[121.39938,31.231012],[121.399361,31.230987],[121.399345,31.230961],[121.399332,31.230935],[121.399322,31.230907],[121.399315,31.230877],[121.39931,31.230846],[121.399309,31.230811],[121.399312,31.230777],[121.399318,31.230741],[121.399327,31.23071],[121.399338,31.230677],[121.399348,31.230647],[121.399358,31.230618],[121.399366,31.230595],[121.399374,31.23057],[121.399382,31.230548],[121.399391,31.230521],[121.3994,31.230495],[121.399408,31.230468],[121.399417,31.230441],[121.399426,31.230413],[121.399435,31.230384],[121.399444,31.230354],[121.399455,31.23032],[121.399466,31.230287],[121.399476,31.230254],[121.399485,31.230226],[121.399495,31.230198],[121.399504,31.23017],[121.399513,31.230142],[121.399523,31.230115],[121.399532,31.230088],[121.39954,31.230062],[121.399549,31.230036],[121.399558,31.230011],[121.399567,31.229986],[121.399577,31.229961],[121.399587,31.229937],[121.399599,31.229913],[121.399614,31.22989],[121.399635,31.229865],[121.399661,31.229839],[121.399691,31.229814],[121.399722,31.229792],[121.399755,31.229773],[121.399788,31.229757],[121.399823,31.229743],[121.399857,31.229733],[121.399891,31.229726],[121.399923,31.229721],[121.399956,31.229718],[121.39999,31.229717],[121.400022,31.229719],[121.400054,31.229725],[121.400086,31.229735],[121.400116,31.229748],[121.400146,31.229764],[121.400176,31.229782],[121.400206,31.229805],[121.400233,31.229831],[121.400257,31.229858],[121.400276,31.229884],[121.400292,31.229911],[121.400306,31.229938],[121.400318,31.229966],[121.400327,31.229993],[121.400334,31.230021],[121.400338,31.230048],[121.400339,31.230077],[121.400338,31.230106],[121.400335,31.230136],[121.400328,31.230166],[121.400321,31.230195],[121.400312,31.230224],[121.400303,31.230251],[121.400294,31.230277],[121.400287,31.230301],[121.400279,31.230326],[121.400272,31.230352],[121.400264,31.23038],[121.400256,31.230408],[121.400248,31.230438],[121.400241,31.230465],[121.400233,31.230492],[121.400226,31.230517],[121.400219,31.230541],[121.400211,31.230567],[121.400202,31.230593],[121.400194,31.230621],[121.400185,31.230651],[121.400176,31.23068],[121.400167,31.23071],[121.400158,31.23074],[121.400146,31.230775],[121.400133,31.230809],[121.40012,31.230845],[121.400109,31.230875],[121.400097,31.230904],[121.400084,31.230932],[121.40007,31.230959],[121.400053,31.230986],[121.400035,31.231012],[121.400013,31.231037],[121.399989,31.231061],[121.399962,31.231083],[121.399935,31.231101],[121.399907,31.231117],[121.399875,31.231131],[121.399842,31.231143],[121.399807,31.231151],[121.399765,31.231157],[121.399723,31.231159],[121.399681,31.231159],[121.399643,31.231155],[121.399606,31.231148],[121.39957,31.231139],[121.399536,31.231128],[121.399505,31.231114],[121.399475,31.231097],[121.399448,31.23108],[121.399422,31.231059],[121.399399,31.231037],[121.399378,31.231012],[121.39936,31.230986],[121.399345,31.230958],[121.399333,31.230928],[121.399324,31.230897],[121.399317,31.23086],[121.399314,31.230822],[121.399315,31.230781],[121.39932,31.230743],[121.399328,31.230707],[121.399337,31.230676],[121.399346,31.23065],[121.399355,31.230623],[121.399364,31.230595],[121.399374,31.230567],[121.399384,31.230539],[121.399394,31.23051],[121.399405,31.230479],[121.399415,31.230451],[121.399425,31.230422],[121.399435,31.230395],[121.399445,31.230365],[121.399456,31.230335],[121.399466,31.230305],[121.399477,31.230275],[121.399487,31.230245],[121.399497,31.230216],[121.399507,31.230187],[121.399517,31.230159],[121.399527,31.230131],[121.399537,31.230105],[121.399547,31.230077],[121.399558,31.230049],[121.399569,31.230022],[121.39958,31.229997],[121.399591,31.229972],[121.399605,31.229944],[121.39962,31.229916],[121.399637,31.229888],[121.399658,31.22986],[121.399687,31.229828],[121.399723,31.229795],[121.399761,31.229768],[121.399796,31.229749],[121.399828,31.229736],[121.399861,31.229726],[121.399894,31.229719],[121.399927,31.229714],[121.39996,31.229712],[121.399993,31.229712],[121.400026,31.229715],[121.400058,31.229722],[121.400089,31.229732],[121.400119,31.229744],[121.400149,31.229758],[121.400178,31.229775],[121.400206,31.229795],[121.400231,31.229817],[121.400254,31.229841],[121.400273,31.229865],[121.400289,31.229889],[121.400304,31.229915],[121.400318,31.229941],[121.400329,31.229968],[121.400338,31.229996],[121.400344,31.230023],[121.400347,31.230051],[121.400347,31.230079],[121.400345,31.230108],[121.40034,31.230138],[121.400333,31.230169],[121.400325,31.2302],[121.400315,31.23023],[121.400305,31.23026],[121.400296,31.230289],[121.400287,31.230319],[121.400278,31.230348],[121.40027,31.230376],[121.400262,31.230404],[121.400255,31.230432],[121.400246,31.230461],[121.400238,31.230489],[121.400229,31.230516],[121.40022,31.230544],[121.40021,31.230572],[121.4002,31.2306],[121.40019,31.230629],[121.40018,31.230659],[121.400171,31.230688],[121.400162,31.230717],[121.400152,31.230747],[121.400142,31.230778],[121.400131,31.23081],[121.400119,31.230845],[121.400105,31.230879],[121.400092,31.230911],[121.400079,31.23094],[121.400065,31.230967],[121.400049,31.230993],[121.400029,31.231018],[121.400006,31.231042],[121.399983,31.231064],[121.399957,31.231084],[121.399929,31.231102],[121.399899,31.231118],[121.399868,31.231131],[121.399835,31.231142],[121.399802,31.23115],[121.399764,31.231155],[121.399727,31.231158],[121.399684,31.231157],[121.399644,31.231153],[121.399603,31.231146],[121.399567,31.231135],[121.399534,31.231124],[121.399502,31.23111],[121.399472,31.231095],[121.399444,31.231078],[121.399416,31.231057],[121.399394,31.231035],[121.399373,31.23101],[121.399356,31.230985],[121.399341,31.230956],[121.39933,31.230927],[121.399321,31.230897],[121.399315,31.230865],[121.399312,31.230832],[121.399313,31.230793],[121.399318,31.230757],[121.399326,31.230719],[121.399335,31.230687],[121.399345,31.230654],[121.399356,31.230624],[121.399365,31.230597],[121.399375,31.230571],[121.399384,31.230545],[121.399394,31.230518],[121.399404,31.23049],[121.399413,31.230463],[121.399423,31.230434],[121.399433,31.230405],[121.399443,31.230375],[121.399453,31.230344],[121.399464,31.230312],[121.399476,31.230275],[121.399488,31.230239],[121.3995,31.230205],[121.39951,31.230175],[121.399521,31.230145],[121.399531,31.230116],[121.399542,31.230087],[121.399553,31.230059],[121.399564,31.230031],[121.399576,31.230003],[121.399588,31.229977],[121.3996,31.229951],[121.399614,31.229926],[121.399628,31.229901],[121.399644,31.229878],[121.399663,31.229853],[121.399685,31.229829],[121.39972,31.2298],[121.399759,31.229774],[121.3998,31.229751],[121.399835,31.229738],[121.399868,31.229728],[121.399901,31.22972],[121.399934,31.229715],[121.399966,31.229713],[121.399997,31.229715],[121.400028,31.229719],[121.400058,31.229727],[121.400088,31.229736],[121.400118,31.229747],[121.400147,31.22976],[121.400174,31.229776],[121.400201,31.229795],[121.400225,31.229816],[121.400247,31.229838],[121.400266,31.229861],[121.400283,31.229885],[121.400298,31.229912],[121.400311,31.22994],[121.400322,31.229967],[121.40033,31.229995],[121.400335,31.230021],[121.400338,31.230049],[121.400338,31.230075],[121.400336,31.230106],[121.400332,31.230136],[121.400325,31.230169],[121.400318,31.2302],[121.400309,31.230231],[121.4003,31.23026],[121.400292,31.23029],[121.400283,31.23032],[121.400275,31.23035],[121.400268,31.230379],[121.400261,31.230409],[121.400253,31.230438],[121.400244,31.230468],[121.400235,31.230497],[121.400226,31.230526],[121.400217,31.230555],[121.400208,31.230583],[121.400199,31.230613],[121.400191,31.230641],[121.400182,31.230671],[121.400173,31.2307],[121.400164,31.23073],[121.400154,31.230759],[121.400144,31.230788],[121.400134,31.230818],[121.400123,31.230849],[121.400108,31.230884],[121.400093,31.230917],[121.400077,31.230949],[121.400061,31.230975],[121.400042,31.231002],[121.400022,31.231027],[121.4,31.23105],[121.399977,31.23107],[121.399951,31.23109],[121.399924,31.231107],[121.399895,31.231122],[121.399866,31.231135],[121.399835,31.231144],[121.399804,31.231151],[121.39977,31.231155],[121.399734,31.231156],[121.399696,31.231155],[121.399653,31.231149],[121.399611,31.231141],[121.39957,31.231129],[121.399536,31.231116],[121.399503,31.231103],[121.399473,31.231087],[121.399445,31.231069],[121.399418,31.231048],[121.399397,31.231027],[121.399377,31.231003],[121.39936,31.230978],[121.399346,31.230951],[121.399335,31.230925],[121.399327,31.230898],[121.399321,31.23087],[121.399317,31.23084],[121.399315,31.230808],[121.399317,31.230779],[121.399321,31.230748],[121.399328,31.230719],[121.399336,31.230691],[121.399345,31.230663],[121.399354,31.230636],[121.399363,31.230609],[121.399373,31.230581],[121.399382,31.230555],[121.399392,31.230527],[121.399401,31.230501],[121.399412,31.230472],[121.399422,31.230443],[121.399431,31.230413],[121.39944,31.230384],[121.399448,31.230353],[121.399457,31.230324],[121.399467,31.230293],[121.399477,31.230262],[121.399486,31.230232],[121.399495,31.230201],[121.399505,31.230171],[121.399514,31.230142],[121.399522,31.230115],[121.399531,31.230087],[121.399541,31.230059],[121.399551,31.23003],[121.399563,31.23],[121.399576,31.229972],[121.39959,31.229943],[121.399605,31.229917],[121.399621,31.229891],[121.399639,31.229867],[121.39966,31.229842],[121.399683,31.229818],[121.39971,31.229796],[121.399741,31.229774],[121.399773,31.229756],[121.399804,31.229741],[121.399835,31.229731],[121.399867,31.229724],[121.3999,31.229719],[121.399932,31.229716],[121.399965,31.229717],[121.399997,31.229719],[121.400028,31.229724],[121.400059,31.22973],[121.40009,31.229738],[121.40012,31.22975],[121.400149,31.229764],[121.400177,31.229781],[121.400204,31.229802],[121.400229,31.229826],[121.400255,31.229855],[121.400278,31.229885],[121.400298,31.229917],[121.400313,31.229947],[121.400326,31.229977],[121.400334,31.230006],[121.400339,31.230037],[121.400342,31.230068],[121.400342,31.230099],[121.40034,31.23013],[121.400335,31.230161],[121.400328,31.230194],[121.400319,31.230224],[121.400309,31.230255],[121.400299,31.230286],[121.400289,31.230317],[121.400279,31.230347],[121.400268,31.23038],[121.400259,31.230412],[121.400249,31.230444],[121.40024,31.230474],[121.400232,31.230504],[121.400223,31.230533],[121.400214,31.230562],[121.400205,31.230589],[121.400195,31.230618],[121.400186,31.230646],[121.400177,31.230676],[121.400168,31.230704],[121.400159,31.230734],[121.400149,31.230763],[121.400139,31.230793],[121.400128,31.230823],[121.400116,31.230854],[121.400102,31.230889],[121.400088,31.230922],[121.400073,31.230954],[121.400057,31.230981],[121.400038,31.231009],[121.400016,31.231035],[121.399994,31.231057],[121.39997,31.231077],[121.399944,31.231095],[121.399915,31.231111],[121.399883,31.231126],[121.399849,31.231138],[121.399814,31.231148],[121.39978,31.231155],[121.399744,31.231159],[121.399709,31.231159],[121.399674,31.231157],[121.39964,31.231151],[121.399607,31.231143],[121.399574,31.231133],[121.399543,31.231121],[121.399512,31.231107],[121.399484,31.231091],[121.399459,31.231074],[121.399437,31.231058],[121.399415,31.231039],[121.399395,31.231019],[121.399375,31.230994],[121.399357,31.230966],[121.399341,31.230936],[121.39933,31.230904],[121.399323,31.230872],[121.399318,31.23084],[121.399317,31.230806],[121.399319,31.230771],[121.399323,31.230732],[121.399331,31.230696],[121.399341,31.230659],[121.399352,31.230627],[121.399364,31.230596],[121.399376,31.230566],[121.399388,31.230537],[121.399401,31.230507],[121.399413,31.230478],[121.399423,31.230448],[121.399432,31.230419],[121.399441,31.230389],[121.39945,31.230358],[121.399459,31.230326],[121.399468,31.230294],[121.399478,31.230262],[121.399489,31.23023],[121.399501,31.230194],[121.399512,31.23016],[121.399523,31.230125],[121.399533,31.230092],[121.399545,31.230059],[121.399556,31.230026],[121.399566,31.229996],[121.399578,31.229968],[121.39959,31.229941],[121.399604,31.229913],[121.39962,31.229887],[121.399639,31.229861],[121.399659,31.229837],[121.399682,31.229814],[121.399709,31.229793],[121.399739,31.229774],[121.399769,31.229757],[121.399801,31.229745],[121.399833,31.229734],[121.399867,31.229726],[121.3999,31.22972],[121.399935,31.229716],[121.399968,31.229715],[121.400001,31.229717],[121.400033,31.229721],[121.400065,31.229728],[121.400097,31.229737],[121.400127,31.229749],[121.400157,31.229764],[121.400184,31.229781],[121.400211,31.229801],[121.400236,31.229824],[121.400259,31.229849],[121.40028,31.229877],[121.400298,31.229904],[121.400315,31.229936],[121.400328,31.229967],[121.400338,31.23],[121.400342,31.230031],[121.400344,31.230063],[121.400342,31.230094],[121.400338,31.230128],[121.400331,31.230161],[121.400323,31.230194],[121.400314,31.230226],[121.400304,31.23026],[121.400293,31.230295],[121.400283,31.230327],[121.400273,31.230357],[121.400264,31.230383],[121.400255,31.230411],[121.400246,31.230441],[121.400236,31.230475],[121.400225,31.230511],[121.400215,31.230544],[121.400206,31.230573],[121.400198,31.2306],[121.400189,31.23063],[121.40018,31.23066],[121.400171,31.230688],[121.400162,31.230714],[121.400154,31.230741],[121.400144,31.230768],[121.400134,31.230797],[121.400122,31.230827],[121.40011,31.230857],[121.400098,31.230887],[121.400085,31.230914],[121.400071,31.230941],[121.400052,31.230974],[121.400033,31.231006],[121.400012,31.231037],[121.399992,31.231061],[121.399969,31.231083],[121.399937,31.231104],[121.3999,31.231124],[121.399859,31.231141],[121.399823,31.231151],[121.399787,31.231158],[121.399751,31.231161],[121.399716,31.231162],[121.399682,31.231158],[121.399647,31.231151],[121.399611,31.231142],[121.399575,31.231131],[121.39954,31.231118],[121.399504,31.231102],[121.399469,31.231084],[121.399441,31.231066],[121.399418,31.231047],[121.399399,31.231026],[121.39938,31.231002],[121.399363,31.230977],[121.399349,31.23095],[121.399337,31.230922],[121.399328,31.230892],[121.39932,31.230859],[121.399316,31.230828],[121.399315,31.230794],[121.399318,31.230761],[121.399322,31.230725],[121.39933,31.230691],[121.39934,31.230653],[121.399349,31.230621],[121.399358,31.230592],[121.399366,31.230571],[121.399374,31.230548],[121.399383,31.230524],[121.399393,31.230495],[121.399403,31.230466],[121.399414,31.230437],[121.399424,31.230407],[121.399435,31.230377],[121.399445,31.230347],[121.399455,31.230319],[121.399465,31.230291],[121.399476,31.230259],[121.399487,31.230228],[121.399497,31.230198],[121.399507,31.23017],[121.399517,31.230141],[121.399529,31.230107],[121.399542,31.230071],[121.399555,31.230037],[121.399567,31.230008],[121.399579,31.229979],[121.399592,31.229951],[121.399605,31.229924],[121.399619,31.229898],[121.399635,31.229873],[121.399652,31.229849],[121.399677,31.229823],[121.399707,31.229798],[121.399739,31.229775],[121.399772,31.229759],[121.399805,31.229746],[121.399842,31.229734],[121.399879,31.229727],[121.399922,31.229721],[121.399965,31.229719],[121.400007,31.229721],[121.400044,31.229726],[121.400079,31.229735],[121.400113,31.229747],[121.400147,31.229764],[121.400179,31.229782],[121.400207,31.229802],[121.400233,31.229825],[121.400256,31.229848],[121.400277,31.229874],[121.400295,31.2299],[121.400311,31.229928],[121.400325,31.229958],[121.400335,31.229989],[121.400341,31.230021],[121.400342,31.230057],[121.40034,31.230094],[121.400335,31.230133],[121.400328,31.230169],[121.400318,31.230209],[121.400307,31.230246],[121.400297,31.230279],[121.400288,31.230306],[121.400279,31.230335],[121.40027,31.230359],[121.400261,31.230387],[121.400253,31.230412],[121.400245,31.230442],[121.400236,31.23047],[121.400226,31.230502],[121.400216,31.230532],[121.400206,31.230563],[121.400196,31.230593],[121.400186,31.230624],[121.400176,31.230653],[121.400166,31.230683],[121.400156,31.230713],[121.400147,31.230742],[121.400138,31.230772],[121.400128,31.230801],[121.400119,31.230829],[121.40011,31.230855],[121.400099,31.230882],[121.400089,31.230908],[121.400077,31.230934],[121.400065,31.230958],[121.400051,31.230984],[121.400036,31.23101],[121.400017,31.231035],[121.399996,31.231059],[121.399963,31.231086],[121.399926,31.231111],[121.399886,31.23113],[121.39985,31.231142],[121.399813,31.231152],[121.399774,31.231157],[121.399735,31.231161],[121.399695,31.231159],[121.399658,31.231155],[121.399625,31.231149],[121.399595,31.231142],[121.399562,31.231131],[121.399528,31.231118],[121.399496,31.231103],[121.399468,31.231088],[121.399438,31.231066],[121.39941,31.231041],[121.399384,31.23101],[121.399365,31.230982],[121.399349,31.230952],[121.399337,31.230923],[121.399328,31.230891],[121.399322,31.230859],[121.39932,31.230826],[121.399321,31.230792],[121.399323,31.23076],[121.399327,31.230722],[121.399332,31.230688],[121.39934,31.230652],[121.399346,31.230625],[121.399353,31.230599],[121.399361,31.230573],[121.39937,31.230546],[121.399378,31.230519],[121.399388,31.230491],[121.399397,31.230463],[121.399407,31.230435],[121.399418,31.230406],[121.399429,31.230377],[121.399439,31.230348],[121.39945,31.230318],[121.399461,31.230288],[121.399471,31.230257],[121.399481,31.23023],[121.399491,31.2302],[121.399501,31.23017],[121.399513,31.230137],[121.399524,31.230107],[121.399536,31.230077],[121.399547,31.230049],[121.39956,31.230017],[121.399576,31.229982],[121.399591,31.229949],[121.399605,31.229921],[121.399619,31.229895],[121.399632,31.229871],[121.399651,31.229845],[121.399676,31.229821],[121.399707,31.229797],[121.399739,31.229778],[121.399774,31.229761],[121.399809,31.229748],[121.399847,31.229737],[121.399885,31.229729],[121.399923,31.229724],[121.399961,31.229723],[121.399998,31.229724],[121.400039,31.229731],[121.400078,31.229742],[121.400117,31.229757],[121.40015,31.229774],[121.400181,31.229793],[121.40021,31.229813],[121.400236,31.229836],[121.400259,31.229859],[121.40028,31.229884],[121.400297,31.22991],[121.400311,31.229937],[121.400323,31.229966],[121.400331,31.229994],[121.400336,31.230024],[121.400337,31.230055],[121.400335,31.230089],[121.400331,31.230123],[121.400323,31.230164],[121.400314,31.230202],[121.400305,31.230241],[121.400296,31.230273],[121.400286,31.230307],[121.400276,31.230337],[121.400267,31.230366],[121.400259,31.230394],[121.400252,31.23042],[121.400245,31.230449],[121.400236,31.230478],[121.400227,31.230508],[121.400218,31.230538],[121.400208,31.230568],[121.400199,31.230597],[121.40019,31.230627],[121.40018,31.230656],[121.400171,31.230685],[121.400161,31.230715],[121.400152,31.230745],[121.400143,31.230774],[121.400135,31.230802],[121.400126,31.230832],[121.400116,31.230861],[121.400106,31.230891],[121.400095,31.23092],[121.400082,31.230948],[121.400068,31.230975],[121.40005,31.231001],[121.40003,31.231025],[121.400006,31.23105],[121.39998,31.231072],[121.399952,31.231093],[121.399921,31.23111],[121.399888,31.231124],[121.399849,31.231137],[121.399808,31.231146],[121.399765,31.231152],[121.399726,31.231155],[121.399686,31.231154],[121.399647,31.23115],[121.399608,31.231144],[121.39957,31.231134],[121.399533,31.231121],[121.399498,31.231106],[121.399467,31.231091],[121.399439,31.231073],[121.399413,31.231052],[121.399391,31.231029],[121.399371,31.231003],[121.399355,31.230977],[121.399342,31.23095],[121.399331,31.230918],[121.399323,31.230885],[121.399318,31.230849],[121.399317,31.230818],[121.399319,31.230786],[121.399323,31.230755],[121.399329,31.230724],[121.399335,31.230694],[121.399343,31.230662],[121.39935,31.230632],[121.399358,31.230604],[121.399366,31.230575],[121.399375,31.230547],[121.399383,31.230517],[121.399392,31.230487],[121.399402,31.230456],[121.399412,31.230423],[121.399423,31.230389],[121.399436,31.230353],[121.39945,31.230317],[121.399462,31.230283],[121.399473,31.230252],[121.399483,31.23022],[121.399493,31.230188],[121.399502,31.230157],[121.399513,31.230125],[121.399524,31.230093],[121.399536,31.230061],[121.399548,31.230032],[121.399561,31.230003],[121.399575,31.229973],[121.399591,31.229943],[121.399609,31.229915],[121.399627,31.229887],[121.399654,31.229855],[121.399683,31.229827],[121.399717,31.229799],[121.399751,31.229779],[121.399787,31.229762],[121.399825,31.229748],[121.399861,31.229738],[121.399899,31.229731],[121.399936,31.229727],[121.399974,31.229726],[121.40001,31.229728],[121.400046,31.229733],[121.400081,31.229742],[121.400112,31.229753],[121.400141,31.229766],[121.400167,31.229781],[121.400192,31.229799],[121.400216,31.229818],[121.40024,31.229841],[121.400262,31.229864],[121.400282,31.22989],[121.400298,31.229917],[121.400312,31.229944],[121.400323,31.229973],[121.400331,31.230002],[121.400336,31.230031],[121.400338,31.23006],[121.400337,31.23009],[121.400334,31.23012],[121.40033,31.230149],[121.400323,31.230181],[121.400315,31.230212],[121.400306,31.230243],[121.400296,31.230273],[121.400286,31.230303],[121.400275,31.230339],[121.400263,31.230374],[121.400252,31.230411],[121.400242,31.230444],[121.400232,31.230477],[121.400222,31.230509],[121.400212,31.23054],[121.400203,31.230572],[121.400194,31.230602],[121.400186,31.230633],[121.400178,31.230662],[121.400169,31.230692],[121.40016,31.230724],[121.40015,31.230756],[121.400141,31.230789],[121.40013,31.230822],[121.400119,31.230855],[121.400107,31.230887],[121.400095,31.230916],[121.400082,31.230944],[121.400067,31.230971],[121.400049,31.230998],[121.400029,31.231023],[121.400006,31.231049],[121.399982,31.23107],[121.399955,31.23109],[121.399927,31.231107],[121.399898,31.231121],[121.399867,31.231133],[121.399833,31.231143],[121.399798,31.231151],[121.399764,31.231157],[121.399727,31.231161],[121.399691,31.231161],[121.399655,31.231158],[121.399614,31.23115],[121.399573,31.231138],[121.399532,31.231121],[121.399497,31.231105],[121.399465,31.231087],[121.399437,31.231066],[121.399411,31.231043],[121.399388,31.231018],[121.399369,31.230992],[121.399354,31.230964],[121.399342,31.230935],[121.399334,31.230906],[121.399329,31.230876],[121.399327,31.230845],[121.399327,31.230813],[121.399329,31.23078],[121.399333,31.230747],[121.39934,31.230709],[121.399349,31.230671],[121.399359,31.230631],[121.399368,31.230594],[121.399378,31.230558],[121.399388,31.230523],[121.399398,31.23049],[121.399407,31.230457],[121.399417,31.230425],[121.399427,31.230394],[121.399437,31.230361],[121.399448,31.230329],[121.399459,31.230294],[121.39947,31.23026],[121.399479,31.230225],[121.399489,31.230192],[121.399498,31.23016],[121.399508,31.230124],[121.399519,31.23009],[121.399531,31.230053],[121.399544,31.23002],[121.399557,31.229987],[121.39957,31.229956],[121.399584,31.229926],[121.399602,31.229896],[121.399622,31.229868],[121.399647,31.22984],[121.399672,31.229816],[121.399699,31.229794],[121.399727,31.229777],[121.399758,31.229761],[121.399792,31.229748],[121.399829,31.229738],[121.399866,31.22973],[121.399905,31.229724],[121.399941,31.229721],[121.399979,31.229721],[121.400016,31.229725],[121.400052,31.229731],[121.400088,31.229742],[121.400124,31.229757],[121.400157,31.229774],[121.400188,31.229794],[121.400215,31.229816],[121.400241,31.229839],[121.400263,31.229864],[121.400282,31.22989],[121.400299,31.229917],[121.400312,31.229946],[121.400323,31.229975],[121.40033,31.230004],[121.400334,31.230036],[121.400335,31.230071],[121.400332,31.23011],[121.400326,31.230149],[121.400318,31.230184],[121.400309,31.230218],[121.400299,31.230251],[121.400289,31.230283],[121.400277,31.230315],[121.400265,31.230348],[121.400253,31.230383],[121.400241,31.230416],[121.400231,31.230449],[121.400221,31.23048],[121.400213,31.230512],[121.400204,31.230544],[121.400195,31.230577],[121.400186,31.230611],[121.400176,31.230648],[121.400165,31.230686],[121.400153,31.230725],[121.400142,31.23076],[121.400131,31.230795],[121.40012,31.230829],[121.40011,31.230862],[121.400098,31.230896],[121.400086,31.230927],[121.400072,31.230957],[121.400055,31.230987],[121.400036,31.231015],[121.400014,31.231041],[121.39999,31.231065],[121.399962,31.231085],[121.399931,31.231104],[121.399898,31.231119],[121.399859,31.231132],[121.399814,31.231142],[121.399768,31.231151],[121.399726,31.231156],[121.399688,31.231157],[121.399649,31.231155],[121.39961,31.231148],[121.399571,31.231138],[121.399533,31.231125],[121.399498,31.231109],[121.399465,31.231091],[121.399436,31.231071],[121.399409,31.231047],[121.399386,31.231023],[121.399366,31.230994],[121.399349,31.230965],[121.399336,31.230932],[121.399327,31.230895],[121.399322,31.230855],[121.399321,31.230814],[121.399323,31.230778],[121.399328,31.230741],[121.399335,31.230706],[121.399345,31.230669],[121.399354,31.230632],[121.399364,31.230595],[121.399373,31.23056],[121.399383,31.230525],[121.399392,31.230493],[121.399401,31.230462],[121.39941,31.230432],[121.399421,31.230401],[121.399432,31.230369],[121.399443,31.230336],[121.399455,31.230298],[121.399466,31.230259],[121.399477,31.230219],[121.399488,31.230183],[121.399499,31.230148],[121.399512,31.230113],[121.399526,31.230079],[121.399539,31.230047],[121.399552,31.230013],[121.399564,31.229982],[121.399577,31.229952],[121.399592,31.229922],[121.399609,31.229892],[121.399629,31.229863],[121.399653,31.229836],[121.399681,31.22981],[121.399712,31.229787],[121.399749,31.229767],[121.399789,31.229751],[121.399831,31.229738],[121.399871,31.22973],[121.39991,31.229724],[121.399949,31.229723],[121.399986,31.229725],[121.400022,31.22973],[121.400058,31.22974],[121.400091,31.229751],[121.400125,31.229766],[121.400157,31.229784],[121.400187,31.229805],[121.400215,31.229829],[121.400242,31.229856],[121.400265,31.229886],[121.400286,31.229918],[121.400302,31.229956],[121.400313,31.229996],[121.40032,31.230038],[121.400323,31.230075],[121.400322,31.230112],[121.400317,31.230148],[121.40031,31.230182],[121.4003,31.230218],[121.40029,31.230251],[121.40028,31.230283],[121.40027,31.230315],[121.400259,31.230347],[121.400248,31.23038],[121.400239,31.230409],[121.40023,31.23044],[121.40022,31.230471],[121.400211,31.230503],[121.4002,31.230538],[121.400189,31.230574],[121.400177,31.230613],[121.400166,31.230649],[121.400156,31.230685],[121.400145,31.230721],[121.400136,31.230755],[121.400126,31.230791],[121.400117,31.230825],[121.400108,31.230858],[121.400097,31.230891],[121.400084,31.230922],[121.40007,31.230953],[121.400054,31.230981],[121.400036,31.231008],[121.400014,31.231033],[121.39999,31.231056],[121.399958,31.23108],[121.399923,31.231102],[121.399882,31.231121],[121.399843,31.231135],[121.399804,31.231146],[121.399765,31.231153],[121.399727,31.231157],[121.399687,31.231158],[121.399648,31.231154],[121.399608,31.231148],[121.39957,31.231137],[121.399533,31.231124],[121.399498,31.231109],[121.399464,31.23109],[121.399433,31.231068],[121.399405,31.231043],[121.399383,31.231017],[121.399363,31.230988],[121.399347,31.230956],[121.399333,31.230923],[121.399324,31.230888],[121.399318,31.230853],[121.399316,31.230818],[121.399316,31.230783],[121.399319,31.230749],[121.399325,31.230715],[121.399333,31.230683],[121.399342,31.230651],[121.399352,31.230619],[121.399362,31.230586],[121.399374,31.230553],[121.399386,31.230519],[121.399397,31.230484],[121.399407,31.230449],[121.399417,31.230415],[121.399427,31.230376],[121.399437,31.230334],[121.399446,31.230292],[121.399454,31.230253],[121.399462,31.230216],[121.39947,31.230181],[121.39948,31.230147],[121.399492,31.230112],[121.399503,31.230078],[121.399516,31.230044],[121.399529,31.23001],[121.399544,31.229977],[121.399559,31.229945],[121.399576,31.229914],[121.399593,31.229887],[121.399614,31.229859],[121.399637,31.229835],[121.399671,31.229809],[121.399707,31.229786],[121.399748,31.229765],[121.399788,31.22975],[121.399831,31.229739],[121.399873,31.229732],[121.399915,31.229729],[121.399956,31.229729],[121.399998,31.229733],[121.400039,31.229741],[121.400079,31.229753],[121.400118,31.229768],[121.400153,31.229787],[121.400186,31.229808],[121.400215,31.229832],[121.400241,31.229859],[121.400264,31.229887],[121.400283,31.229922],[121.400298,31.22996],[121.40031,31.230001],[121.400317,31.230039],[121.400319,31.230075],[121.400318,31.230111],[121.400312,31.230146],[121.400303,31.230182],[121.400292,31.230219],[121.400282,31.230253],[121.400271,31.230285],[121.400261,31.230319],[121.40025,31.230352],[121.40024,31.230386],[121.400229,31.230422],[121.400218,31.230458],[121.400206,31.230493],[121.400194,31.230531],[121.400182,31.23057],[121.400169,31.230612],[121.400159,31.23065],[121.400148,31.230688],[121.400138,31.230725],[121.400129,31.23076],[121.40012,31.230796],[121.400111,31.230828],[121.400101,31.230861],[121.40009,31.230893],[121.400077,31.230925],[121.400062,31.230956],[121.400045,31.230983],[121.400025,31.231011],[121.400005,31.231037],[121.399983,31.231061],[121.399951,31.231082],[121.399914,31.2311],[121.399869,31.231119],[121.399828,31.231133],[121.399786,31.231144],[121.399745,31.23115],[121.399703,31.231153],[121.399661,31.231152],[121.399619,31.231148],[121.399579,31.23114],[121.39954,31.23113],[121.399505,31.231116],[121.399472,31.2311],[121.39944,31.231078],[121.399412,31.231054],[121.399388,31.231028],[121.399367,31.231],[121.399349,31.230965],[121.399334,31.230926],[121.399322,31.230886],[121.399316,31.23085],[121.399313,31.230816],[121.399313,31.230782],[121.399316,31.230747],[121.399321,31.230714],[121.399327,31.230681],[121.399336,31.230648],[121.399345,31.230615],[121.399357,31.23058],[121.399368,31.230546],[121.399379,31.230513],[121.39939,31.23048],[121.3994,31.230447],[121.39941,31.230413],[121.399421,31.230373],[121.399432,31.230331],[121.399443,31.230287],[121.399454,31.230248],[121.399464,31.23021],[121.399474,31.230176],[121.399485,31.230144],[121.399496,31.23011],[121.399507,31.230076],[121.39952,31.230042],[121.399534,31.230008],[121.399548,31.229975],[121.399564,31.229943],[121.399581,31.229912],[121.399601,31.229883],[121.399623,31.229856],[121.399648,31.229831],[121.399676,31.229809],[121.399708,31.229788],[121.399741,31.229771],[121.399778,31.229756],[121.399814,31.229744],[121.399851,31.229736],[121.399887,31.229731],[121.399925,31.229729],[121.399965,31.22973],[121.400003,31.229735],[121.400043,31.229743],[121.40008,31.229753],[121.400117,31.229768],[121.400152,31.229786],[121.400185,31.229807],[121.400214,31.229831],[121.400239,31.229858],[121.400261,31.229886],[121.400281,31.22992],[121.400297,31.229957],[121.400309,31.229997],[121.400316,31.230033],[121.400319,31.230069],[121.400318,31.230102],[121.400314,31.230134],[121.400308,31.230166],[121.400298,31.230198],[121.400288,31.230229],[121.400276,31.230261],[121.400265,31.230292],[121.400254,31.230325],[121.400245,31.230359],[121.400236,31.230392],[121.400227,31.230427],[121.400218,31.230462],[121.400208,31.230497],[121.400197,31.230534],[121.400187,31.230569],[121.400177,31.230604],[121.400167,31.230638],[121.400157,31.230671],[121.400146,31.230704],[121.400136,31.230737],[121.400127,31.230769],[121.400118,31.230803],[121.400108,31.230836],[121.400098,31.23087],[121.400087,31.230903],[121.400073,31.230935],[121.400056,31.230967],[121.400035,31.230998],[121.400013,31.231029],[121.39999,31.231056],[121.399958,31.23108],[121.399922,31.231101],[121.399878,31.23112],[121.399838,31.231135],[121.399796,31.231147],[121.399753,31.231155],[121.39971,31.231159],[121.399666,31.231158],[121.399624,31.231154],[121.399583,31.231145],[121.399545,31.231134],[121.399508,31.231119],[121.399474,31.231102],[121.399442,31.231082],[121.399413,31.231059],[121.399388,31.231033],[121.399366,31.231004],[121.399347,31.230966],[121.399332,31.230924],[121.399321,31.230879],[121.399316,31.230837],[121.399314,31.230794],[121.399316,31.230752],[121.39932,31.230714],[121.399327,31.230677],[121.399336,31.23064],[121.399345,31.230604],[121.399355,31.230568],[121.399364,31.230534],[121.399374,31.2305],[121.399384,31.230466],[121.399393,31.230434],[121.399404,31.2304],[121.399415,31.230365],[121.399428,31.230324],[121.399441,31.230283],[121.399455,31.23024],[121.399468,31.230201],[121.399482,31.230161],[121.399495,31.230121],[121.39951,31.230079],[121.399524,31.23004],[121.399538,31.230005],[121.399551,31.229973],[121.399567,31.22994],[121.399583,31.229909],[121.399601,31.229881],[121.399621,31.229854],[121.399643,31.22983],[121.399669,31.229809],[121.399699,31.229789],[121.399733,31.229772],[121.39977,31.229758],[121.399808,31.229746],[121.399847,31.229736],[121.399887,31.229731],[121.399926,31.229728],[121.399968,31.22973],[121.400008,31.229735],[121.400049,31.229743],[121.400087,31.229755],[121.400123,31.22977],[121.400157,31.22979],[121.400188,31.229814],[121.400216,31.229841],[121.400241,31.229868],[121.400262,31.229898],[121.40028,31.229929],[121.400295,31.229962],[121.400306,31.230001],[121.400314,31.230042],[121.400317,31.230084],[121.400316,31.23012],[121.400311,31.230155],[121.400304,31.230189],[121.400294,31.230223],[121.400284,31.230256],[121.400273,31.23029],[121.400262,31.230325],[121.400252,31.23036],[121.400241,31.230395],[121.40023,31.23043],[121.400219,31.230466],[121.400208,31.230501],[121.400198,31.230537],[121.400187,31.230573],[121.400175,31.230615],[121.400163,31.230658],[121.400151,31.230701],[121.400141,31.230738],[121.400131,31.230773],[121.400121,31.230809],[121.40011,31.230842],[121.400097,31.230877],[121.400083,31.230911],[121.400067,31.230944],[121.400049,31.230977],[121.400029,31.231007],[121.400006,31.231035],[121.399981,31.231061],[121.399951,31.231084],[121.399919,31.231104],[121.399884,31.231121],[121.399841,31.231136],[121.399795,31.231148],[121.399746,31.231155],[121.399703,31.231158],[121.39966,31.231158],[121.399618,31.231154],[121.399578,31.231147],[121.39954,31.231135],[121.399504,31.23112],[121.399469,31.231103],[121.399437,31.231083],[121.399408,31.23106],[121.399382,31.231034],[121.399359,31.231005],[121.399341,31.230977],[121.399327,31.230945],[121.399317,31.230913],[121.399311,31.230872],[121.39931,31.230831],[121.399312,31.230787],[121.399316,31.230748],[121.399322,31.23071],[121.399329,31.230672],[121.399337,31.230636],[121.399346,31.2306],[121.399356,31.230564],[121.399366,31.23053],[121.399375,31.230495],[121.399386,31.230462],[121.399395,31.230428],[121.399405,31.230393],[121.399415,31.230358],[121.399425,31.230322],[121.399437,31.230285],[121.399452,31.230244],[121.399467,31.230202],[121.399484,31.230156],[121.399497,31.230116],[121.39951,31.230074],[121.399521,31.230036],[121.399532,31.23],[121.399544,31.229966],[121.399555,31.229935],[121.399567,31.229907],[121.399572,31.229895],[121.399576,31.229885]]}}]}