{"type":"FeatureCollection","features":[{"type":"Feature","properties":{"id":"2026-05-18_running_39","type":"running","date":"2026-05-18"},"geometry":{"type":"LineString","coordinates":[[121.399541,31.230062],[121.399552,31.23003],[121.399559,31.230002],[121.399566,31.229981],[121.399574,31.229964],[121.399583,31.229946],[121.399597,31.229926],[121.399614,31.229904],[121.399637,31.229879],[121.399667,31.229849],[121.399697,31.229824],[121.399729,31.229807],[121.399763,31.229792],[121.399796,31.229781],[121.399829,31.229773],[121.399862,31.229767],[121.399895,31.229763],[121.399927,31.22976],[121.399959,31.22976],[121.399992,31.229762],[121.400025,31.229766],[121.400056,31.229772],[121.400083,31.22978],[121.400113,31.229792],[121.400142,31.229807],[121.40017,31.229824],[121.400204,31.229847],[121.400234,31.229871],[121.400256,31.229894],[121.400276,31.229918],[121.400289,31.229943],[121.400303,31.229973],[121.400315,31.230004],[121.400324,31.230033],[121.40033,31.230061],[121.400333,31.230092],[121.400333,31.230121],[121.40033,31.230148],[121.400324,31.230177],[121.400317,31.230207],[121.40031,31.230235],[121.400304,31.230265],[121.400298,31.2303],[121.400289,31.23034],[121.400279,31.230369],[121.400273,31.23039],[121.400264,31.230417],[121.400256,31.230442],[121.400249,31.230464],[121.400242,31.230487],[121.400232,31.230516],[121.400224,31.230543],[121.400216,31.230568],[121.400207,31.230597],[121.400197,31.230624],[121.400189,31.230648],[121.400179,31.230676],[121.400169,31.230703],[121.400161,31.230726],[121.400151,31.230754],[121.400141,31.230781],[121.400132,31.230808],[121.400123,31.230834],[121.400115,31.230856],[121.400106,31.230881],[121.400098,31.230901],[121.400091,31.230917],[121.400081,31.230939],[121.400069,31.230965],[121.400057,31.23099],[121.400046,31.23101],[121.400033,31.231034],[121.400017,31.231058],[121.399992,31.231082],[121.399959,31.231108],[121.39993,31.231128],[121.399904,31.231141],[121.399875,31.231152],[121.399837,31.231164],[121.399796,31.231173],[121.399765,31.231178],[121.399735,31.23118],[121.3997,31.231179],[121.399666,31.231177],[121.399636,31.231172],[121.399606,31.231166],[121.399573,31.231158],[121.399543,31.231148],[121.399519,31.231138],[121.399494,31.231124],[121.399469,31.231105],[121.399445,31.231085],[121.399425,31.231065],[121.399406,31.231042],[121.399389,31.231016],[121.399372,31.230981],[121.399358,31.230945],[121.399349,31.230917],[121.399341,31.230886],[121.399334,31.23085],[121.399331,31.230812],[121.399334,31.230775],[121.399339,31.230745],[121.399345,31.230724],[121.399352,31.230697],[121.399359,31.230672],[121.399364,31.230649],[121.399372,31.230621],[121.399379,31.230594],[121.399385,31.23057],[121.399392,31.230539],[121.399401,31.230507],[121.399411,31.230468],[121.39942,31.230432],[121.399427,31.230407],[121.399436,31.230378],[121.399445,31.23035],[121.399453,31.230325],[121.399463,31.230296],[121.399472,31.230268],[121.399481,31.230244],[121.399491,31.230215],[121.399501,31.230187],[121.39951,31.230163],[121.39952,31.230135],[121.399529,31.230108],[121.399537,31.230084],[121.399546,31.230057],[121.399555,31.230031],[121.399563,31.23001],[121.399572,31.229988],[121.399583,31.229963],[121.399594,31.229938],[121.399608,31.229917],[121.399631,31.229886],[121.39966,31.229856],[121.399687,31.229834],[121.399713,31.229816],[121.399736,31.229803],[121.399764,31.229791],[121.399793,31.22978],[121.399821,31.229772],[121.399853,31.229764],[121.399885,31.229759],[121.399915,31.229756],[121.399948,31.229754],[121.399981,31.229754],[121.40001,31.229757],[121.400037,31.229762],[121.400066,31.229769],[121.400095,31.229778],[121.400123,31.229789],[121.400154,31.229804],[121.400183,31.229822],[121.400211,31.229842],[121.400238,31.229864],[121.40026,31.229884],[121.400279,31.229907],[121.400296,31.229933],[121.40031,31.229959],[121.400319,31.229983],[121.400327,31.230011],[121.400331,31.230038],[121.400333,31.230064],[121.400335,31.230095],[121.400333,31.230127],[121.400329,31.230155],[121.400323,31.230184],[121.400315,31.230218],[121.400306,31.230254],[121.400299,31.230281],[121.400293,31.230302],[121.400286,31.230325],[121.400277,31.230353],[121.400269,31.230379],[121.400261,31.230402],[121.400253,31.230427],[121.400244,31.230456],[121.400235,31.230484],[121.400227,31.230508],[121.400217,31.230538],[121.400208,31.230567],[121.400199,31.230593],[121.40019,31.230623],[121.40018,31.230651],[121.400172,31.230677],[121.400162,31.230707],[121.400152,31.230736],[121.400144,31.230761],[121.400135,31.230786],[121.400126,31.230812],[121.400115,31.230842],[121.400105,31.230871],[121.400095,31.230895],[121.400084,31.230923],[121.400073,31.230949],[121.400064,31.230971],[121.400053,31.230994],[121.40004,31.231021],[121.400024,31.231048],[121.399999,31.231076],[121.39996,31.231109],[121.399926,31.231133],[121.399898,31.231148],[121.399868,31.231161],[121.399838,31.23117],[121.399805,31.231178],[121.399774,31.231182],[121.399741,31.231184],[121.399705,31.231182],[121.39967,31.231178],[121.39964,31.231172],[121.399606,31.231165],[121.399573,31.231157],[121.399545,31.231148],[121.399516,31.231137],[121.399488,31.231122],[121.399463,31.231104],[121.399432,31.231077],[121.399404,31.231048],[121.399384,31.231022],[121.399365,31.230992],[121.39935,31.230962],[121.399339,31.230934],[121.399331,31.230906],[121.399326,31.23088],[121.399322,31.230849],[121.399321,31.230814],[121.399323,31.230781],[121.399328,31.230748],[121.399335,31.230719],[121.399343,31.230693],[121.399354,31.230663],[121.399364,31.230632],[121.399373,31.230601],[121.399384,31.230562],[121.399394,31.230526],[121.399401,31.230498],[121.39941,31.230467],[121.399417,31.230436],[121.399426,31.230407],[121.399435,31.230378],[121.399444,31.230352],[121.399454,31.230322],[121.399464,31.230293],[121.399473,31.230266],[121.399482,31.230236],[121.399491,31.230207],[121.3995,31.230181],[121.39951,31.230151],[121.399521,31.23012],[121.399531,31.230089],[121.399545,31.230049],[121.399557,31.230014],[121.399567,31.229989],[121.399579,31.229962],[121.399593,31.229934],[121.399609,31.229909],[121.399627,31.229883],[121.39965,31.229857],[121.399675,31.229833],[121.399701,31.229813],[121.399726,31.229798],[121.399754,31.229784],[121.399781,31.229773],[121.399808,31.229765],[121.399841,31.229758],[121.399875,31.229752],[121.399909,31.22975],[121.399954,31.22975],[121.399996,31.229752],[121.400028,31.229756],[121.400062,31.229763],[121.400095,31.229773],[121.400127,31.229787],[121.400157,31.229802],[121.400184,31.229819],[121.400213,31.229839],[121.400239,31.229861],[121.40026,31.229883],[121.400281,31.22991],[121.400297,31.229938],[121.400309,31.229965],[121.400319,31.229995],[121.400327,31.230027],[121.400332,31.23006],[121.400334,31.230092],[121.400332,31.230126],[121.400327,31.230158],[121.400321,31.230186],[121.400314,31.230216],[121.400305,31.230245],[121.400297,31.230272],[121.400287,31.2303],[121.400276,31.230329],[121.400267,31.230358],[121.400257,31.230389],[121.400248,31.230418],[121.40024,31.230445],[121.400231,31.230476],[121.400223,31.230505],[121.400215,31.230533],[121.400208,31.230561],[121.400199,31.230591],[121.40019,31.230621],[121.400182,31.230648],[121.400175,31.230676],[121.400166,31.230704],[121.400158,31.230732],[121.400148,31.230761],[121.400138,31.23079],[121.400129,31.230817],[121.400119,31.230844],[121.40011,31.230871],[121.400099,31.230899],[121.400088,31.230927],[121.400077,31.230952],[121.400065,31.230979],[121.400052,31.231004],[121.400037,31.231028],[121.400017,31.231054],[121.399993,31.231079],[121.399959,31.231106],[121.399924,31.231128],[121.399895,31.231144],[121.399863,31.231159],[121.399831,31.23117],[121.399799,31.231178],[121.399767,31.231183],[121.399736,31.231184],[121.3997,31.231183],[121.399665,31.231178],[121.399634,31.231172],[121.399599,31.231164],[121.399566,31.231155],[121.399538,31.231144],[121.399509,31.231131],[121.39948,31.231113],[121.399453,31.231093],[121.39943,31.231072],[121.399406,31.231046],[121.399384,31.23102],[121.399367,31.230996],[121.399353,31.230969],[121.399342,31.230942],[121.399334,31.230915],[121.399329,31.230888],[121.399326,31.230862],[121.399326,31.230832],[121.399327,31.230802],[121.399332,31.230771],[121.39934,31.230734],[121.399348,31.230703],[121.399355,31.230681],[121.399364,31.230653],[121.399373,31.230625],[121.399381,31.230598],[121.399392,31.230559],[121.399403,31.230524],[121.39941,31.230498],[121.399418,31.230468],[121.399427,31.230437],[121.399435,31.230406],[121.399443,31.230376],[121.39945,31.23035],[121.399458,31.230319],[121.399467,31.23029],[121.399474,31.230263],[121.399483,31.230232],[121.399492,31.230203],[121.399499,31.230178],[121.399508,31.230152],[121.399518,31.230121],[121.39953,31.230089],[121.399544,31.23005],[121.399557,31.230016],[121.399567,31.229993],[121.399579,31.229966],[121.399591,31.22994],[121.399603,31.229918],[121.39962,31.229891],[121.399647,31.22986],[121.399678,31.229834],[121.399708,31.229812],[121.399737,31.229795],[121.399766,31.229781],[121.3998,31.229767],[121.399834,31.229758],[121.399868,31.229752],[121.399905,31.229748],[121.399948,31.229746],[121.399994,31.229748],[121.400034,31.229753],[121.400065,31.229761],[121.400094,31.22977],[121.400126,31.229784],[121.400155,31.229799],[121.400182,31.229817],[121.400208,31.229838],[121.400231,31.229859],[121.400251,31.229882],[121.400271,31.229909],[121.400288,31.229937],[121.4003,31.229964],[121.400311,31.229996],[121.400319,31.230029],[121.400323,31.230061],[121.400325,31.230098],[121.400323,31.230141],[121.400318,31.23018],[121.400311,31.230213],[121.400303,31.230241],[121.400295,31.23027],[121.400286,31.230298],[121.400277,31.230324],[121.400267,31.230354],[121.400257,31.230384],[121.400248,31.230411],[121.400239,31.230442],[121.400231,31.230472],[121.400224,31.2305],[121.400216,31.230531],[121.400208,31.230562],[121.4002,31.230591],[121.400189,31.230626],[121.400177,31.230668],[121.400165,31.230709],[121.400154,31.230744],[121.400143,31.230777],[121.400131,31.230811],[121.400121,31.230843],[121.400112,31.230873],[121.400102,31.230901],[121.400091,31.230927],[121.400077,31.230954],[121.400063,31.230981],[121.40005,31.231005],[121.400033,31.23103],[121.400015,31.231053],[121.399996,31.231074],[121.39997,31.231096],[121.399941,31.231117],[121.399906,31.231137],[121.399869,31.231155],[121.399837,31.231166],[121.399808,31.231175],[121.399774,31.231182],[121.39974,31.231185],[121.399703,31.231184],[121.399667,31.231181],[121.399634,31.231176],[121.399602,31.231168],[121.399568,31.231158],[121.399537,31.231146],[121.39951,31.231133],[121.39948,31.231115],[121.399454,31.231095],[121.399431,31.231075],[121.399409,31.231049],[121.399387,31.231018],[121.399371,31.230991],[121.39936,31.230966],[121.399352,31.230941],[121.399346,31.230915],[121.399341,31.230888],[121.399339,31.230861],[121.399339,31.230831],[121.399341,31.2308],[121.399345,31.230772],[121.399351,31.230742],[121.399359,31.230712],[121.399367,31.230684],[121.399374,31.230658],[121.399382,31.230628],[121.39939,31.230597],[121.399397,31.230567],[121.399405,31.230534],[121.399411,31.230503],[121.399416,31.230475],[121.399422,31.230445],[121.399428,31.230417],[121.399434,31.230392],[121.399441,31.230367],[121.399449,31.230341],[121.399457,31.230312],[121.399465,31.230283],[121.399473,31.230257],[121.399483,31.230226],[121.399493,31.230196],[121.399502,31.230169],[121.399511,31.230142],[121.399522,31.230112],[121.399534,31.230081],[121.399545,31.230053],[121.399557,31.230023],[121.399569,31.229996],[121.39958,31.229971],[121.399592,31.229944],[121.399605,31.229919],[121.399619,31.229897],[121.399636,31.229875],[121.399657,31.229853],[121.39968,31.229832],[121.399705,31.229814],[121.39973,31.229799],[121.39976,31.229783],[121.399791,31.229769],[121.39982,31.229758],[121.399854,31.229751],[121.399887,31.229746],[121.399918,31.229744],[121.399956,31.229744],[121.399995,31.229747],[121.40003,31.229752],[121.400062,31.229759],[121.400097,31.229771],[121.400128,31.229784],[121.400155,31.2298],[121.400183,31.229818],[121.40021,31.229838],[121.400237,31.229862],[121.400259,31.229885],[121.400276,31.229907],[121.400293,31.229933],[121.400308,31.229961],[121.400319,31.229987],[121.400328,31.230016],[121.400333,31.230044],[121.400335,31.230072],[121.400333,31.230104],[121.400329,31.23014],[121.400322,31.230176],[121.400313,31.230215],[121.400304,31.230247],[121.400297,31.230269],[121.400287,31.230297],[121.400278,31.230326],[121.400269,31.230356],[121.40026,31.230384],[121.400253,31.23041],[121.400243,31.230441],[121.400234,31.230471],[121.400226,31.230498],[121.400216,31.23053],[121.400207,31.23056],[121.400199,31.230588],[121.40019,31.230621],[121.400179,31.230656],[121.400167,31.230698],[121.400156,31.230735],[121.400148,31.230762],[121.400138,31.230793],[121.400128,31.230822],[121.400121,31.230847],[121.400117,31.230872],[121.400106,31.230894],[121.400091,31.23092],[121.400078,31.230949],[121.400066,31.230972],[121.400052,31.230999],[121.400038,31.231025],[121.400024,31.231046],[121.400008,31.231071],[121.399989,31.231095],[121.399958,31.231117],[121.399919,31.23114],[121.399883,31.231157],[121.399848,31.231171],[121.399817,31.23118],[121.399784,31.231187],[121.399753,31.231193],[121.399723,31.231198],[121.399695,31.231203],[121.399663,31.231196],[121.399623,31.231183],[121.399587,31.231174],[121.399556,31.231162],[121.399523,31.231147],[121.399493,31.231131],[121.399467,31.231114],[121.399444,31.231095],[121.399421,31.231072],[121.3994,31.231048],[121.399384,31.231023],[121.399371,31.230997],[121.399361,31.230971],[121.399353,31.230946],[121.399345,31.230916],[121.399339,31.230886],[121.399337,31.230859],[121.399338,31.23083],[121.39934,31.230799],[121.399343,31.23077],[121.399349,31.23074],[121.399356,31.230708],[121.399363,31.230681],[121.399371,31.230651],[121.399378,31.230622],[121.399385,31.230594],[121.399393,31.230562],[121.399401,31.230528],[121.399412,31.230492],[121.399423,31.230454],[121.399432,31.23042],[121.39944,31.230389],[121.39945,31.230355],[121.399459,31.230321],[121.399467,31.230292],[121.399476,31.230261],[121.399486,31.23023],[121.399497,31.230199],[121.399507,31.23017],[121.399517,31.230143],[121.399529,31.230113],[121.39954,31.230083],[121.399548,31.230054],[121.399557,31.230022],[121.399566,31.229991],[121.399576,31.229964],[121.399588,31.229936],[121.399605,31.229908],[121.399624,31.229884],[121.399644,31.229863],[121.399671,31.229841],[121.399699,31.229822],[121.399727,31.229805],[121.399759,31.229789],[121.39979,31.229776],[121.399823,31.229766],[121.399857,31.229758],[121.399889,31.229755],[121.399922,31.229753],[121.39996,31.229753],[121.399998,31.229756],[121.400033,31.229761],[121.40007,31.22977],[121.400115,31.229786],[121.400157,31.229806],[121.400188,31.229825],[121.40022,31.229848],[121.400248,31.229873],[121.400271,31.229897],[121.40029,31.229924],[121.400307,31.229953],[121.400318,31.229982],[121.400326,31.230008],[121.400331,31.230038],[121.400334,31.230068],[121.400333,31.230098],[121.400329,31.230132],[121.400324,31.230166],[121.400316,31.230198],[121.400304,31.230233],[121.400291,31.230267],[121.400279,31.2303],[121.400267,31.230332],[121.400258,31.230365],[121.400248,31.2304],[121.40024,31.230432],[121.400232,31.23046],[121.400224,31.23049],[121.400215,31.230521],[121.400207,31.230549],[121.400199,31.230577],[121.400191,31.230607],[121.400184,31.230636],[121.400177,31.230664],[121.400168,31.230695],[121.400159,31.230727],[121.400149,31.230759],[121.400139,31.230791],[121.40013,31.230822],[121.400121,31.230855],[121.400113,31.230886],[121.400103,31.230913],[121.400091,31.23094],[121.400076,31.230969],[121.40006,31.230998],[121.400043,31.231026],[121.400025,31.231052],[121.400004,31.231075],[121.399982,31.231098],[121.399953,31.23112],[121.399924,31.231138],[121.399897,31.231152],[121.399869,31.231164],[121.399839,31.231175],[121.399807,31.231183],[121.399777,31.231188],[121.399744,31.23119],[121.399712,31.23119],[121.399682,31.231189],[121.399647,31.231185],[121.399613,31.231179],[121.399581,31.23117],[121.399548,31.231158],[121.399518,31.231143],[121.399489,31.231127],[121.399463,31.231108],[121.399441,31.231088],[121.399419,31.231065],[121.399398,31.23104],[121.399379,31.231011],[121.399362,31.230982],[121.399349,31.230953],[121.399338,31.23092],[121.39933,31.230885],[121.399326,31.230848],[121.399327,31.230808],[121.399332,31.230774],[121.399339,31.230741],[121.399345,31.230705],[121.399351,31.230673],[121.399357,31.230643],[121.399366,31.230613],[121.399375,31.230584],[121.399385,31.230552],[121.399396,31.23052],[121.399406,31.23049],[121.399415,31.23046],[121.399425,31.230427],[121.399433,31.230396],[121.399441,31.230367],[121.39945,31.230336],[121.399459,31.230307],[121.399468,31.230281],[121.399477,31.23025],[121.399484,31.230219],[121.399491,31.230191],[121.3995,31.230161],[121.39951,31.230132],[121.39952,31.230103],[121.399531,31.230073],[121.399542,31.230046],[121.399553,31.230015],[121.399564,31.229986],[121.399575,31.229961],[121.399589,31.229934],[121.399605,31.229908],[121.399624,31.229885],[121.399646,31.229862],[121.399672,31.229841],[121.3997,31.229822],[121.399732,31.229805],[121.399765,31.22979],[121.399795,31.229779],[121.399829,31.22977],[121.399865,31.229763],[121.399899,31.229758],[121.399934,31.229756],[121.399968,31.229756],[121.400002,31.229759],[121.400037,31.229763],[121.400072,31.229771],[121.400106,31.229782],[121.400142,31.229797],[121.400174,31.229815],[121.4002,31.229833],[121.400225,31.229854],[121.40025,31.229879],[121.400272,31.229905],[121.40029,31.22993],[121.400306,31.229957],[121.400318,31.22999],[121.400326,31.230023],[121.400331,31.230057],[121.400333,31.230092],[121.400331,31.230123],[121.400327,31.230156],[121.400319,31.23019],[121.400312,31.230218],[121.400302,31.230246],[121.400291,31.230277],[121.40028,31.230305],[121.40027,31.230336],[121.400261,31.230369],[121.400253,31.2304],[121.400245,31.23043],[121.400238,31.230459],[121.400229,31.23049],[121.40022,31.230522],[121.40021,31.230551],[121.400201,31.230582],[121.400193,31.230614],[121.400184,31.230646],[121.400176,31.230678],[121.400169,31.230706],[121.40016,31.230734],[121.400151,31.230763],[121.400139,31.230794],[121.400127,31.230827],[121.400117,31.230858],[121.400106,31.230889],[121.400095,31.230921],[121.400084,31.230949],[121.400071,31.230978],[121.400055,31.231007],[121.400039,31.231032],[121.400019,31.231057],[121.399997,31.231081],[121.399974,31.231102],[121.399948,31.231121],[121.399922,31.231137],[121.399894,31.231151],[121.399863,31.231163],[121.39983,31.231174],[121.399799,31.231181],[121.399763,31.231184],[121.399723,31.231185],[121.399684,31.231184],[121.399647,31.231181],[121.399612,31.231175],[121.399581,31.231167],[121.39955,31.231158],[121.399518,31.231144],[121.399489,31.23113],[121.399463,31.231113],[121.399437,31.231092],[121.399414,31.231069],[121.399392,31.231043],[121.399375,31.231017],[121.39936,31.230991],[121.399347,31.230963],[121.399339,31.230937],[121.399334,31.230912],[121.39933,31.230886],[121.399326,31.230856],[121.399324,31.230822],[121.399325,31.230791],[121.399328,31.230763],[121.399334,31.230731],[121.399341,31.230702],[121.399348,31.230672],[121.399357,31.23064],[121.399366,31.230612],[121.399376,31.230582],[121.399387,31.230551],[121.399397,31.230523],[121.399408,31.230493],[121.399418,31.230462],[121.399427,31.230434],[121.399436,31.230403],[121.399446,31.230371],[121.399456,31.230341],[121.399465,31.23031],[121.399473,31.230278],[121.399479,31.230248],[121.399483,31.230218],[121.399489,31.230186],[121.399497,31.230153],[121.399505,31.230124],[121.399513,31.230092],[121.399523,31.23006],[121.399533,31.230032],[121.399543,31.230004],[121.399554,31.229978],[121.399567,31.229952],[121.399583,31.229926],[121.399601,31.229903],[121.39962,31.229881],[121.399645,31.229858],[121.399673,31.229835],[121.399701,31.229816],[121.399732,31.229799],[121.399765,31.229784],[121.399796,31.229773],[121.399828,31.229764],[121.399862,31.229758],[121.399896,31.229753],[121.399929,31.229751],[121.399965,31.229751],[121.400003,31.229755],[121.400037,31.22976],[121.40007,31.229768],[121.400106,31.22978],[121.400142,31.229796],[121.400173,31.229813],[121.400198,31.229832],[121.400222,31.229854],[121.400244,31.22988],[121.400264,31.229905],[121.400281,31.229933],[121.400296,31.229964],[121.400307,31.229993],[121.400315,31.230025],[121.40032,31.230058],[121.400322,31.230089],[121.400321,31.23012],[121.400317,31.230153],[121.40031,31.230187],[121.400303,31.230217],[121.400294,31.230246],[121.400284,31.230275],[121.400273,31.230306],[121.400262,31.230338],[121.400253,31.230367],[121.400246,31.230396],[121.400238,31.230427],[121.40023,31.230459],[121.400224,31.230488],[121.400217,31.230519],[121.400211,31.230551],[121.400206,31.230581],[121.400199,31.230619],[121.400189,31.230659],[121.400179,31.230692],[121.400168,31.230726],[121.400156,31.230759],[121.400144,31.230792],[121.400132,31.230826],[121.400121,31.230857],[121.400109,31.230889],[121.400096,31.230922],[121.400083,31.230951],[121.400069,31.230979],[121.400053,31.231007],[121.400034,31.231033],[121.400014,31.231057],[121.399995,31.231078],[121.399971,31.231101],[121.399943,31.231121],[121.399916,31.231137],[121.399887,31.23115],[121.399854,31.231162],[121.39982,31.231171],[121.399786,31.231178],[121.399752,31.231182],[121.399717,31.231183],[121.399678,31.231182],[121.399638,31.231178],[121.3996,31.231171],[121.399564,31.231162],[121.399528,31.231149],[121.399494,31.231132],[121.399466,31.231116],[121.399438,31.231095],[121.399413,31.231072],[121.399393,31.23105],[121.399374,31.231018],[121.399359,31.230984],[121.399348,31.230955],[121.39934,31.230926],[121.399333,31.230894],[121.399328,31.230864],[121.399325,31.23083],[121.399324,31.230794],[121.399326,31.230761],[121.399331,31.230726],[121.399338,31.230692],[121.399345,31.230663],[121.399355,31.230632],[121.399364,31.230603],[121.399375,31.230575],[121.399385,31.230546],[121.399395,31.230519],[121.399406,31.230488],[121.399416,31.230458],[121.399426,31.23043],[121.399435,31.230401],[121.399444,31.230367],[121.399452,31.230334],[121.39946,31.230302],[121.399469,31.23027],[121.39948,31.230239],[121.399489,31.230208],[121.399498,31.230177],[121.399507,31.230146],[121.399515,31.230117],[121.399526,31.230086],[121.399537,31.230055],[121.399547,31.230026],[121.399557,31.229998],[121.399571,31.229966],[121.399589,31.229934],[121.399608,31.229906],[121.399627,31.229881],[121.39965,31.229856],[121.399676,31.229832],[121.399701,31.229813],[121.39973,31.229795],[121.399762,31.22978],[121.399791,31.229768],[121.399823,31.229759],[121.399858,31.229752],[121.39989,31.229748],[121.399925,31.229746],[121.399961,31.229747],[121.399996,31.229751],[121.40003,31.229757],[121.400066,31.229766],[121.400103,31.229778],[121.400143,31.229796],[121.400183,31.22982],[121.400216,31.229845],[121.400241,31.229869],[121.400264,31.229896],[121.400284,31.229926],[121.4003,31.229958],[121.400312,31.229991],[121.400319,31.230023],[121.400323,31.230055],[121.400324,31.230089],[121.400323,31.230125],[121.400319,31.230159],[121.400311,31.230194],[121.400304,31.230227],[121.400297,31.230257],[121.400289,31.230285],[121.400279,31.230315],[121.400269,31.230347],[121.400262,31.230377],[121.400254,31.230408],[121.400244,31.230439],[121.400234,31.230471],[121.400224,31.230502],[121.400215,31.230531],[121.400207,31.230558],[121.400198,31.230588],[121.400188,31.23062],[121.40018,31.230649],[121.400171,31.230677],[121.400163,31.230707],[121.400156,31.230736],[121.40015,31.230763],[121.400141,31.230795],[121.40013,31.230829],[121.40012,31.230859],[121.400109,31.230891],[121.400096,31.230924],[121.400083,31.230953],[121.400068,31.23098],[121.40005,31.231008],[121.40003,31.231036],[121.400007,31.231064],[121.399979,31.231092],[121.399951,31.231114],[121.399921,31.231133],[121.399887,31.231149],[121.399851,31.231162],[121.399818,31.23117],[121.399784,31.231177],[121.399749,31.231181],[121.399715,31.231183],[121.399677,31.231181],[121.399637,31.231175],[121.399602,31.231168],[121.399568,31.231159],[121.399533,31.231145],[121.399498,31.231128],[121.399467,31.231109],[121.399439,31.231088],[121.399416,31.231066],[121.399394,31.231041],[121.399374,31.231012],[121.399358,31.230984],[121.399344,31.230955],[121.399334,31.230925],[121.399327,31.230897],[121.399321,31.230869],[121.399315,31.230836],[121.399313,31.230802],[121.399315,31.230774],[121.399319,31.230745],[121.399325,31.230713],[121.399332,31.230684],[121.39934,31.230653],[121.399348,31.230625],[121.399357,31.2306],[121.399367,31.230572],[121.399377,31.230543],[121.399385,31.230516],[121.399393,31.230488],[121.399401,31.230458],[121.399409,31.230429],[121.399417,31.230397],[121.399424,31.230363],[121.399431,31.230332],[121.39944,31.230301],[121.399452,31.230269],[121.399464,31.230235],[121.399475,31.230204],[121.399486,31.23017],[121.399497,31.230138],[121.399506,31.230109],[121.399516,31.230077],[121.399525,31.230047],[121.399535,31.230018],[121.399548,31.229987],[121.399564,31.229954],[121.399581,31.229925],[121.399603,31.229895],[121.399624,31.229868],[121.399648,31.229845],[121.399675,31.229822],[121.399701,31.229804],[121.399731,31.229787],[121.399764,31.229772],[121.399795,31.22976],[121.39983,31.229749],[121.399867,31.229741],[121.399901,31.229737],[121.399937,31.229735],[121.399973,31.229735],[121.400007,31.229739],[121.400043,31.229747],[121.40008,31.229759],[121.400113,31.229773],[121.400148,31.229792],[121.40018,31.229811],[121.400208,31.229832],[121.400235,31.229857],[121.400259,31.229882],[121.400281,31.229906],[121.4003,31.22993],[121.400316,31.229961],[121.400327,31.229995],[121.400334,31.230027],[121.400338,31.230062],[121.400338,31.230099],[121.400333,31.23014],[121.400325,31.230182],[121.400316,31.230214],[121.400308,31.230244],[121.400298,31.230275],[121.400291,31.230302],[121.400283,31.230328],[121.400274,31.230359],[121.400265,31.230392],[121.400257,31.23042],[121.400248,31.230453],[121.400238,31.230488],[121.400229,31.230519],[121.400221,31.230548],[121.400215,31.230571],[121.400206,31.230598],[121.400196,31.230631],[121.400187,31.230662],[121.400176,31.230696],[121.400165,31.23073],[121.400155,31.23076],[121.400143,31.230792],[121.400132,31.230825],[121.400121,31.230852],[121.40011,31.230882],[121.400098,31.230912],[121.400087,31.230937],[121.400074,31.230964],[121.400061,31.230992],[121.40005,31.231014],[121.400031,31.231042],[121.399998,31.231075],[121.399964,31.231103],[121.399921,31.231127],[121.399874,31.231147],[121.399836,31.231159],[121.399798,31.231168],[121.399757,31.231174],[121.399716,31.231176],[121.399676,31.231174],[121.399639,31.231168],[121.399605,31.231159],[121.399569,31.231146],[121.399534,31.23113],[121.399502,31.231113],[121.399471,31.231093],[121.399445,31.231072],[121.399425,31.231052],[121.399403,31.231028],[121.399383,31.231002],[121.399367,31.230977],[121.399353,31.230946],[121.399339,31.230912],[121.399328,31.230878],[121.399321,31.230843],[121.399318,31.230809],[121.399319,31.230777],[121.399324,31.230744],[121.399331,31.23071],[121.39934,31.230681],[121.39935,31.230649],[121.39936,31.230619],[121.399369,31.230592],[121.399379,31.230562],[121.399389,31.230528],[121.399398,31.230493],[121.399406,31.230462],[121.399414,31.230429],[121.399421,31.230396],[121.399427,31.230367],[121.399435,31.230335],[121.399445,31.230306],[121.399457,31.230275],[121.399469,31.230244],[121.39948,31.230212],[121.399491,31.230177],[121.399502,31.230146],[121.399513,31.230112],[121.399525,31.230079],[121.399536,31.230048],[121.399545,31.230018],[121.399557,31.229986],[121.399572,31.229954],[121.399587,31.229927],[121.399605,31.2299],[121.399627,31.229872],[121.399657,31.229841],[121.399693,31.229809],[121.399727,31.229785],[121.399764,31.229766],[121.399803,31.22975],[121.39984,31.22974],[121.399879,31.229733],[121.399919,31.229731],[121.399959,31.229731],[121.399998,31.229735],[121.400036,31.229742],[121.400075,31.229754],[121.400111,31.229767],[121.400143,31.229783],[121.400177,31.229803],[121.400208,31.229826],[121.400234,31.22985],[121.400259,31.229876],[121.400282,31.229903],[121.400301,31.229931],[121.400316,31.229962],[121.400328,31.229997],[121.400335,31.230028],[121.400338,31.230063],[121.400338,31.230098],[121.400336,31.23013],[121.400329,31.230165],[121.40032,31.230199],[121.40031,31.23023],[121.400299,31.230263],[121.400289,31.230296],[121.40028,31.230327],[121.400271,31.230359],[121.400263,31.230394],[121.400254,31.230431],[121.400242,31.230475],[121.40023,31.230521],[121.40022,31.230556],[121.40021,31.230589],[121.400201,31.230618],[121.400191,31.230647],[121.40018,31.230678],[121.40017,31.23071],[121.40016,31.230742],[121.40015,31.230774],[121.400139,31.230805],[121.400127,31.230838],[121.400114,31.230873],[121.400102,31.230905],[121.400089,31.230937],[121.400075,31.230967],[121.40006,31.230994],[121.400042,31.23102],[121.40002,31.231046],[121.399994,31.23107],[121.399964,31.231094],[121.399933,31.231115],[121.399903,31.231133],[121.399868,31.23115],[121.399831,31.231163],[121.399795,31.231172],[121.399755,31.231179],[121.399714,31.231182],[121.399679,31.231181],[121.399641,31.231175],[121.399602,31.231165],[121.399565,31.231152],[121.399528,31.231136],[121.399491,31.231116],[121.399456,31.231091],[121.399426,31.231067],[121.399398,31.23104],[121.399373,31.231011],[121.399352,31.230982],[121.399334,31.230948],[121.39932,31.230912],[121.399314,31.230875],[121.399312,31.230839],[121.399312,31.230805],[121.399315,31.23077],[121.399319,31.230735],[121.399326,31.230702],[121.399335,31.230667],[121.399347,31.230631],[121.399358,31.230597],[121.399369,31.23056],[121.39938,31.230524],[121.39939,31.23049],[121.399399,31.230457],[121.399409,31.230421],[121.399417,31.230387],[121.399424,31.230357],[121.399432,31.230326],[121.399442,31.230294],[121.399454,31.230262],[121.399465,31.23023],[121.399475,31.2302],[121.399487,31.230168],[121.399499,31.230134],[121.399509,31.230102],[121.399519,31.230072],[121.39953,31.230038],[121.399544,31.230005],[121.399556,31.229974],[121.399571,31.229943],[121.399587,31.229914],[121.399603,31.229888],[121.399624,31.229859],[121.399652,31.229828],[121.399682,31.229801],[121.399715,31.229777],[121.399751,31.229757],[121.39979,31.229742],[121.399831,31.229731],[121.399871,31.229726],[121.39991,31.229724],[121.399951,31.229726],[121.399992,31.229731],[121.40003,31.229739],[121.40007,31.22975],[121.400109,31.229765],[121.400144,31.229782],[121.400175,31.229802],[121.400206,31.229826],[121.40024,31.229858],[121.400271,31.229896],[121.400294,31.229932],[121.400311,31.229966],[121.400323,31.230001],[121.40033,31.230036],[121.400333,31.230073],[121.400332,31.230114],[121.400326,31.230154],[121.400319,31.230188],[121.400309,31.230223],[121.400297,31.230259],[121.400286,31.230291],[121.400275,31.230324],[121.400264,31.230358],[121.400254,31.23039],[121.400246,31.230427],[121.400237,31.230476],[121.40023,31.230525],[121.400221,31.230567],[121.40021,31.230605],[121.400199,31.230639],[121.400186,31.230675],[121.400173,31.23071],[121.400161,31.230742],[121.40015,31.230775],[121.400139,31.230808],[121.400129,31.230839],[121.400119,31.230869],[121.400106,31.230901],[121.400093,31.230932],[121.400079,31.23096],[121.40006,31.230989],[121.400037,31.231019],[121.400014,31.231045],[121.399986,31.231071],[121.399955,31.231094],[121.399924,31.231111],[121.399892,31.231128],[121.399858,31.231142],[121.399823,31.231152],[121.399783,31.23116],[121.399744,31.231165],[121.399702,31.231169],[121.399656,31.231167],[121.399609,31.231159],[121.39957,31.231148],[121.39953,31.231133],[121.39949,31.231114],[121.399456,31.231094],[121.399424,31.23107],[121.399397,31.231043],[121.399375,31.231016],[121.399358,31.230989],[121.399342,31.230958],[121.39933,31.230926],[121.39932,31.230897],[121.399315,31.230865],[121.399315,31.230833],[121.399318,31.230799],[121.399323,31.230763],[121.399328,31.230728],[121.399333,31.23069],[121.399341,31.230651],[121.399351,31.230619],[121.399361,31.230585],[121.39937,31.230549],[121.399378,31.230516],[121.399387,31.230484],[121.399395,31.230454],[121.399405,31.230414],[121.399417,31.230368],[121.399428,31.230332],[121.39944,31.230296],[121.399453,31.230261],[121.399465,31.230227],[121.399476,31.230193],[121.399487,31.23016],[121.3995,31.230126],[121.399513,31.230091],[121.399524,31.23006],[121.399538,31.230027],[121.399552,31.229994],[121.399566,31.229963],[121.39958,31.229933],[121.399598,31.2299],[121.39962,31.229868],[121.399652,31.229833],[121.399691,31.2298],[121.399725,31.229778],[121.399762,31.229759],[121.399801,31.229745],[121.399841,31.229736],[121.399882,31.229731],[121.39992,31.22973],[121.399957,31.229731],[121.399997,31.229734],[121.400039,31.22974],[121.400076,31.229749],[121.400115,31.229764],[121.400152,31.229783],[121.400184,31.229804],[121.400213,31.229828],[121.40024,31.229858],[121.400265,31.229891],[121.400284,31.229922],[121.400301,31.229955],[121.400317,31.229991],[121.400328,31.230026],[121.400334,31.230063],[121.400335,31.2301],[121.400332,31.230137],[121.400326,31.230176],[121.400316,31.230215],[121.400305,31.23025],[121.400294,31.230284],[121.400284,31.230316],[121.400273,31.230352],[121.400263,31.230389],[121.400256,31.230424],[121.400249,31.23046],[121.400242,31.230497],[121.400236,31.230533],[121.40023,31.230569],[121.400222,31.230605],[121.400215,31.230637],[121.400205,31.23067],[121.400195,31.230705],[121.400186,31.230737],[121.400176,31.23077],[121.400163,31.230805],[121.400151,31.230836],[121.400137,31.23087],[121.400121,31.230905],[121.400105,31.230937],[121.400089,31.230966],[121.400072,31.230994],[121.400051,31.231022],[121.400027,31.23105],[121.400003,31.231074],[121.399965,31.231101],[121.399922,31.231127],[121.399883,31.231145],[121.399845,31.231158],[121.39981,31.231165],[121.399773,31.231169],[121.399736,31.231173],[121.399696,31.231174],[121.399649,31.23117],[121.399602,31.23116],[121.39956,31.231149],[121.399518,31.231131],[121.399479,31.231109],[121.399447,31.231088],[121.399418,31.231062],[121.399393,31.231035],[121.399375,31.231009],[121.39936,31.23098],[121.399347,31.230949],[121.399336,31.230918],[121.399328,31.230883],[121.399324,31.230844],[121.399324,31.230806],[121.399328,31.230768],[121.399331,31.230731],[121.399335,31.230691],[121.39934,31.230652],[121.399347,31.230618],[121.399355,31.230582],[121.399363,31.230546],[121.399371,31.230515],[121.399379,31.23048],[121.399387,31.230445],[121.399394,31.230411],[121.399404,31.230373],[121.399415,31.230336],[121.399425,31.230302],[121.399437,31.230267],[121.399449,31.23023],[121.39946,31.230195],[121.399472,31.230156],[121.399481,31.230116],[121.399489,31.230083],[121.399497,31.230051],[121.399502,31.230018],[121.39951,31.229984],[121.399521,31.229951],[121.399531,31.229923],[121.399546,31.229894],[121.399566,31.229862],[121.399588,31.229834],[121.399611,31.22981],[121.399622,31.229799]]}}]}