{"type":"FeatureCollection","features":[{"type":"Feature","properties":{"id":"2026-03-31_running_25","type":"running","date":"2026-03-31"},"geometry":{"type":"LineString","coordinates":[[121.399546,31.229877],[121.3996,31.229845],[121.399615,31.229836],[121.399645,31.229819],[121.399671,31.229806],[121.3997,31.229793],[121.39973,31.229781],[121.399766,31.229771],[121.399801,31.229765],[121.399836,31.229759],[121.399869,31.229755],[121.399905,31.229751],[121.399944,31.229751],[121.399983,31.229755],[121.400023,31.229763],[121.400062,31.229774],[121.4001,31.229787],[121.400135,31.229803],[121.40017,31.229822],[121.400202,31.229843],[121.400232,31.229868],[121.400256,31.229892],[121.400276,31.229917],[121.400293,31.229942],[121.400306,31.229968],[121.400316,31.229995],[121.400323,31.230021],[121.400328,31.23005],[121.400329,31.23008],[121.400328,31.230112],[121.400325,31.230144],[121.400319,31.230178],[121.400313,31.230215],[121.400304,31.230251],[121.400296,31.230282],[121.400288,31.230308],[121.40028,31.230332],[121.400271,31.23036],[121.400262,31.230388],[121.400254,31.230416],[121.400244,31.230444],[121.400236,31.230472],[121.400227,31.230501],[121.400218,31.230527],[121.400209,31.230556],[121.4002,31.230585],[121.400191,31.230613],[121.400182,31.230642],[121.400173,31.230669],[121.400164,31.230697],[121.400155,31.230725],[121.400146,31.230752],[121.400137,31.23078],[121.400127,31.230807],[121.400117,31.230834],[121.400107,31.230861],[121.400097,31.230885],[121.400085,31.230912],[121.400073,31.230938],[121.40006,31.230964],[121.400047,31.230988],[121.400033,31.231012],[121.400018,31.231036],[121.400002,31.231056],[121.399983,31.231078],[121.399958,31.231101],[121.399928,31.231122],[121.399895,31.231138],[121.399865,31.23115],[121.39983,31.231159],[121.399793,31.231166],[121.399756,31.231171],[121.399718,31.231172],[121.399681,31.231172],[121.399646,31.231168],[121.399611,31.231162],[121.39958,31.231154],[121.399548,31.231144],[121.399521,31.231132],[121.399492,31.231118],[121.399466,31.231101],[121.399442,31.231083],[121.399419,31.231064],[121.399398,31.231045],[121.399378,31.231023],[121.399362,31.231],[121.399347,31.230974],[121.399336,31.230949],[121.399326,31.230921],[121.39932,31.230893],[121.399317,31.230865],[121.399316,31.230838],[121.399319,31.230809],[121.399323,31.23078],[121.399329,31.230751],[121.399337,31.230721],[121.399346,31.230691],[121.399356,31.23066],[121.399365,31.230632],[121.399373,31.230604],[121.399382,31.230576],[121.39939,31.230548],[121.399398,31.230521],[121.399405,31.230494],[121.399413,31.230467],[121.399421,31.230439],[121.399429,31.230412],[121.399437,31.230385],[121.399445,31.230357],[121.399453,31.230329],[121.399461,31.230301],[121.399469,31.230274],[121.399476,31.230246],[121.399484,31.230219],[121.399491,31.23019],[121.399499,31.230162],[121.399508,31.230131],[121.399517,31.2301],[121.399527,31.23007],[121.399537,31.230041],[121.399548,31.230013],[121.39956,31.229983],[121.399575,31.229955],[121.39959,31.229928],[121.399608,31.229902],[121.399627,31.229878],[121.399649,31.229853],[121.39967,31.22983],[121.399694,31.229811],[121.399724,31.229795],[121.399761,31.229782],[121.399799,31.22977],[121.399834,31.229762],[121.399866,31.229756],[121.399897,31.22975],[121.399932,31.229746],[121.399967,31.229746],[121.400001,31.229748],[121.400034,31.229755],[121.400066,31.229762],[121.4001,31.229771],[121.400131,31.229781],[121.400162,31.229795],[121.40019,31.229811],[121.400215,31.22983],[121.400236,31.229852],[121.400257,31.229875],[121.400275,31.229898],[121.400291,31.22992],[121.400304,31.229945],[121.400316,31.229971],[121.400325,31.229998],[121.400331,31.230025],[121.400334,31.230052],[121.400335,31.230081],[121.400334,31.230109],[121.40033,31.23014],[121.400323,31.230172],[121.400316,31.230203],[121.400307,31.230234],[121.400299,31.230264],[121.400291,31.230294],[121.400282,31.230324],[121.400274,31.230351],[121.400267,31.230375],[121.40026,31.230396],[121.400252,31.23042],[121.400244,31.230447],[121.400234,31.230476],[121.400224,31.230507],[121.400214,31.230539],[121.400203,31.230575],[121.400191,31.230613],[121.400181,31.230646],[121.400172,31.230675],[121.400165,31.230701],[121.400157,31.230725],[121.400148,31.23075],[121.400138,31.230778],[121.400127,31.230808],[121.400116,31.230837],[121.400104,31.230867],[121.400091,31.230896],[121.400077,31.230925],[121.400062,31.230954],[121.400047,31.230982],[121.400032,31.231008],[121.400016,31.231034],[121.400001,31.231057],[121.399985,31.231078],[121.399969,31.231094],[121.399952,31.231109],[121.399934,31.231124],[121.399913,31.231138],[121.39989,31.23115],[121.399857,31.231159],[121.399818,31.231167],[121.399776,31.231173],[121.399739,31.231176],[121.399705,31.231175],[121.399673,31.231172],[121.399641,31.231167],[121.399609,31.23116],[121.399578,31.231151],[121.399547,31.231139],[121.399518,31.231127],[121.399488,31.231112],[121.399459,31.231095],[121.399433,31.231075],[121.399408,31.231054],[121.399385,31.231031],[121.399365,31.231006],[121.39935,31.230981],[121.399338,31.230954],[121.399329,31.230927],[121.399323,31.230898],[121.39932,31.23087],[121.399319,31.230842],[121.399321,31.230814],[121.399326,31.230784],[121.399332,31.230755],[121.39934,31.230725],[121.399348,31.230695],[121.399358,31.230665],[121.399367,31.230636],[121.399377,31.230607],[121.399385,31.230578],[121.399393,31.230551],[121.399401,31.230524],[121.399408,31.230497],[121.399416,31.230469],[121.399424,31.230442],[121.399432,31.230415],[121.39944,31.230386],[121.399447,31.230358],[121.399455,31.230331],[121.399461,31.230304],[121.399469,31.230277],[121.399477,31.230249],[121.399485,31.230222],[121.399493,31.230192],[121.399503,31.230163],[121.399513,31.230133],[121.399523,31.230104],[121.399534,31.230074],[121.399545,31.230044],[121.399556,31.230014],[121.399568,31.229985],[121.399581,31.229956],[121.399595,31.22993],[121.399612,31.229904],[121.39963,31.229881],[121.399654,31.229856],[121.399678,31.229835],[121.399704,31.229816],[121.399732,31.229801],[121.399766,31.229785],[121.3998,31.229772],[121.399835,31.229763],[121.399869,31.229756],[121.399903,31.229751],[121.399937,31.229748],[121.399969,31.229748],[121.400002,31.229751],[121.400034,31.229756],[121.400067,31.229764],[121.4001,31.229773],[121.400132,31.229785],[121.400162,31.229799],[121.400192,31.229816],[121.400219,31.229835],[121.400244,31.229856],[121.400266,31.229878],[121.400284,31.229901],[121.400301,31.229926],[121.400313,31.22995],[121.400322,31.229974],[121.400329,31.229998],[121.400333,31.230025],[121.400336,31.230053],[121.400338,31.230082],[121.400336,31.230112],[121.400332,31.230143],[121.400325,31.230178],[121.400316,31.23021],[121.400308,31.23024],[121.4003,31.230265],[121.400292,31.230289],[121.400283,31.230316],[121.400274,31.230343],[121.400265,31.23037],[121.400256,31.230398],[121.400247,31.230426],[121.400237,31.230456],[121.400229,31.230484],[121.40022,31.230512],[121.400212,31.230541],[121.400204,31.23057],[121.400196,31.230598],[121.400188,31.230627],[121.400181,31.230655],[121.400173,31.230682],[121.400165,31.230706],[121.400158,31.23073],[121.40015,31.230753],[121.400142,31.230777],[121.400134,31.2308],[121.400125,31.230824],[121.400116,31.230849],[121.400106,31.230872],[121.400096,31.230896],[121.400085,31.230922],[121.400072,31.230949],[121.400054,31.230978],[121.400034,31.231008],[121.400012,31.231038],[121.399989,31.231064],[121.399966,31.231087],[121.399941,31.231106],[121.399914,31.231123],[121.399884,31.231138],[121.399852,31.231151],[121.399816,31.231161],[121.399779,31.231167],[121.39974,31.23117],[121.399703,31.231171],[121.399669,31.23117],[121.399637,31.231166],[121.399606,31.23116],[121.399575,31.231151],[121.399544,31.231141],[121.399515,31.23113],[121.399487,31.231116],[121.39946,31.2311],[121.399434,31.231083],[121.399413,31.231065],[121.399393,31.231046],[121.399376,31.231025],[121.399361,31.231003],[121.399349,31.230978],[121.399338,31.230952],[121.39933,31.230924],[121.399326,31.230896],[121.399324,31.230868],[121.399325,31.23084],[121.399328,31.230811],[121.399331,31.230781],[121.399336,31.23075],[121.399343,31.23072],[121.39935,31.23069],[121.39936,31.230659],[121.399369,31.230629],[121.39938,31.230597],[121.399389,31.230565],[121.399399,31.230532],[121.399408,31.2305],[121.399417,31.230468],[121.399424,31.230439],[121.399433,31.230409],[121.399441,31.230378],[121.399449,31.230348],[121.399457,31.230317],[121.399464,31.230285],[121.399472,31.230253],[121.399481,31.230225],[121.399489,31.230197],[121.399499,31.230171],[121.399509,31.230144],[121.399519,31.230119],[121.399529,31.230093],[121.399539,31.230067],[121.399549,31.230039],[121.399561,31.23001],[121.399573,31.22998],[121.399586,31.229951],[121.399602,31.229923],[121.399619,31.229898],[121.399641,31.229874],[121.399664,31.229851],[121.39969,31.229829],[121.399717,31.229811],[121.399746,31.229795],[121.399778,31.229781],[121.399811,31.22977],[121.399845,31.229762],[121.399881,31.229757],[121.399918,31.229754],[121.399957,31.229755],[121.399993,31.229758],[121.400027,31.229763],[121.40006,31.229771],[121.400092,31.229781],[121.400125,31.229794],[121.400156,31.229809],[121.400187,31.229826],[121.400214,31.229845],[121.400239,31.229867],[121.400261,31.22989],[121.400281,31.229915],[121.400298,31.229941],[121.400312,31.229968],[121.400323,31.229996],[121.40033,31.230025],[121.400334,31.230053],[121.400336,31.23008],[121.400335,31.230108],[121.400333,31.230136],[121.400328,31.230165],[121.400321,31.230194],[121.400313,31.230222],[121.400305,31.230248],[121.400296,31.230272],[121.400288,31.230296],[121.400279,31.23032],[121.400269,31.230344],[121.400259,31.23037],[121.400249,31.230396],[121.400239,31.230423],[121.400229,31.230452],[121.400218,31.230483],[121.400208,31.230514],[121.400197,31.230549],[121.400187,31.230584],[121.400177,31.230617],[121.400169,31.230646],[121.400162,31.230674],[121.400154,31.230702],[121.400147,31.230729],[121.400139,31.230756],[121.400131,31.230782],[121.400122,31.230807],[121.400113,31.230833],[121.400103,31.230859],[121.400092,31.230887],[121.400079,31.230918],[121.400063,31.230951],[121.400043,31.230986],[121.400022,31.231016],[121.399998,31.231047],[121.399971,31.231077],[121.39994,31.231105],[121.399908,31.231126],[121.399878,31.231142],[121.399845,31.231156],[121.399811,31.231165],[121.399777,31.231172],[121.399742,31.231175],[121.399708,31.231175],[121.399672,31.231173],[121.399639,31.231168],[121.399606,31.231161],[121.399573,31.231152],[121.39954,31.231141],[121.399507,31.231127],[121.399476,31.231112],[121.399446,31.231095],[121.399418,31.231075],[121.399393,31.231055],[121.399372,31.231033],[121.399354,31.23101],[121.399339,31.230986],[121.399328,31.230962],[121.39932,31.230937],[121.399313,31.230912],[121.39931,31.230889],[121.399309,31.230862],[121.39931,31.230834],[121.399313,31.230804],[121.399319,31.230775],[121.399325,31.230746],[121.399333,31.230717],[121.399341,31.230687],[121.399351,31.230658],[121.399361,31.230631],[121.399371,31.230602],[121.39938,31.230574],[121.399389,31.230548],[121.399398,31.230521],[121.399407,31.230495],[121.399416,31.230469],[121.399425,31.230442],[121.399434,31.230414],[121.399443,31.230386],[121.399451,31.230359],[121.399459,31.230331],[121.399467,31.230305],[121.399474,31.230277],[121.399482,31.23025],[121.399489,31.230222],[121.399497,31.230195],[121.399505,31.230167],[121.399514,31.23014],[121.399523,31.230112],[121.399533,31.230085],[121.399544,31.230057],[121.399556,31.230029],[121.399569,31.230001],[121.399583,31.229973],[121.399598,31.229945],[121.399615,31.22992],[121.399635,31.229894],[121.399656,31.229871],[121.399679,31.229849],[121.399704,31.229829],[121.399731,31.229811],[121.39976,31.229795],[121.399791,31.22978],[121.399824,31.229768],[121.399857,31.229759],[121.39989,31.229754],[121.399923,31.229751],[121.399955,31.229751],[121.399987,31.229754],[121.400017,31.229758],[121.400045,31.229765],[121.400072,31.229773],[121.400098,31.229784],[121.400126,31.229796],[121.400155,31.229812],[121.400183,31.22983],[121.400209,31.22985],[121.400232,31.229872],[121.400254,31.229896],[121.400275,31.229921],[121.400296,31.229948],[121.400313,31.229975],[121.400325,31.230003],[121.40033,31.230036],[121.400331,31.23007],[121.400331,31.230107],[121.40033,31.23014],[121.400325,31.230174],[121.400317,31.230207],[121.400308,31.230242],[121.400299,31.230273],[121.40029,31.2303],[121.400282,31.230323],[121.400274,31.230347],[121.400264,31.230374],[121.400255,31.230401],[121.400245,31.230429],[121.400236,31.230457],[121.400226,31.230486],[121.400216,31.230515],[121.400205,31.230548],[121.400194,31.23058],[121.400184,31.230612],[121.400175,31.23064],[121.400166,31.230669],[121.400157,31.230697],[121.400147,31.230726],[121.400138,31.230753],[121.400129,31.23078],[121.400121,31.230804],[121.400112,31.230829],[121.400103,31.230853],[121.400092,31.23088],[121.40008,31.230906],[121.400068,31.230932],[121.400055,31.230957],[121.400042,31.230981],[121.400027,31.231005],[121.400011,31.231028],[121.399993,31.231051],[121.399968,31.231075],[121.399939,31.231097],[121.399906,31.231117],[121.399874,31.231133],[121.399843,31.231146],[121.399809,31.231156],[121.399776,31.231163],[121.39974,31.231168],[121.399705,31.231169],[121.39967,31.231168],[121.399634,31.231164],[121.399599,31.231157],[121.399565,31.231149],[121.399533,31.231138],[121.399501,31.231125],[121.39947,31.231109],[121.399441,31.231091],[121.399414,31.231071],[121.399391,31.231049],[121.39937,31.231026],[121.399353,31.231002],[121.399339,31.230976],[121.399328,31.230949],[121.39932,31.230921],[121.399315,31.230893],[121.399312,31.230864],[121.399313,31.230833],[121.399316,31.230804],[121.39932,31.230775],[121.399327,31.230744],[121.399336,31.230712],[121.399346,31.230681],[121.399356,31.23065],[121.399366,31.230621],[121.399376,31.230592],[121.399384,31.230565],[121.399393,31.230537],[121.399402,31.230508],[121.399411,31.230479],[121.39942,31.23045],[121.399428,31.230422],[121.399436,31.230393],[121.399443,31.230364],[121.399451,31.230336],[121.399459,31.230307],[121.399467,31.230279],[121.399476,31.23025],[121.399484,31.230222],[121.399493,31.230193],[121.399502,31.230165],[121.399511,31.230137],[121.39952,31.230109],[121.399531,31.230081],[121.399542,31.230054],[121.399553,31.230026],[121.399566,31.229999],[121.39958,31.229971],[121.399595,31.229943],[121.399611,31.229917],[121.39963,31.229891],[121.399651,31.229868],[121.399673,31.229846],[121.399698,31.229826],[121.399725,31.229808],[121.399753,31.229793],[121.399784,31.229779],[121.399816,31.229768],[121.39985,31.22976],[121.399885,31.229754],[121.399922,31.229751],[121.399959,31.229751],[121.399996,31.229754],[121.400028,31.22976],[121.400059,31.229769],[121.40009,31.22978],[121.40012,31.229794],[121.400149,31.229809],[121.400177,31.229827],[121.400203,31.229845],[121.400226,31.229865],[121.400248,31.229887],[121.400268,31.22991],[121.400285,31.229933],[121.400298,31.229955],[121.40031,31.22998],[121.400318,31.230007],[121.400323,31.230034],[121.400326,31.230061],[121.400327,31.230087],[121.400326,31.230113],[121.400323,31.230139],[121.400318,31.230168],[121.400311,31.230197],[121.400303,31.230228],[121.400293,31.230258],[121.400283,31.230289],[121.400274,31.230315],[121.400265,31.230342],[121.400256,31.230366],[121.400247,31.23039],[121.400239,31.230415],[121.40023,31.23044],[121.400221,31.230465],[121.400212,31.230491],[121.400203,31.230517],[121.400194,31.230543],[121.400185,31.230569],[121.400177,31.230595],[121.400168,31.230621],[121.40016,31.230644],[121.400151,31.23067],[121.400142,31.230696],[121.400133,31.230722],[121.400124,31.230745],[121.400115,31.230769],[121.400105,31.230796],[121.400094,31.230822],[121.400083,31.230848],[121.400071,31.230873],[121.400059,31.230898],[121.400046,31.230923],[121.400032,31.230948],[121.400018,31.230972],[121.400003,31.230996],[121.399985,31.231021],[121.399962,31.231048],[121.399934,31.231076],[121.399899,31.231101],[121.399864,31.231121],[121.399829,31.231136],[121.399796,31.231146],[121.399763,31.231153],[121.39973,31.231158],[121.399696,31.231161],[121.399662,31.23116],[121.399628,31.231157],[121.399595,31.23115],[121.399562,31.231141],[121.39953,31.23113],[121.3995,31.231116],[121.399471,31.231101],[121.399442,31.231083],[121.399417,31.231063],[121.399393,31.23104],[121.399372,31.231017],[121.399354,31.230992],[121.399338,31.230968],[121.399328,31.230943],[121.399321,31.230917],[121.399316,31.230892],[121.399314,31.230866],[121.399313,31.23084],[121.399315,31.230813],[121.399319,31.230785],[121.399325,31.230757],[121.399332,31.230729],[121.399341,31.230697],[121.39935,31.230667],[121.39936,31.230637],[121.39937,31.230611],[121.399379,31.230584],[121.399387,31.230558],[121.399396,31.230532],[121.399405,31.230505],[121.399413,31.230479],[121.399421,31.230452],[121.39943,31.230422],[121.399438,31.230395],[121.399446,31.230367],[121.399454,31.230339],[121.399461,31.230311],[121.399469,31.230283],[121.399477,31.230254],[121.399486,31.230225],[121.399494,31.230196],[121.399502,31.23017],[121.399512,31.230142],[121.399522,31.230114],[121.399532,31.230087],[121.399543,31.230059],[121.399554,31.230032],[121.399566,31.230005],[121.399579,31.229979],[121.399592,31.229954],[121.399608,31.229927],[121.399623,31.229902],[121.39964,31.229879],[121.399655,31.229859],[121.399671,31.229839],[121.399686,31.229821],[121.399709,31.229803],[121.399738,31.229788],[121.399773,31.229774],[121.399808,31.229763],[121.399842,31.229755],[121.399874,31.22975],[121.399905,31.229747],[121.399934,31.229746],[121.399964,31.229748],[121.399993,31.229752],[121.400023,31.229759],[121.400053,31.229767],[121.400081,31.229778],[121.400109,31.229791],[121.400136,31.229806],[121.400162,31.229823],[121.400188,31.229842],[121.400213,31.229864],[121.400239,31.229887],[121.40026,31.229908],[121.400278,31.229934],[121.400292,31.229962],[121.400304,31.229992],[121.400312,31.230019],[121.400318,31.230047],[121.40032,31.230076],[121.40032,31.230105],[121.400316,31.230135],[121.400311,31.230165],[121.400303,31.230198],[121.400294,31.23023],[121.400285,31.23026],[121.400277,31.230287],[121.400268,31.230313],[121.40026,31.230338],[121.400252,31.230363],[121.400243,31.230389],[121.400234,31.230415],[121.400226,31.230442],[121.400217,31.23047],[121.400209,31.230498],[121.400201,31.230527],[121.400193,31.230553],[121.400185,31.230582],[121.400177,31.23061],[121.400168,31.230639],[121.400159,31.230668],[121.40015,31.230696],[121.40014,31.230727],[121.40013,31.230754],[121.400121,31.230781],[121.400112,31.230804],[121.400102,31.23083],[121.400091,31.230856],[121.40008,31.230883],[121.400068,31.230909],[121.400055,31.230936],[121.400042,31.230961],[121.400029,31.230987],[121.400015,31.231012],[121.400001,31.231036],[121.399982,31.231059],[121.399957,31.231081],[121.399924,31.231103],[121.399894,31.23112],[121.39986,31.231135],[121.399829,31.231145],[121.399797,31.231153],[121.399764,31.231157],[121.399731,31.23116],[121.399697,31.231161],[121.399665,31.23116],[121.399631,31.231156],[121.399598,31.231149],[121.399566,31.23114],[121.399535,31.231129],[121.399505,31.231117],[121.399477,31.231103],[121.39945,31.231087],[121.399426,31.231069],[121.399403,31.23105],[121.399384,31.23103],[121.399366,31.231009],[121.39935,31.230986],[121.399337,31.230962],[121.399326,31.230936],[121.399319,31.230909],[121.399314,31.230881],[121.399313,31.230851],[121.399313,31.230821],[121.399317,31.230791],[121.399324,31.230758],[121.399334,31.230723],[121.399344,31.230687],[121.399354,31.230654],[121.399364,31.230622],[121.399373,31.230592],[121.399383,31.230561],[121.399393,31.230531],[121.399403,31.230501],[121.399413,31.230472],[121.399423,31.230443],[121.399433,31.230412],[121.399443,31.230382],[121.399453,31.230352],[121.399463,31.230322],[121.399472,31.230292],[121.399481,31.230262],[121.399488,31.230234],[121.399496,31.230204],[121.399504,31.230176],[121.399512,31.230148],[121.39952,31.23012],[121.39953,31.230093],[121.399539,31.230065],[121.399549,31.230038],[121.399559,31.230011],[121.399571,31.229984],[121.399584,31.229957],[121.399599,31.22993],[121.399615,31.229903],[121.399635,31.229878],[121.399658,31.229854],[121.399683,31.229831],[121.399712,31.229811],[121.399743,31.229793],[121.399777,31.229777],[121.399812,31.229765],[121.399846,31.229756],[121.399881,31.22975],[121.399914,31.229747],[121.399948,31.229748],[121.399982,31.22975],[121.400014,31.229755],[121.400046,31.229762],[121.400077,31.22977],[121.400109,31.229782],[121.40014,31.229796],[121.40017,31.229812],[121.400197,31.22983],[121.400223,31.229851],[121.400247,31.229873],[121.400268,31.229896],[121.400285,31.229918],[121.4003,31.229942],[121.400311,31.229968],[121.40032,31.229996],[121.400326,31.230025],[121.40033,31.230054],[121.400331,31.230081],[121.400329,31.230109],[121.400324,31.230138],[121.400316,31.230171],[121.400307,31.230202],[121.400298,31.23023],[121.400289,31.230256],[121.400279,31.230282],[121.40027,31.230307],[121.400262,31.230329],[121.400252,31.230354],[121.400243,31.230378],[121.400234,31.230402],[121.400225,31.230427],[121.400216,31.230453],[121.400208,31.230479],[121.4002,31.230505],[121.400193,31.230532],[121.400185,31.230559],[121.400178,31.230587],[121.400171,31.230615],[121.400163,31.230644],[121.400156,31.230669],[121.400149,31.230694],[121.400142,31.230719],[121.400134,31.230742],[121.400125,31.230768],[121.400116,31.230794],[121.400105,31.230824],[121.400095,31.23085],[121.400084,31.230877],[121.400075,31.2309],[121.400064,31.230925],[121.400052,31.230949],[121.40004,31.230973],[121.400028,31.230996],[121.400015,31.231019],[121.399998,31.231044],[121.399975,31.231067],[121.399947,31.231088],[121.399916,31.231107],[121.399885,31.231122],[121.399853,31.231135],[121.399823,31.231145],[121.399792,31.231153],[121.399762,31.231159],[121.399729,31.231162],[121.399695,31.231164],[121.399661,31.231163],[121.399627,31.23116],[121.399595,31.231154],[121.399563,31.231145],[121.399533,31.231134],[121.399503,31.23112],[121.399475,31.231105],[121.399449,31.231089],[121.399424,31.23107],[121.399401,31.23105],[121.399381,31.231029],[121.399364,31.231008],[121.399349,31.230984],[121.399336,31.23096],[121.399326,31.230933],[121.399318,31.230908],[121.399313,31.230883],[121.39931,31.230859],[121.399309,31.230833],[121.399311,31.230807],[121.399315,31.230779],[121.399322,31.230751],[121.399331,31.23072],[121.399342,31.230686],[121.399353,31.230653],[121.399364,31.230621],[121.399374,31.230594],[121.399383,31.230567],[121.39939,31.230544],[121.399399,31.230518],[121.399407,31.230491],[121.399416,31.230462],[121.399425,31.230436],[121.399432,31.230411],[121.399441,31.230383],[121.399449,31.230355],[121.399458,31.230326],[121.399466,31.2303],[121.399475,31.230271],[121.399484,31.230242],[121.399492,31.230213],[121.399501,31.230185],[121.39951,31.230157],[121.399518,31.230131],[121.399527,31.230105],[121.399536,31.23008],[121.399545,31.230054],[121.399554,31.23003],[121.399565,31.230005],[121.399576,31.229978],[121.399588,31.229951],[121.3996,31.229926],[121.399611,31.229902],[121.399629,31.229876],[121.399654,31.229849],[121.399684,31.229825],[121.399715,31.229805],[121.399749,31.229788],[121.399782,31.229774],[121.399816,31.229764],[121.399849,31.229757],[121.399882,31.229753],[121.399915,31.229751],[121.399947,31.229752],[121.39998,31.229754],[121.400012,31.229758],[121.400045,31.229765],[121.400077,31.229775],[121.40011,31.229787],[121.40014,31.229802],[121.40017,31.229819],[121.400198,31.229838],[121.400223,31.229858],[121.400247,31.229881],[121.400268,31.229905],[121.400285,31.22993],[121.400299,31.229955],[121.400311,31.229982],[121.400319,31.230008],[121.400325,31.230035],[121.400329,31.230062],[121.400329,31.230088],[121.400327,31.230115],[121.400322,31.230143],[121.400315,31.230172],[121.400307,31.230201],[121.400299,31.230229],[121.400291,31.230256],[121.400283,31.230282],[121.400275,31.230308],[121.400267,31.230335],[121.400257,31.230363],[121.400248,31.230391],[121.400239,31.230419],[121.400231,31.230447],[121.400222,31.230476],[121.400213,31.230504],[121.400204,31.230531],[121.400196,31.230559],[121.400187,31.230587],[121.40018,31.230614],[121.400172,31.230642],[121.400163,31.23067],[121.400155,31.230696],[121.400147,31.230723],[121.400138,31.230748],[121.400129,31.230775],[121.40012,31.2308],[121.40011,31.230827],[121.4001,31.230854],[121.400089,31.23088],[121.40008,31.230905],[121.400069,31.230932],[121.400058,31.230959],[121.400045,31.230985],[121.400031,31.231009],[121.400014,31.231034],[121.399994,31.231057],[121.39997,31.231079],[121.399944,31.231098],[121.399915,31.231115],[121.399885,31.231129],[121.399854,31.231141],[121.399823,31.23115],[121.399791,31.231157],[121.399758,31.231162],[121.399726,31.231166],[121.399688,31.231165],[121.399649,31.231161],[121.399608,31.231153],[121.399572,31.231142],[121.399538,31.23113],[121.399506,31.231115],[121.399476,31.2311],[121.399449,31.231083],[121.399422,31.231063],[121.399399,31.231043],[121.399378,31.231022],[121.399361,31.231],[121.399346,31.230978],[121.399334,31.230953],[121.399325,31.230928],[121.399318,31.230901],[121.399314,31.230874],[121.399313,31.230845],[121.399314,31.230815],[121.399319,31.230784],[121.399327,31.23075],[121.399336,31.230717],[121.399345,31.230685],[121.399354,31.230658],[121.399363,31.23063],[121.399372,31.230603],[121.39938,31.230578],[121.399388,31.230554],[121.399396,31.230529],[121.399405,31.230502],[121.399413,31.230474],[121.399422,31.230445],[121.399431,31.230416],[121.39944,31.230386],[121.399449,31.230356],[121.399458,31.230329],[121.399465,31.230303],[121.399473,31.230278],[121.39948,31.230254],[121.399488,31.230227],[121.399496,31.2302],[121.399505,31.230172],[121.399514,31.230143],[121.399524,31.230116],[121.399535,31.230085],[121.399545,31.230058],[121.399556,31.23003],[121.399567,31.230003],[121.399578,31.229976],[121.399591,31.22995],[121.399602,31.229928],[121.399614,31.229903],[121.399632,31.229878],[121.399655,31.229853],[121.399684,31.22983],[121.399714,31.229811],[121.399745,31.229795],[121.399776,31.229783],[121.399808,31.229773],[121.399839,31.229767],[121.399871,31.229762],[121.399905,31.22976],[121.39994,31.229759],[121.399976,31.229761],[121.400012,31.229765],[121.400047,31.229771],[121.400081,31.229781],[121.400114,31.229794],[121.400144,31.22981],[121.400171,31.229827],[121.400197,31.229846],[121.400221,31.229866],[121.400244,31.229887],[121.400264,31.22991],[121.400282,31.229936],[121.400298,31.229963],[121.400309,31.229988],[121.400318,31.230015],[121.400323,31.230041],[121.400326,31.230069],[121.400326,31.230096],[121.400324,31.230123],[121.400319,31.230152],[121.400312,31.230187],[121.400302,31.230224],[121.400292,31.230259],[121.400283,31.230289],[121.400275,31.230315],[121.400268,31.23034],[121.400259,31.230371],[121.400249,31.230404],[121.400239,31.230439],[121.400229,31.23047],[121.400221,31.2305],[121.400212,31.23053],[121.400203,31.230559],[121.400195,31.230587],[121.400186,31.230616],[121.400178,31.230644],[121.400169,31.230672],[121.40016,31.2307],[121.400151,31.230726],[121.400142,31.23075],[121.400134,31.230774],[121.400124,31.2308],[121.400113,31.230826],[121.400102,31.230853],[121.400091,31.230879],[121.400079,31.230906],[121.400067,31.230932],[121.400054,31.230959],[121.400041,31.230984],[121.400028,31.231009],[121.400016,31.23103],[121.399997,31.231053],[121.399973,31.231076],[121.399942,31.231098],[121.399909,31.231116],[121.399874,31.231132],[121.399837,31.231146],[121.399802,31.231155],[121.399766,31.231162],[121.399729,31.231166],[121.399693,31.231166],[121.399651,31.231162],[121.399612,31.231155],[121.399571,31.231143],[121.399537,31.231131],[121.399503,31.231116],[121.39947,31.231099],[121.39944,31.23108],[121.399412,31.231058],[121.399387,31.231034],[121.399364,31.231008],[121.399347,31.230983],[121.399333,31.230957],[121.399322,31.230931],[121.399315,31.230903],[121.39931,31.230874],[121.399308,31.230844],[121.39931,31.230816],[121.399316,31.230782],[121.399325,31.230746],[121.399336,31.230708],[121.399346,31.230674],[121.399356,31.230641],[121.399366,31.230608],[121.399377,31.230576],[121.399388,31.230543],[121.399398,31.230512],[121.399408,31.23048],[121.399416,31.23045],[121.399425,31.23042],[121.399434,31.23039],[121.399442,31.230361],[121.39945,31.230333],[121.399458,31.230305],[121.399467,31.230279],[121.399475,31.230251],[121.399484,31.230225],[121.399492,31.230197],[121.399501,31.230168],[121.399511,31.230139],[121.39952,31.230111],[121.399531,31.230082],[121.39954,31.230053],[121.39955,31.230024],[121.399559,31.229996],[121.39957,31.229968],[121.399582,31.229942],[121.399597,31.229916],[121.399613,31.229892],[121.399633,31.229868],[121.399655,31.229847],[121.399678,31.229827],[121.399705,31.22981],[121.399734,31.229795],[121.399765,31.229782],[121.399796,31.229772],[121.399829,31.229763],[121.399862,31.229756],[121.399894,31.229751],[121.399926,31.229749],[121.399958,31.22975],[121.39999,31.229754],[121.400022,31.22976],[121.400055,31.229769],[121.400087,31.22978],[121.400117,31.229794],[121.400146,31.229809],[121.400172,31.229826],[121.400195,31.229845],[121.400218,31.229865],[121.400239,31.229886],[121.40026,31.229912],[121.400277,31.22994],[121.400294,31.229973],[121.400305,31.230004],[121.400314,31.230035],[121.400318,31.230067],[121.400319,31.230097],[121.400317,31.230128],[121.400312,31.230156],[121.400304,31.230188],[121.400296,31.230219],[121.400286,31.230253],[121.400277,31.230283],[121.400267,31.230315],[121.400258,31.230343],[121.400249,31.230374],[121.400239,31.230405],[121.40023,31.230437],[121.400221,31.230468],[121.400213,31.230498],[121.400206,31.230527],[121.400198,31.230556],[121.40019,31.230585],[121.400181,31.230614],[121.400173,31.230642],[121.400164,31.230672],[121.400155,31.230702],[121.400145,31.230734],[121.400136,31.230765],[121.400126,31.230796],[121.400115,31.230825],[121.400105,31.230855],[121.400094,31.230884],[121.400083,31.23091],[121.400071,31.230938],[121.400058,31.230965],[121.400044,31.230992],[121.400028,31.231017],[121.40001,31.231041],[121.399989,31.231063],[121.399964,31.231084],[121.399938,31.231103],[121.399908,31.23112],[121.399876,31.231135],[121.399843,31.231149],[121.39981,31.231159],[121.399779,31.231168],[121.399746,31.231172],[121.399713,31.231173],[121.399678,31.231171],[121.399646,31.231166],[121.399614,31.23116],[121.399582,31.231151],[121.399545,31.231138],[121.399507,31.231122],[121.399471,31.231104],[121.399441,31.231086],[121.399416,31.231068],[121.399394,31.231048],[121.399374,31.231027],[121.399356,31.231004],[121.399341,31.23098],[121.399328,31.230955],[121.399319,31.230927],[121.399311,31.230898],[121.399306,31.230868],[121.399305,31.230837],[121.399306,31.230805],[121.39931,31.230772],[121.399317,31.230741],[121.399327,31.230709],[121.399337,31.230678],[121.399349,31.230648],[121.399359,31.230619],[121.39937,31.230592],[121.39938,31.230564],[121.39939,31.230536],[121.3994,31.230507],[121.399409,31.230477],[121.399418,31.230447],[121.399426,31.230417],[121.399435,31.230387],[121.399444,31.230355],[121.399453,31.230323],[121.399462,31.230292],[121.399471,31.230261],[121.39948,31.230232],[121.399489,31.230202],[121.399499,31.230173],[121.399508,31.230143],[121.399518,31.230112],[121.399529,31.230083],[121.399541,31.230054],[121.399553,31.230024],[121.399564,31.229995],[121.399577,31.229966],[121.399592,31.229938],[121.399612,31.229909],[121.399633,31.229882],[121.399657,31.229856],[121.399682,31.229833],[121.39971,31.229812],[121.399738,31.229794],[121.399768,31.229779],[121.3998,31.229766],[121.399833,31.229756],[121.399864,31.229749],[121.399898,31.229744],[121.399932,31.229742],[121.399966,31.229743],[121.4,31.229748],[121.400035,31.229754],[121.400071,31.229763],[121.400105,31.229773],[121.400139,31.229786],[121.400172,31.229802],[121.400202,31.229821],[121.400228,31.229842],[121.40025,31.229866],[121.400268,31.229891],[121.400284,31.229917],[121.400297,31.229945],[121.400308,31.229974],[121.400316,31.230003],[121.400322,31.230033],[121.400325,31.230063],[121.400325,31.230093],[121.400323,31.230123],[121.400319,31.230151],[121.400313,31.230179],[121.400307,31.230206],[121.4003,31.230231],[121.400293,31.230259],[121.400285,31.230284],[121.400276,31.230311],[121.400267,31.230337],[121.400257,31.230363],[121.400247,31.23039],[121.400238,31.230416],[121.400229,31.230444],[121.400221,31.230472],[121.400212,31.230501],[121.400204,31.230531],[121.400196,31.230561],[121.400188,31.230587],[121.400184,31.230599],[121.400182,31.230607]]}}]}