{"type":"FeatureCollection","features":[{"type":"Feature","properties":{"id":"2026-05-02_running_35","type":"running","date":"2026-05-02"},"geometry":{"type":"LineString","coordinates":[[121.399536,31.230019],[121.399556,31.229985],[121.399571,31.229957],[121.399581,31.229937],[121.399593,31.229917],[121.399607,31.229895],[121.399623,31.229873],[121.399639,31.229854],[121.399658,31.229835],[121.399685,31.229817],[121.399713,31.229803],[121.399742,31.229791],[121.399772,31.229781],[121.399802,31.229773],[121.399836,31.229767],[121.399868,31.229763],[121.399895,31.229762],[121.399923,31.229761],[121.399958,31.229764],[121.400002,31.229771],[121.40004,31.229781],[121.400073,31.22979],[121.400108,31.229802],[121.40014,31.229815],[121.400175,31.229832],[121.400205,31.22985],[121.400231,31.229869],[121.400254,31.229892],[121.400273,31.229916],[121.400289,31.229942],[121.400303,31.229973],[121.400316,31.230005],[121.400325,31.230037],[121.400332,31.230072],[121.400335,31.230106],[121.400335,31.230138],[121.400328,31.23018],[121.400319,31.230217],[121.40031,31.230245],[121.400301,31.230272],[121.400293,31.2303],[121.400283,31.230332],[121.400274,31.230365],[121.400265,31.230394],[121.400255,31.230421],[121.400244,31.230451],[121.400237,31.230485],[121.400233,31.230515],[121.400226,31.23054],[121.400212,31.230567],[121.400199,31.230597],[121.400191,31.230626],[121.400176,31.230658],[121.400162,31.230692],[121.400157,31.230729],[121.400149,31.230762],[121.400137,31.230792],[121.400125,31.230826],[121.400113,31.230859],[121.400105,31.230888],[121.400101,31.230918],[121.400098,31.230943],[121.400086,31.230959],[121.40007,31.230977],[121.400055,31.231001],[121.400035,31.231028],[121.400013,31.231053],[121.399989,31.231075],[121.399961,31.231097],[121.39993,31.231118],[121.399894,31.231143],[121.399859,31.231159],[121.399824,31.231165],[121.399788,31.231173],[121.399754,31.23118],[121.399717,31.231184],[121.399681,31.231185],[121.399649,31.231181],[121.399615,31.231175],[121.399582,31.231166],[121.399552,31.231156],[121.399523,31.231145],[121.399491,31.231131],[121.399461,31.231115],[121.399436,31.231096],[121.39941,31.231073],[121.399389,31.23105],[121.399373,31.231027],[121.399359,31.231004],[121.399346,31.23098],[121.399336,31.230956],[121.399328,31.230933],[121.399322,31.230904],[121.399318,31.230876],[121.399318,31.23085],[121.39932,31.230822],[121.399323,31.230793],[121.399328,31.230761],[121.399336,31.230729],[121.399345,31.230704],[121.39935,31.230679],[121.399351,31.23065],[121.399356,31.230617],[121.399365,31.23059],[121.399374,31.230563],[121.399381,31.230537],[121.399389,31.230511],[121.399398,31.230482],[121.399406,31.230454],[121.399414,31.230429],[121.399423,31.2304],[121.399431,31.230371],[121.399437,31.230345],[121.399444,31.230317],[121.399451,31.23029],[121.399458,31.230263],[121.399469,31.230234],[121.399479,31.230206],[121.399488,31.23018],[121.399498,31.23015],[121.399507,31.230119],[121.399514,31.230092],[121.399517,31.230064],[121.399529,31.230034],[121.399551,31.230007],[121.399565,31.229987],[121.399572,31.229966],[121.39958,31.229941],[121.399593,31.229914],[121.399613,31.229886],[121.39963,31.229858],[121.399649,31.229838],[121.39968,31.229823],[121.399713,31.229808],[121.399743,31.229794],[121.399777,31.229781],[121.399812,31.229769],[121.399846,31.229762],[121.399883,31.229756],[121.399919,31.229755],[121.399959,31.229757],[121.400002,31.229762],[121.400036,31.229768],[121.400067,31.229775],[121.400099,31.229786],[121.400127,31.229798],[121.400151,31.229813],[121.400178,31.229829],[121.400204,31.229846],[121.400227,31.229864],[121.400251,31.229888],[121.400272,31.229913],[121.400289,31.229937],[121.400306,31.229965],[121.40032,31.229994],[121.400328,31.23002],[121.400331,31.230051],[121.40033,31.230085],[121.400333,31.230114],[121.400334,31.230146],[121.400328,31.230179],[121.400319,31.230208],[121.400308,31.230237],[121.400299,31.230266],[121.40029,31.230291],[121.400281,31.230318],[121.400273,31.230345],[121.400268,31.230374],[121.400265,31.230403],[121.400258,31.230426],[121.400243,31.230453],[121.400229,31.230484],[121.400221,31.230515],[121.400211,31.230549],[121.400199,31.230588],[121.400186,31.230625],[121.400174,31.230656],[121.400163,31.230684],[121.400154,31.230715],[121.400145,31.230745],[121.400136,31.230771],[121.400126,31.2308],[121.400117,31.230829],[121.400107,31.23086],[121.400096,31.230891],[121.400088,31.230919],[121.400083,31.230947],[121.400074,31.23097],[121.400054,31.230992],[121.40003,31.23102],[121.400005,31.231049],[121.399977,31.23108],[121.399945,31.231107],[121.399915,31.231126],[121.399883,31.231143],[121.399851,31.231158],[121.399821,31.231168],[121.399789,31.231176],[121.399755,31.231184],[121.399721,31.231188],[121.399689,31.231189],[121.399655,31.231186],[121.399621,31.231182],[121.399589,31.231176],[121.399557,31.231166],[121.399526,31.231154],[121.399494,31.231138],[121.399463,31.231119],[121.399431,31.231093],[121.399403,31.231067],[121.399384,31.231045],[121.399365,31.231018],[121.399348,31.23099],[121.399335,31.230962],[121.399323,31.230934],[121.399314,31.230904],[121.399309,31.230875],[121.399307,31.230848],[121.399309,31.230818],[121.399311,31.230788],[121.399314,31.230759],[121.399319,31.23073],[121.399326,31.230702],[121.399334,31.230672],[121.399341,31.23064],[121.39935,31.2306],[121.399359,31.230562],[121.399366,31.230532],[121.399374,31.230501],[121.399382,31.230474],[121.399389,31.230451],[121.399395,31.230427],[121.399401,31.2304],[121.399406,31.230373],[121.399411,31.230348],[121.399418,31.230319],[121.399428,31.230289],[121.399439,31.230259],[121.39945,31.230228],[121.399461,31.230199],[121.399473,31.230167],[121.399483,31.230135],[121.399495,31.230097],[121.399505,31.230061],[121.399513,31.230032],[121.399523,31.230005],[121.399535,31.229979],[121.399549,31.229954],[121.399561,31.22993],[121.399577,31.229904],[121.399595,31.22988],[121.399613,31.229859],[121.399634,31.229839],[121.399657,31.229821],[121.399683,31.229806],[121.399712,31.229791],[121.399742,31.229779],[121.399778,31.229768],[121.399817,31.229759],[121.399861,31.229755],[121.399903,31.229753],[121.399935,31.229753],[121.39997,31.229755],[121.400004,31.229759],[121.400034,31.229767],[121.400067,31.229777],[121.400099,31.22979],[121.400127,31.229804],[121.400156,31.229822],[121.400187,31.229845],[121.400216,31.22987],[121.400239,31.229897],[121.400259,31.229924],[121.400275,31.22995],[121.400291,31.22998],[121.400306,31.230014],[121.400314,31.230054],[121.400316,31.230091],[121.400315,31.230119],[121.400312,31.230149],[121.400308,31.23018],[121.400301,31.23021],[121.400292,31.230236],[121.400282,31.230265],[121.400273,31.230292],[121.400266,31.230316],[121.400257,31.230343],[121.400249,31.230371],[121.400242,31.230397],[121.400233,31.230425],[121.400224,31.230454],[121.400212,31.230486],[121.400199,31.230517],[121.400192,31.230552],[121.400185,31.230588],[121.400174,31.230619],[121.400162,31.23065],[121.400152,31.230679],[121.400143,31.230706],[121.400133,31.230736],[121.400124,31.230764],[121.400116,31.23079],[121.400106,31.230819],[121.400097,31.230849],[121.400089,31.230877],[121.400079,31.230907],[121.400069,31.230936],[121.400055,31.230964],[121.400035,31.230992],[121.400014,31.231016],[121.399992,31.231051],[121.399965,31.231085],[121.399933,31.231107],[121.399902,31.231126],[121.399873,31.231141],[121.399842,31.231156],[121.39981,31.231168],[121.399778,31.231178],[121.399747,31.231183],[121.399712,31.231186],[121.399678,31.231186],[121.399646,31.231184],[121.399611,31.23118],[121.399578,31.231174],[121.399547,31.231164],[121.399518,31.231153],[121.399493,31.231141],[121.399463,31.231123],[121.399435,31.231102],[121.399411,31.231081],[121.39939,31.23106],[121.399371,31.231036],[121.399355,31.231012],[121.399344,31.23099],[121.399333,31.230963],[121.399324,31.230935],[121.399318,31.230908],[121.399314,31.230879],[121.399313,31.23085],[121.399313,31.230823],[121.399316,31.230791],[121.39932,31.230759],[121.399326,31.230729],[121.399334,31.2307],[121.399341,31.230672],[121.399349,31.23064],[121.399359,31.230607],[121.399367,31.230577],[121.399374,31.230548],[121.399379,31.230522],[121.399384,31.230497],[121.39939,31.230472],[121.399398,31.230447],[121.399406,31.230421],[121.399413,31.230396],[121.399421,31.230367],[121.399427,31.230338],[121.399434,31.230311],[121.399444,31.230281],[121.399453,31.230253],[121.399462,31.230223],[121.399472,31.230192],[121.39948,31.230161],[121.399488,31.230125],[121.3995,31.230091],[121.399514,31.230059],[121.399523,31.230029],[121.39953,31.230002],[121.399542,31.229973],[121.399555,31.229945],[121.399569,31.229921],[121.399585,31.229895],[121.399602,31.229871],[121.399618,31.229851],[121.399636,31.229833],[121.399657,31.229816],[121.39968,31.229799],[121.399708,31.229784],[121.399742,31.229771],[121.399777,31.229762],[121.399818,31.229754],[121.399858,31.229749],[121.399896,31.229747],[121.399934,31.229748],[121.399969,31.229751],[121.399998,31.229756],[121.40003,31.229764],[121.400063,31.229775],[121.400092,31.229787],[121.400121,31.229802],[121.400146,31.229818],[121.400167,31.229835],[121.40019,31.229856],[121.400212,31.229879],[121.400231,31.229903],[121.400248,31.229929],[121.400264,31.229956],[121.400282,31.229989],[121.4003,31.230029],[121.40031,31.230069],[121.400313,31.230103],[121.400312,31.230135],[121.400307,31.230168],[121.4003,31.2302],[121.400293,31.230229],[121.400284,31.23026],[121.400276,31.230288],[121.400268,31.230312],[121.400259,31.230339],[121.400249,31.230367],[121.400241,31.230392],[121.40023,31.230421],[121.40022,31.23045],[121.400211,31.23048],[121.400202,31.230512],[121.400192,31.230551],[121.400181,31.230588],[121.40017,31.230618],[121.400157,31.230652],[121.400146,31.230684],[121.400137,31.230713],[121.400128,31.230745],[121.400119,31.230777],[121.400111,31.230807],[121.400103,31.230839],[121.400093,31.230869],[121.400084,31.230896],[121.400072,31.230926],[121.400058,31.230955],[121.400039,31.230981],[121.40002,31.231004],[121.400006,31.231024],[121.399985,31.231057],[121.399958,31.231089],[121.399927,31.231111],[121.399895,31.231129],[121.399866,31.231144],[121.399833,31.231158],[121.399801,31.231168],[121.399771,31.231174],[121.399737,31.231178],[121.399704,31.231181],[121.399675,31.231181],[121.399641,31.231179],[121.399605,31.231174],[121.399574,31.231167],[121.399542,31.231156],[121.399509,31.231142],[121.399472,31.231124],[121.399433,31.231102],[121.399401,31.231077],[121.39938,31.231054],[121.399364,31.23103],[121.39935,31.231002],[121.399336,31.230972],[121.399324,31.230944],[121.399316,31.230918],[121.39931,31.230888],[121.399309,31.230859],[121.39931,31.230832],[121.399313,31.230801],[121.399317,31.230771],[121.399322,31.230742],[121.399328,31.230712],[121.399334,31.230681],[121.399342,31.230644],[121.399353,31.2306],[121.399362,31.230555],[121.399369,31.230524],[121.399377,31.230501],[121.399386,31.230474],[121.399395,31.230447],[121.399403,31.230423],[121.399412,31.230393],[121.399421,31.230365],[121.399429,31.23034],[121.399438,31.23031],[121.399447,31.230281],[121.399454,31.230255],[121.399464,31.230223],[121.399474,31.230192],[121.399484,31.23016],[121.399495,31.230126],[121.399509,31.230087],[121.399522,31.230052],[121.399532,31.230027],[121.399545,31.229998],[121.399558,31.22997],[121.39957,31.229947],[121.399586,31.22992],[121.399602,31.229895],[121.399617,31.229874],[121.399634,31.22985],[121.399652,31.229829],[121.399669,31.229811],[121.399692,31.22979],[121.399729,31.229773],[121.399775,31.229763],[121.399817,31.229754],[121.399856,31.229749],[121.399904,31.229745],[121.399948,31.229745],[121.399988,31.229751],[121.400027,31.22976],[121.40006,31.22977],[121.400092,31.229783],[121.400121,31.229797],[121.400146,31.229813],[121.40017,31.229832],[121.400193,31.229852],[121.400212,31.229874],[121.400234,31.229901],[121.400254,31.229929],[121.40027,31.229957],[121.400284,31.229989],[121.400294,31.230024],[121.400301,31.230061],[121.400305,31.230104],[121.400304,31.230144],[121.400299,31.230178],[121.400292,31.23021],[121.400283,31.230239],[121.400274,31.230271],[121.400265,31.230302],[121.400257,31.230331],[121.400247,31.230362],[121.400238,31.23039],[121.400229,31.230416],[121.400219,31.230447],[121.40021,31.230477],[121.4002,31.230505],[121.400188,31.230537],[121.400177,31.230569],[121.400165,31.230605],[121.400153,31.230645],[121.400142,31.230682],[121.400133,31.230714],[121.400124,31.230744],[121.400116,31.230776],[121.400108,31.230808],[121.4001,31.230836],[121.400091,31.230865],[121.40008,31.230894],[121.40007,31.230921],[121.400058,31.23095],[121.400042,31.230979],[121.400027,31.231004],[121.400009,31.231029],[121.399986,31.231054],[121.399959,31.231077],[121.399924,31.231098],[121.399889,31.231119],[121.399858,31.23114],[121.399825,31.231157],[121.399793,31.231168],[121.399758,31.231175],[121.399721,31.23118],[121.399687,31.231181],[121.39965,31.231179],[121.399613,31.231174],[121.39958,31.231167],[121.399548,31.231159],[121.399515,31.231147],[121.399482,31.231131],[121.399452,31.231112],[121.399425,31.23109],[121.399402,31.23107],[121.399375,31.231041],[121.399349,31.231008],[121.399333,31.230978],[121.39932,31.230949],[121.399313,31.230923],[121.399311,31.230897],[121.39931,31.230872],[121.39931,31.23085],[121.399311,31.230823],[121.399313,31.230794],[121.399317,31.230766],[121.399321,31.230738],[121.399328,31.230708],[121.399335,31.230674],[121.399343,31.230639],[121.399352,31.230602],[121.399362,31.23057],[121.39937,31.230532],[121.399376,31.230496],[121.399389,31.230467],[121.399401,31.230437],[121.39941,31.230407],[121.399419,31.230376],[121.399427,31.230345],[121.399434,31.230317],[121.399441,31.230288],[121.399448,31.230257],[121.399454,31.23023],[121.399462,31.230202],[121.399469,31.230173],[121.399477,31.230146],[121.399488,31.230116],[121.399499,31.230086],[121.399509,31.230059],[121.399521,31.230024],[121.399536,31.229987],[121.399551,31.229957],[121.399566,31.22993],[121.39958,31.229907],[121.399597,31.229885],[121.399617,31.229862],[121.399636,31.22984],[121.399655,31.22982],[121.399678,31.2298],[121.399706,31.229782],[121.399735,31.229768],[121.399765,31.229757],[121.399795,31.229748],[121.399825,31.229743],[121.399859,31.22974],[121.399891,31.22974],[121.399936,31.229741],[121.399983,31.229745],[121.40002,31.229753],[121.400054,31.229764],[121.400083,31.229775],[121.400112,31.229789],[121.400141,31.229806],[121.400167,31.229825],[121.40019,31.229844],[121.400213,31.229868],[121.400235,31.229895],[121.400252,31.22992],[121.400268,31.229948],[121.400282,31.229976],[121.400294,31.230004],[121.400303,31.230035],[121.400307,31.230065],[121.400307,31.230105],[121.400304,31.230147],[121.400297,31.230183],[121.400289,31.230217],[121.400281,31.230247],[121.400271,31.230276],[121.400261,31.230306],[121.40025,31.230337],[121.40024,31.230364],[121.400231,31.230394],[121.400221,31.230425],[121.400214,31.230451],[121.400206,31.230479],[121.400198,31.230506],[121.400189,31.230533],[121.400178,31.23056],[121.400168,31.230586],[121.40016,31.230613],[121.400153,31.230642],[121.400145,31.230673],[121.400138,31.230702],[121.400133,31.230726],[121.400126,31.230752],[121.400118,31.230781],[121.400111,31.230807],[121.400102,31.230835],[121.400093,31.230865],[121.400084,31.230891],[121.400073,31.23092],[121.400059,31.230949],[121.400045,31.230976],[121.40003,31.231],[121.400012,31.231025],[121.39999,31.23105],[121.399967,31.231071],[121.399934,31.231095],[121.399896,31.231119],[121.399861,31.231137],[121.399829,31.231152],[121.399796,31.231162],[121.39976,31.23117],[121.399726,31.231174],[121.399691,31.231176],[121.399653,31.231175],[121.39962,31.231171],[121.399584,31.231165],[121.399548,31.231155],[121.399516,31.231143],[121.399486,31.231128],[121.399459,31.231112],[121.399432,31.231092],[121.399406,31.231068],[121.399376,31.23104],[121.399352,31.231012],[121.399339,31.230982],[121.399327,31.23095],[121.399315,31.23092],[121.399306,31.230888],[121.399301,31.230856],[121.3993,31.230828],[121.399301,31.230798],[121.399304,31.230768],[121.399311,31.23074],[121.399319,31.230712],[121.399327,31.230685],[121.399336,31.230658],[121.399346,31.230629],[121.399355,31.230599],[121.399364,31.230571],[121.399374,31.230537],[121.399386,31.230501],[121.399396,31.230474],[121.399406,31.230445],[121.399416,31.230414],[121.399424,31.230385],[121.399431,31.230356],[121.399438,31.230325],[121.399444,31.230294],[121.39945,31.230266],[121.399455,31.230235],[121.399461,31.230204],[121.399468,31.230177],[121.399478,31.230146],[121.399488,31.230113],[121.399497,31.230081],[121.399507,31.230052],[121.399525,31.230016],[121.399546,31.229978],[121.399561,31.229949],[121.399578,31.22992],[121.399596,31.229892],[121.399613,31.229867],[121.399634,31.229841],[121.399656,31.229816],[121.399677,31.229799],[121.399701,31.229784],[121.399729,31.22977],[121.399757,31.229759],[121.399789,31.22975],[121.399823,31.229743],[121.399854,31.229738],[121.399887,31.229736],[121.39992,31.229734],[121.39996,31.229737],[121.400001,31.229746],[121.400037,31.229757],[121.400071,31.229771],[121.400102,31.229785],[121.400133,31.229804],[121.400161,31.229824],[121.400186,31.229844],[121.400211,31.229869],[121.400234,31.229895],[121.400253,31.229922],[121.400271,31.229951],[121.400284,31.229981],[121.400295,31.230011],[121.400302,31.230042],[121.400305,31.230075],[121.400304,31.230107],[121.400298,31.230146],[121.400288,31.230185],[121.40028,31.230218],[121.400271,31.23025],[121.400264,31.230278],[121.400256,31.230308],[121.400248,31.23034],[121.400241,31.230369],[121.400234,31.230398],[121.400226,31.230428],[121.400216,31.230458],[121.400207,31.230486],[121.400196,31.230517],[121.400186,31.230549],[121.400177,31.230578],[121.40017,31.230609],[121.400162,31.230641],[121.400153,31.23068],[121.400142,31.230722],[121.400131,31.230756],[121.40012,31.230787],[121.400109,31.230814],[121.400098,31.230843],[121.400088,31.230873],[121.400079,31.2309],[121.40007,31.230927],[121.400059,31.230956],[121.400045,31.230984],[121.400029,31.231008],[121.400008,31.231033],[121.399984,31.231058],[121.399961,31.231079],[121.399934,31.231102],[121.399905,31.231124],[121.39987,31.231142],[121.399833,31.231157],[121.399798,31.231167],[121.39976,31.231175],[121.399724,31.23118],[121.39969,31.231183],[121.399657,31.231181],[121.399622,31.231175],[121.399587,31.231167],[121.399555,31.231157],[121.399522,31.231145],[121.399492,31.23113],[121.399466,31.231115],[121.399441,31.231096],[121.399416,31.231075],[121.399396,31.231055],[121.399375,31.231032],[121.399357,31.231008],[121.399341,31.230981],[121.399328,31.230952],[121.399316,31.23092],[121.399308,31.230892],[121.399304,31.230863],[121.399302,31.230834],[121.399303,31.230806],[121.399309,31.230775],[121.399317,31.230748],[121.399325,31.230723],[121.399333,31.230693],[121.39934,31.230662],[121.399347,31.230629],[121.399354,31.230597],[121.399361,31.230569],[121.39937,31.230538],[121.399382,31.230508],[121.399393,31.230481],[121.399402,31.230454],[121.399411,31.230424],[121.399419,31.230391],[121.399424,31.23036],[121.39943,31.23033],[121.399436,31.2303],[121.399443,31.230272],[121.399448,31.230241],[121.399453,31.230208],[121.399457,31.230179],[121.399464,31.230149],[121.399473,31.230119],[121.399483,31.230093],[121.399495,31.230064],[121.399506,31.230033],[121.399517,31.230004],[121.39953,31.229976],[121.399552,31.229943],[121.399577,31.22991],[121.399599,31.229885],[121.399622,31.229861],[121.399647,31.229836],[121.399674,31.229812],[121.399705,31.229792],[121.399739,31.229776],[121.399772,31.229764],[121.399805,31.229756],[121.39984,31.229748],[121.399878,31.229743],[121.399913,31.229742],[121.399949,31.229745],[121.399986,31.229752],[121.400019,31.229761],[121.400048,31.22977],[121.400085,31.229784],[121.400123,31.229801],[121.400152,31.229818],[121.40018,31.229839],[121.400207,31.229865],[121.400229,31.229888],[121.400248,31.229915],[121.400264,31.229942],[121.400276,31.229967],[121.400287,31.229993],[121.400297,31.230021],[121.400304,31.230048],[121.400308,31.230079],[121.40031,31.23011],[121.400308,31.230142],[121.400305,31.230173],[121.400299,31.230202],[121.400289,31.230238],[121.400277,31.230276],[121.400266,31.230305],[121.400256,31.230334],[121.400247,31.230363],[121.400239,31.230392],[121.40023,31.230426],[121.40022,31.230459],[121.40021,31.230489],[121.400198,31.230521],[121.400188,31.230554],[121.400179,31.230583],[121.400171,31.230613],[121.400164,31.230643],[121.400157,31.230671],[121.400151,31.230698],[121.400144,31.230727],[121.400134,31.230761],[121.400123,31.230795],[121.400113,31.230823],[121.400103,31.23085],[121.400093,31.23088],[121.400084,31.23091],[121.400075,31.230938],[121.400062,31.230966],[121.400047,31.230994],[121.400031,31.231018],[121.40001,31.231044],[121.399985,31.231069],[121.39996,31.231091],[121.399929,31.231112],[121.399895,31.231132],[121.399859,31.231149],[121.399821,31.231163],[121.399774,31.231175],[121.399728,31.231186],[121.399695,31.23119],[121.39966,31.231186],[121.399625,31.231179],[121.399591,31.231172],[121.399555,31.231164],[121.399524,31.231153],[121.399493,31.23114],[121.399466,31.231124],[121.399443,31.231106],[121.39942,31.231084],[121.399399,31.23106],[121.399382,31.231036],[121.399367,31.23101],[121.399352,31.230984],[121.39934,31.230957],[121.399328,31.230924],[121.399316,31.23089],[121.399313,31.230864],[121.399313,31.230838],[121.399316,31.230808],[121.39932,31.230776],[121.399325,31.230744],[121.399332,31.230708],[121.399339,31.23067],[121.399347,31.230635],[121.399355,31.230604],[121.399362,31.230575],[121.399368,31.230544],[121.399375,31.230514],[121.399382,31.230483],[121.399389,31.230454],[121.399396,31.230425],[121.399405,31.230383],[121.399414,31.230338],[121.399422,31.230302],[121.39943,31.230269],[121.39944,31.230236],[121.399449,31.230207],[121.399457,31.230179],[121.399466,31.230152],[121.399476,31.230123],[121.399485,31.230097],[121.399493,31.230074],[121.3995,31.230051],[121.399509,31.230025],[121.399524,31.229997],[121.399544,31.229969],[121.399565,31.229941],[121.399591,31.229907],[121.399621,31.229868],[121.399651,31.229832],[121.399682,31.229806],[121.399714,31.229784],[121.399745,31.229768],[121.399778,31.229756],[121.399812,31.229747],[121.399844,31.229742],[121.399878,31.229739],[121.399914,31.229739],[121.399944,31.229741],[121.399976,31.229747],[121.400009,31.229756],[121.400037,31.229766],[121.400068,31.229781],[121.4001,31.2298],[121.400129,31.229817],[121.400162,31.229842],[121.400196,31.229873],[121.400221,31.229902],[121.400239,31.229928],[121.400254,31.229955],[121.400269,31.229984],[121.400282,31.230017],[121.400292,31.230048],[121.400299,31.230082],[121.400302,31.230118],[121.400301,31.23015],[121.400297,31.230181],[121.400289,31.230211],[121.400277,31.23024],[121.400264,31.230271],[121.400249,31.230304],[121.400236,31.230337],[121.400227,31.23038],[121.40022,31.230429],[121.400214,31.230467],[121.400208,31.230498],[121.400199,31.230531],[121.400189,31.230565],[121.400181,31.230596],[121.400171,31.230631],[121.400161,31.230667],[121.400153,31.230699],[121.400146,31.230729],[121.400139,31.230759],[121.40013,31.230792],[121.40012,31.230824],[121.400111,31.230852],[121.400101,31.230883],[121.400091,31.230915],[121.400082,31.230943],[121.400071,31.230971],[121.400058,31.230998],[121.400041,31.231025],[121.400021,31.231052],[121.399999,31.231074],[121.399972,31.231095],[121.399943,31.231114],[121.399917,31.231128],[121.399886,31.231141],[121.399851,31.231154],[121.399816,31.231163],[121.399781,31.231172],[121.399745,31.23118],[121.399706,31.231185],[121.399666,31.231187],[121.399631,31.231185],[121.399596,31.231179],[121.399551,31.231171],[121.399508,31.231157],[121.399476,31.231134],[121.399445,31.231108],[121.399419,31.231085],[121.399395,31.231058],[121.399375,31.23103],[121.399358,31.231004],[121.399342,31.230974],[121.399327,31.230939],[121.399316,31.230908],[121.399309,31.230877],[121.399305,31.230845],[121.399303,31.230814],[121.399303,31.230781],[121.399304,31.230747],[121.399307,31.230714],[121.399314,31.230674],[121.399324,31.230633],[121.399334,31.230599],[121.399343,31.230573],[121.399352,31.230544],[121.399361,31.230518],[121.399369,31.230491],[121.399376,31.230459],[121.399382,31.230429],[121.399388,31.230398],[121.399396,31.230364],[121.399401,31.230333],[121.399409,31.2303],[121.399417,31.230267],[121.399424,31.230238],[121.399431,31.230207],[121.399436,31.230175],[121.399444,31.230143],[121.399456,31.230111],[121.399469,31.230085],[121.399477,31.230064],[121.399479,31.230039],[121.399481,31.230012],[121.399483,31.23]]}}]}