{"type":"FeatureCollection","features":[{"type":"Feature","properties":{"id":"2026-05-10_running_37","type":"running","date":"2026-05-10"},"geometry":{"type":"LineString","coordinates":[[121.3995,31.230095],[121.399517,31.230061],[121.399529,31.230032],[121.399539,31.230008],[121.399551,31.229982],[121.399563,31.229955],[121.399575,31.229929],[121.39959,31.229905],[121.399607,31.229884],[121.399633,31.229861],[121.399666,31.229837],[121.399699,31.229818],[121.399727,31.229805],[121.399754,31.229795],[121.399787,31.229785],[121.399822,31.229776],[121.399856,31.229769],[121.399895,31.229763],[121.399934,31.229761],[121.399968,31.229762],[121.400007,31.229766],[121.400043,31.229771],[121.400076,31.229777],[121.400113,31.229787],[121.400148,31.229799],[121.400182,31.229816],[121.400213,31.229836],[121.400242,31.229861],[121.400269,31.229887],[121.400287,31.22991],[121.400301,31.229932],[121.400315,31.229957],[121.400326,31.229983],[121.400333,31.230009],[121.400337,31.230038],[121.400338,31.230066],[121.400336,31.230099],[121.400333,31.230131],[121.400328,31.23016],[121.40032,31.230192],[121.40031,31.230222],[121.400301,31.230251],[121.400292,31.230278],[121.400286,31.230301],[121.400279,31.230328],[121.400271,31.230356],[121.400263,31.230381],[121.400253,31.23041],[121.400243,31.230438],[121.400232,31.230466],[121.400222,31.230494],[121.400212,31.23052],[121.400201,31.230549],[121.400191,31.230578],[121.400183,31.230604],[121.400174,31.230633],[121.400164,31.230662],[121.400154,31.230687],[121.400143,31.230714],[121.400129,31.230743],[121.400116,31.230772],[121.400101,31.230796],[121.400082,31.230822],[121.400064,31.230847],[121.40005,31.23087],[121.40004,31.230898],[121.400037,31.230926],[121.400041,31.230952],[121.400044,31.230981],[121.400043,31.231011],[121.400034,31.231039],[121.40002,31.231064],[121.400004,31.231084],[121.399985,31.231102],[121.399963,31.23112],[121.399938,31.231136],[121.39991,31.231149],[121.399879,31.231163],[121.399844,31.231175],[121.399808,31.231185],[121.399763,31.231193],[121.399717,31.231198],[121.399681,31.231199],[121.399642,31.231197],[121.399607,31.231192],[121.399578,31.231187],[121.399548,31.231178],[121.399516,31.231166],[121.399487,31.231151],[121.399459,31.231134],[121.399433,31.231116],[121.399412,31.231098],[121.399389,31.231077],[121.399369,31.231055],[121.399354,31.231033],[121.399339,31.231005],[121.399327,31.230977],[121.399318,31.23095],[121.399309,31.23092],[121.399304,31.230892],[121.399302,31.230865],[121.399303,31.230834],[121.399306,31.230804],[121.399312,31.230776],[121.399322,31.230746],[121.399333,31.230717],[121.399343,31.230689],[121.399353,31.230658],[121.399361,31.230629],[121.399367,31.2306],[121.399374,31.230573],[121.399381,31.230548],[121.399388,31.230523],[121.399396,31.230497],[121.399406,31.230467],[121.399418,31.230432],[121.39943,31.230399],[121.399438,31.230371],[121.399446,31.230344],[121.399456,31.230312],[121.399468,31.230281],[121.399478,31.230254],[121.399489,31.230224],[121.399497,31.230196],[121.399504,31.230172],[121.399514,31.230145],[121.399523,31.23012],[121.399531,31.230098],[121.399537,31.230072],[121.399543,31.23004],[121.399549,31.230011],[121.399559,31.229982],[121.399577,31.229946],[121.399597,31.229913],[121.399618,31.229888],[121.399641,31.229865],[121.399666,31.229845],[121.399695,31.229827],[121.399723,31.229812],[121.399749,31.229799],[121.39978,31.229786],[121.399811,31.229774],[121.39984,31.229766],[121.399872,31.229759],[121.399904,31.229756],[121.399936,31.229757],[121.399973,31.229759],[121.400012,31.229763],[121.400046,31.229767],[121.400076,31.229774],[121.400106,31.229782],[121.400136,31.229792],[121.400163,31.229804],[121.40019,31.229819],[121.400217,31.229837],[121.400239,31.229856],[121.400262,31.22988],[121.400281,31.229904],[121.400295,31.229926],[121.400308,31.229952],[121.400319,31.229978],[121.400326,31.230003],[121.400331,31.230034],[121.400332,31.230066],[121.400332,31.230098],[121.40033,31.230133],[121.400326,31.230166],[121.400317,31.230203],[121.400307,31.230238],[121.400297,31.230268],[121.400288,31.230297],[121.40028,31.230325],[121.400271,31.230356],[121.400261,31.230383],[121.400251,31.230409],[121.40024,31.230437],[121.400229,31.230465],[121.400219,31.230495],[121.400209,31.230524],[121.4002,31.230551],[121.400191,31.23058],[121.400184,31.230607],[121.400177,31.230634],[121.400169,31.230661],[121.400159,31.230687],[121.400147,31.230717],[121.400134,31.230747],[121.400119,31.230776],[121.400103,31.230803],[121.400087,31.230826],[121.40007,31.230851],[121.400055,31.230876],[121.400046,31.230899],[121.400041,31.230927],[121.400041,31.230955],[121.400039,31.230982],[121.400032,31.231012],[121.40002,31.23104],[121.400003,31.231063],[121.39998,31.231087],[121.399953,31.231111],[121.399923,31.231132],[121.399887,31.231152],[121.39985,31.231169],[121.399816,31.23118],[121.39978,31.231188],[121.399741,31.231193],[121.399707,31.231195],[121.399675,31.231194],[121.399639,31.231192],[121.399604,31.231188],[121.399573,31.231181],[121.39954,31.23117],[121.399509,31.231157],[121.399484,31.231142],[121.399457,31.231124],[121.399433,31.231105],[121.399414,31.231086],[121.399391,31.231059],[121.399369,31.231024],[121.399352,31.230992],[121.399337,31.230962],[121.399321,31.230927],[121.399314,31.230897],[121.399315,31.230875],[121.399318,31.230846],[121.399321,31.230818],[121.399324,31.230794],[121.399329,31.230764],[121.399335,31.230736],[121.399341,31.230712],[121.399348,31.230683],[121.399356,31.230655],[121.399363,31.230631],[121.399371,31.230602],[121.399379,31.230574],[121.399386,31.230549],[121.399395,31.23052],[121.399404,31.230491],[121.399413,31.230463],[121.399422,31.230435],[121.399429,31.230411],[121.399438,31.230382],[121.399447,31.230355],[121.399455,31.230331],[121.399464,31.230303],[121.399472,31.230276],[121.399479,31.230252],[121.399488,31.230224],[121.399496,31.230197],[121.399503,31.230173],[121.399511,31.230144],[121.399519,31.230116],[121.399526,31.230089],[121.399537,31.230047],[121.39955,31.230003],[121.39956,31.229974],[121.399573,31.229947],[121.39959,31.229919],[121.399609,31.229895],[121.39963,31.229873],[121.399655,31.229851],[121.399683,31.229831],[121.399711,31.229814],[121.399742,31.229797],[121.399773,31.229783],[121.399802,31.229772],[121.399835,31.229762],[121.399868,31.229755],[121.399899,31.229752],[121.399937,31.229752],[121.399983,31.229756],[121.400024,31.229762],[121.400056,31.229768],[121.400092,31.229776],[121.400125,31.229788],[121.400154,31.229801],[121.400185,31.229819],[121.400211,31.229837],[121.400232,31.229857],[121.400255,31.229881],[121.400274,31.229906],[121.400289,31.22993],[121.400302,31.229958],[121.400312,31.229985],[121.400318,31.230011],[121.400323,31.230044],[121.400324,31.230079],[121.400321,31.230125],[121.400314,31.230167],[121.400307,31.230193],[121.4003,31.230217],[121.400292,31.230247],[121.400283,31.230276],[121.400276,31.230301],[121.400267,31.230331],[121.400257,31.23036],[121.400249,31.230386],[121.40024,31.230416],[121.40023,31.230446],[121.400222,31.230473],[121.400212,31.230504],[121.400203,31.230535],[121.400195,31.230562],[121.400185,31.230595],[121.400176,31.230626],[121.400168,31.230652],[121.400159,31.230679],[121.400149,31.23071],[121.400139,31.230739],[121.40013,31.230763],[121.400119,31.230792],[121.400109,31.230819],[121.4001,31.230842],[121.400089,31.23087],[121.40008,31.230895],[121.400072,31.230918],[121.400061,31.230945],[121.400048,31.230977],[121.400034,31.231006],[121.400017,31.231036],[121.399998,31.231062],[121.399972,31.231087],[121.399939,31.231114],[121.399904,31.231137],[121.399874,31.231154],[121.399842,31.231168],[121.399808,31.23118],[121.399776,31.231187],[121.399739,31.231192],[121.399703,31.231194],[121.399671,31.231193],[121.399636,31.23119],[121.399602,31.231185],[121.399572,31.231177],[121.399539,31.231164],[121.399508,31.231149],[121.399481,31.231132],[121.399452,31.231111],[121.399425,31.231086],[121.399396,31.231052],[121.399372,31.231017],[121.399356,31.230987],[121.399341,31.230958],[121.399328,31.23093],[121.399317,31.230899],[121.399308,31.230868],[121.399304,31.230839],[121.399304,31.230809],[121.399308,31.230782],[121.399315,31.230756],[121.399324,31.230728],[121.399333,31.2307],[121.399344,31.230673],[121.399354,31.230646],[121.399364,31.230619],[121.399374,31.230592],[121.399382,31.230566],[121.399391,31.230539],[121.399399,31.230514],[121.399408,31.230488],[121.399418,31.230461],[121.399427,31.230432],[121.399436,31.230403],[121.399443,31.230375],[121.399452,31.230345],[121.39946,31.230317],[121.399468,31.230291],[121.399477,31.230261],[121.399486,31.230234],[121.399495,31.230208],[121.399505,31.230178],[121.399515,31.230149],[121.399522,31.230122],[121.39953,31.230089],[121.39954,31.23005],[121.399551,31.230012],[121.399562,31.229982],[121.399576,31.229953],[121.399593,31.229926],[121.399611,31.229902],[121.399633,31.229878],[121.399657,31.229855],[121.399681,31.229837],[121.39971,31.229818],[121.39974,31.229801],[121.399767,31.229788],[121.399795,31.229777],[121.399828,31.229768],[121.399861,31.22976],[121.399894,31.229756],[121.399934,31.229754],[121.399982,31.229755],[121.400022,31.229758],[121.400054,31.229764],[121.400089,31.229773],[121.400123,31.229784],[121.400152,31.229797],[121.400181,31.229814],[121.400206,31.229832],[121.400225,31.229851],[121.400244,31.229874],[121.400261,31.229896],[121.400276,31.229917],[121.400291,31.229942],[121.400303,31.22997],[121.40031,31.229997],[121.400316,31.230027],[121.40032,31.230059],[121.40032,31.23009],[121.400318,31.230128],[121.400312,31.230167],[121.400304,31.230201],[121.400296,31.230226],[121.400289,31.23025],[121.40028,31.230279],[121.400271,31.230307],[121.400263,31.230332],[121.400253,31.230362],[121.400244,31.230391],[121.400236,31.230416],[121.400226,31.230446],[121.400218,31.230475],[121.40021,31.230501],[121.400201,31.230531],[121.400192,31.230561],[121.400183,31.230589],[121.40017,31.230629],[121.400157,31.230669],[121.400147,31.230697],[121.400139,31.230721],[121.400129,31.23075],[121.40012,31.230779],[121.400111,31.230804],[121.400102,31.230833],[121.400093,31.230861],[121.400085,31.230885],[121.400076,31.230913],[121.400067,31.23094],[121.400058,31.230964],[121.400041,31.230999],[121.400021,31.231034],[121.400001,31.23106],[121.399974,31.231085],[121.399936,31.231113],[121.3999,31.231134],[121.399869,31.231148],[121.399836,31.231161],[121.399802,31.231172],[121.399768,31.23118],[121.399735,31.231184],[121.399698,31.231185],[121.399663,31.231184],[121.39963,31.231181],[121.399597,31.231175],[121.399566,31.231166],[121.399541,31.231155],[121.399515,31.231142],[121.399486,31.231124],[121.399459,31.231105],[121.399437,31.231086],[121.399413,31.231062],[121.399394,31.231037],[121.399379,31.231013],[121.399363,31.230985],[121.399347,31.230956],[121.399332,31.230925],[121.39932,31.230895],[121.399312,31.230862],[121.399311,31.230829],[121.399317,31.230804],[121.399321,31.230781],[121.399328,31.230753],[121.399336,31.230725],[121.399343,31.230701],[121.399352,31.230672],[121.39936,31.230643],[121.399368,31.230618],[121.399378,31.230586],[121.39939,31.230548],[121.399402,31.230511],[121.399411,31.230481],[121.39942,31.230451],[121.399429,31.230421],[121.399436,31.230395],[121.399445,31.230364],[121.399453,31.230333],[121.39946,31.230306],[121.399469,31.230275],[121.399478,31.230244],[121.399486,31.230217],[121.399495,31.230186],[121.399505,31.230155],[121.399513,31.230129],[121.399523,31.230097],[121.399534,31.230065],[121.399546,31.230032],[121.399559,31.229997],[121.399571,31.229969],[121.399589,31.229936],[121.399611,31.229903],[121.399633,31.229879],[121.399659,31.229857],[121.399685,31.229838],[121.399712,31.229823],[121.399742,31.229807],[121.399771,31.229793],[121.399799,31.229782],[121.399832,31.229773],[121.399866,31.229766],[121.3999,31.229762],[121.399936,31.22976],[121.399975,31.22976],[121.400012,31.229762],[121.400045,31.229767],[121.400083,31.229776],[121.400117,31.229788],[121.400149,31.229802],[121.400177,31.229818],[121.4002,31.229834],[121.400224,31.229854],[121.400245,31.229876],[121.400263,31.229899],[121.400281,31.229926],[121.400298,31.229954],[121.40031,31.229981],[121.40032,31.23001],[121.400326,31.23004],[121.400329,31.230068],[121.400328,31.2301],[121.400325,31.230132],[121.40032,31.230162],[121.400313,31.230193],[121.400304,31.230222],[121.400293,31.23025],[121.400283,31.230279],[121.400273,31.230306],[121.400264,31.230335],[121.400255,31.230364],[121.400247,31.230391],[121.400238,31.230419],[121.400229,31.230448],[121.40022,31.230477],[121.400211,31.230508],[121.400203,31.230541],[121.400196,31.230571],[121.400187,31.230603],[121.400177,31.230635],[121.400168,31.230664],[121.400158,31.230693],[121.400148,31.230721],[121.40014,31.230747],[121.400131,31.230775],[121.400121,31.230805],[121.400111,31.230835],[121.400101,31.230861],[121.400092,31.23089],[121.400081,31.230919],[121.400071,31.230948],[121.400059,31.230977],[121.400047,31.231003],[121.400029,31.231032],[121.40001,31.231058],[121.399988,31.231079],[121.399962,31.2311],[121.399934,31.231119],[121.399905,31.231135],[121.399866,31.231153],[121.399829,31.231168],[121.399798,31.231178],[121.399763,31.231185],[121.399725,31.231187],[121.399687,31.231186],[121.399652,31.231182],[121.399614,31.231176],[121.39958,31.231168],[121.39955,31.231157],[121.39952,31.231144],[121.399489,31.231126],[121.39946,31.231108],[121.399437,31.231088],[121.399413,31.231064],[121.399393,31.231038],[121.399377,31.23101],[121.39936,31.230972],[121.399345,31.230935],[121.399335,31.230906],[121.399326,31.230873],[121.399322,31.230841],[121.399321,31.230812],[121.399324,31.230781],[121.39933,31.230752],[121.399337,31.230726],[121.399346,31.230698],[121.399355,31.23067],[121.399364,31.230641],[121.399373,31.230613],[121.399382,31.230587],[121.399393,31.230556],[121.399403,31.230524],[121.399411,31.230493],[121.399421,31.230455],[121.399431,31.230421],[121.399439,31.230393],[121.399446,31.230361],[121.399453,31.23033],[121.39946,31.230302],[121.399469,31.23027],[121.399478,31.230238],[121.399486,31.230208],[121.399495,31.230176],[121.399502,31.230146],[121.399509,31.230118],[121.39952,31.230088],[121.399531,31.230058],[121.39954,31.230031],[121.39955,31.230001],[121.39956,31.229969],[121.399572,31.229941],[121.399587,31.229912],[121.399605,31.229888],[121.399626,31.229867],[121.399651,31.229846],[121.399677,31.229828],[121.399706,31.229811],[121.399734,31.229796],[121.39976,31.229785],[121.399789,31.229774],[121.399818,31.229765],[121.399847,31.229759],[121.39988,31.229753],[121.399911,31.229751],[121.399942,31.229751],[121.399978,31.229753],[121.400014,31.229757],[121.400048,31.229763],[121.400091,31.229775],[121.40013,31.22979],[121.40016,31.229806],[121.400189,31.229825],[121.400219,31.229847],[121.400247,31.229871],[121.400269,31.229895],[121.400289,31.229924],[121.400304,31.229954],[121.400314,31.229984],[121.400323,31.230018],[121.400329,31.230051],[121.40033,31.23008],[121.400329,31.23011],[121.400325,31.230141],[121.40032,31.230172],[121.400313,31.230199],[121.400304,31.230228],[121.400294,31.230256],[121.400284,31.230283],[121.400274,31.230311],[121.400265,31.230339],[121.400255,31.230369],[121.400246,31.230396],[121.400237,31.230423],[121.400226,31.230454],[121.400216,31.230485],[121.400205,31.230513],[121.400195,31.230546],[121.400185,31.230577],[121.400176,31.230606],[121.400167,31.230636],[121.400159,31.230665],[121.40015,31.230691],[121.400141,31.230721],[121.400133,31.23075],[121.400127,31.230778],[121.40012,31.230807],[121.400113,31.230836],[121.400104,31.230866],[121.400094,31.230894],[121.400083,31.230919],[121.400071,31.230948],[121.400058,31.230977],[121.400043,31.231004],[121.400024,31.231031],[121.400004,31.231055],[121.399985,31.231073],[121.399963,31.231091],[121.399934,31.231112],[121.399904,31.231132],[121.399872,31.231148],[121.399835,31.231163],[121.39979,31.231177],[121.399749,31.231184],[121.399716,31.231186],[121.399681,31.231184],[121.399642,31.231179],[121.399604,31.231173],[121.39957,31.231165],[121.399537,31.231153],[121.399507,31.23114],[121.39948,31.231125],[121.399452,31.231106],[121.399428,31.231087],[121.399409,31.231066],[121.399389,31.23104],[121.399372,31.231013],[121.399356,31.230982],[121.39934,31.230941],[121.399327,31.230893],[121.399323,31.230855],[121.399326,31.230831],[121.39933,31.230802],[121.399335,31.230773],[121.39934,31.230747],[121.399346,31.230716],[121.399353,31.230686],[121.39936,31.230659],[121.399368,31.230627],[121.399376,31.230597],[121.399384,31.230571],[121.399392,31.230543],[121.399401,31.230512],[121.399409,31.230481],[121.399417,31.230454],[121.399426,31.230422],[121.399435,31.230391],[121.399441,31.230366],[121.399447,31.230341],[121.399454,31.230318],[121.399464,31.230291],[121.399473,31.230261],[121.399481,31.230235],[121.39949,31.230205],[121.399499,31.230176],[121.399507,31.230153],[121.399516,31.230128],[121.399525,31.230099],[121.399534,31.230073],[121.399542,31.23005],[121.399551,31.230021],[121.399565,31.229986],[121.39958,31.229953],[121.399597,31.229922],[121.399617,31.229894],[121.399639,31.229871],[121.399666,31.229849],[121.399694,31.229829],[121.399721,31.229813],[121.399749,31.229799],[121.399778,31.229786],[121.399812,31.229775],[121.399846,31.229767],[121.399876,31.229761],[121.399906,31.229757],[121.399939,31.229756],[121.399975,31.229756],[121.400008,31.22976],[121.400044,31.229768],[121.40008,31.229778],[121.400113,31.22979],[121.400145,31.229807],[121.400177,31.229825],[121.400206,31.229846],[121.400233,31.22987],[121.400255,31.229892],[121.400277,31.229917],[121.400296,31.229943],[121.400313,31.229974],[121.400327,31.230011],[121.400335,31.230041],[121.400335,31.23007],[121.400331,31.230098],[121.400328,31.230122],[121.400322,31.23015],[121.400316,31.230179],[121.40031,31.230204],[121.400302,31.230233],[121.400293,31.230263],[121.400285,31.230288],[121.400276,31.230317],[121.400266,31.230347],[121.400258,31.230372],[121.400249,31.230402],[121.400239,31.230433],[121.40023,31.230464],[121.400221,31.230495],[121.400213,31.230522],[121.400204,31.230553],[121.400195,31.230584],[121.400187,31.230611],[121.400179,31.230636],[121.40017,31.230665],[121.400161,31.230696],[121.400153,31.230721],[121.400144,31.23075],[121.400135,31.23078],[121.400126,31.230811],[121.400117,31.230841],[121.40011,31.230866],[121.400102,31.230893],[121.400094,31.230919],[121.400084,31.230949],[121.400069,31.230985],[121.400053,31.231017],[121.400036,31.231042],[121.400016,31.231064],[121.399994,31.231084],[121.399972,31.231101],[121.399945,31.23112],[121.399914,31.231139],[121.399885,31.231153],[121.399853,31.231166],[121.399821,31.231175],[121.399787,31.231181],[121.399752,31.231184],[121.399719,31.231184],[121.399686,31.231182],[121.399649,31.231178],[121.399615,31.231174],[121.399585,31.231168],[121.399557,31.23116],[121.399533,31.23115],[121.399506,31.231136],[121.399479,31.23112],[121.399455,31.231103],[121.399432,31.231083],[121.399409,31.231061],[121.39939,31.231038],[121.399373,31.231011],[121.399357,31.230981],[121.399343,31.23095],[121.399333,31.230914],[121.399325,31.23087],[121.399324,31.230825],[121.399329,31.230791],[121.399334,31.230766],[121.39934,31.230743],[121.399345,31.230721],[121.399353,31.230693],[121.399361,31.230663],[121.399367,31.230638],[121.399375,31.230609],[121.399383,31.230579],[121.39939,31.230554],[121.399397,31.230529],[121.399406,31.230501],[121.399414,31.230471],[121.399422,31.230447],[121.39943,31.230418],[121.399439,31.230389],[121.399447,31.230364],[121.399456,31.230335],[121.399466,31.230305],[121.399474,31.230279],[121.399482,31.230254],[121.39949,31.230229],[121.3995,31.2302],[121.39951,31.23017],[121.399518,31.230144],[121.399528,31.230114],[121.399537,31.230083],[121.399546,31.230058],[121.399555,31.230029],[121.399564,31.230001],[121.399577,31.22997],[121.399598,31.229932],[121.399621,31.229898],[121.399644,31.229871],[121.39967,31.229846],[121.399698,31.229824],[121.399726,31.229807],[121.399754,31.229794],[121.399784,31.229783],[121.399819,31.229773],[121.399856,31.229765],[121.399894,31.229759],[121.399935,31.229756],[121.399975,31.229756],[121.400011,31.229758],[121.400046,31.229763],[121.400083,31.229772],[121.400119,31.229784],[121.400149,31.229798],[121.400179,31.229816],[121.400208,31.229837],[121.400231,31.229857],[121.400254,31.229882],[121.400276,31.229908],[121.400294,31.229935],[121.400309,31.229966],[121.40032,31.229996],[121.400327,31.230028],[121.400331,31.23006],[121.400333,31.230089],[121.400331,31.23012],[121.400327,31.230152],[121.400322,31.23018],[121.400315,31.230209],[121.400305,31.230239],[121.400295,31.230266],[121.400283,31.230296],[121.40027,31.230328],[121.40026,31.230358],[121.400248,31.230397],[121.400238,31.23044],[121.40023,31.230474],[121.400223,31.230504],[121.400215,31.230537],[121.400206,31.230571],[121.400196,31.230603],[121.400186,31.230637],[121.400175,31.230669],[121.400166,31.230697],[121.400157,31.230726],[121.400147,31.230757],[121.400138,31.230786],[121.400129,31.230818],[121.400119,31.230852],[121.40011,31.230883],[121.400099,31.230917],[121.400084,31.230957],[121.400066,31.230997],[121.400048,31.231028],[121.400027,31.231054],[121.400003,31.231077],[121.399979,31.231096],[121.399949,31.231117],[121.399916,31.231137],[121.399885,31.231153],[121.399851,31.231167],[121.399816,31.231177],[121.399784,31.231184],[121.399753,31.231186],[121.399717,31.231186],[121.399679,31.231184],[121.399644,31.23118],[121.399607,31.231173],[121.399569,31.231163],[121.399536,31.231151],[121.399504,31.231136],[121.399475,31.231118],[121.39945,31.231097],[121.399425,31.231074],[121.399405,31.231051],[121.399385,31.231025],[121.399368,31.230997],[121.399355,31.230971],[121.399344,31.230939],[121.399333,31.230898],[121.399326,31.230863],[121.399326,31.230834],[121.39933,31.230805],[121.399334,31.230781],[121.399339,31.230754],[121.399345,31.230726],[121.399354,31.230689],[121.399364,31.230648],[121.399373,31.230612],[121.399382,31.230578],[121.399389,31.230549],[121.399397,31.230518],[121.399405,31.230485],[121.399413,31.230457],[121.39942,31.23043],[121.399429,31.230398],[121.399438,31.230366],[121.399446,31.230339],[121.399456,31.230308],[121.399466,31.230277],[121.399475,31.230251],[121.399485,31.230221],[121.399495,31.23019],[121.399504,31.230164],[121.399513,31.230136],[121.399522,31.230106],[121.399531,31.230077],[121.39954,31.230048],[121.399547,31.230024],[121.399558,31.22999],[121.399576,31.229949],[121.399596,31.229913],[121.39962,31.229883],[121.399644,31.229857],[121.399667,31.229836],[121.399695,31.229816],[121.399727,31.229798],[121.399756,31.229785],[121.399789,31.229774],[121.399825,31.229764],[121.39986,31.229756],[121.399897,31.229751],[121.399937,31.229748],[121.399975,31.229748],[121.400011,31.22975],[121.400045,31.229755],[121.400083,31.229762],[121.400121,31.229772],[121.400154,31.229783],[121.400186,31.229799],[121.400217,31.22982],[121.400241,31.229842],[121.400264,31.229868],[121.400285,31.229896],[121.400301,31.229922],[121.400316,31.229953],[121.400329,31.229986],[121.400337,31.230017],[121.400342,31.230049],[121.400343,31.23008],[121.400341,31.230111],[121.400336,31.230142],[121.40033,31.230172],[121.40032,31.230203],[121.400309,31.230236],[121.400299,31.230264],[121.400289,31.230296],[121.400278,31.23033],[121.400269,31.230361],[121.40026,31.230391],[121.400252,31.23042],[121.400243,31.23045],[121.400235,31.230478],[121.400226,31.230511],[121.400218,31.230542],[121.400209,31.230571],[121.400199,31.230603],[121.400187,31.230642],[121.400174,31.230685],[121.400163,31.230721],[121.400155,31.230753],[121.400147,31.230785],[121.400136,31.23082],[121.400124,31.230854],[121.400114,31.230884],[121.400103,31.230911],[121.400091,31.230939],[121.400077,31.23097],[121.400061,31.230998],[121.400042,31.231025],[121.400021,31.23105],[121.4,31.231071],[121.399977,31.231091],[121.39995,31.231112],[121.399918,31.231133],[121.399886,31.231151],[121.399852,31.231166],[121.399819,31.231176],[121.399787,31.231183],[121.399754,31.231186],[121.399719,31.231187],[121.399682,31.231184],[121.399644,31.231179],[121.399608,31.231172],[121.399569,31.231161],[121.399532,31.231147],[121.399501,31.231132],[121.399473,31.231114],[121.399449,31.231093],[121.399426,31.231072],[121.399404,31.231045],[121.399384,31.231014],[121.399366,31.230974],[121.399352,31.230929],[121.399339,31.230882],[121.399332,31.230838],[121.399332,31.230809],[121.399336,31.230779],[121.399341,31.230749],[121.399345,31.230722],[121.399351,31.230692],[121.399358,31.230661],[121.399363,31.230635],[121.39937,31.230605],[121.399377,31.230575],[121.399384,31.230549],[121.399392,31.23052],[121.399401,31.23049],[121.399408,31.230464],[121.399419,31.230428],[121.399433,31.230383],[121.399444,31.230348],[121.399453,31.230321],[121.39946,31.230296],[121.399469,31.230267],[121.399479,31.230236],[121.399487,31.23021],[121.399497,31.230181],[121.399507,31.230151],[121.399515,31.230126],[121.399524,31.230098],[121.399533,31.23007],[121.399541,31.230047],[121.399552,31.230016],[121.399569,31.229977],[121.399586,31.229944],[121.399611,31.229905],[121.399642,31.229867],[121.39967,31.229839],[121.399699,31.229817],[121.399732,31.229798],[121.399765,31.229782],[121.399797,31.22977],[121.399833,31.229761],[121.39987,31.229753],[121.399902,31.229748],[121.399939,31.229746],[121.399978,31.229746],[121.400012,31.22975],[121.400044,31.229756],[121.400079,31.229765],[121.400114,31.229776],[121.400143,31.229788],[121.400173,31.229802],[121.400203,31.22982],[121.400231,31.229841],[121.400256,31.229864],[121.400278,31.229889],[121.400298,31.229918],[121.400314,31.229947],[121.400327,31.229977],[121.400337,31.23001],[121.400343,31.230043],[121.400345,31.230073],[121.400343,31.230103],[121.400339,31.230136],[121.400332,31.230166],[121.400323,31.230198],[121.400313,31.230229],[121.400304,31.230258],[121.400294,31.23029],[121.400281,31.230328],[121.400269,31.230369],[121.400259,31.230405],[121.400248,31.23044],[121.400238,31.230476],[121.400229,31.230507],[121.400219,31.230539],[121.40021,31.230572],[121.400201,31.230604],[121.400191,31.23064],[121.400181,31.230677],[121.400172,31.230711],[121.400163,31.230745],[121.400154,31.230776],[121.400145,31.230804],[121.400134,31.230834],[121.400121,31.230866],[121.40011,31.230893],[121.4001,31.230921],[121.400088,31.230949],[121.400072,31.230978],[121.400052,31.231006],[121.400031,31.231032],[121.400005,31.23106],[121.399977,31.231086],[121.399951,31.231108],[121.399927,31.231127],[121.399902,31.231144],[121.399877,31.231158],[121.399851,31.231168],[121.399818,31.231176],[121.399782,31.231181],[121.399747,31.231183],[121.399708,31.231183],[121.399666,31.231179],[121.399616,31.231169],[121.399566,31.231155],[121.399526,31.231139],[121.399489,31.231121],[121.399458,31.231101],[121.39943,31.231076],[121.399406,31.231049],[121.399388,31.231024],[121.399372,31.230997],[121.399358,31.230966],[121.399347,31.230933],[121.399338,31.230895],[121.399332,31.230859],[121.399329,31.230827],[121.39933,31.230797],[121.399333,31.230764],[121.399338,31.230733],[121.399345,31.230702],[121.399355,31.230672],[121.399365,31.230641],[121.399375,31.230609],[121.399384,31.230578],[121.399392,31.230546],[121.399399,31.230515],[121.399405,31.230487],[121.399412,31.230458],[121.399421,31.230425],[121.399431,31.23039],[121.39944,31.230359],[121.399448,31.230328],[121.399456,31.230298],[121.399464,31.23027],[121.399475,31.230237],[121.399486,31.230203],[121.399496,31.230172],[121.399509,31.230132],[121.399526,31.230087],[121.399539,31.230052],[121.39955,31.230023],[121.399562,31.229992],[121.399576,31.229959],[121.399591,31.229928],[121.399612,31.229894],[121.399636,31.229864],[121.39966,31.22984],[121.399682,31.229822],[121.399707,31.229806],[121.399736,31.229791],[121.399767,31.229778],[121.399802,31.229766],[121.39984,31.229756],[121.399877,31.22975],[121.399925,31.229748],[121.399977,31.22975],[121.400018,31.229757],[121.400052,31.229764],[121.400087,31.229775],[121.400124,31.229789],[121.400159,31.229804],[121.400194,31.229823],[121.400226,31.229845],[121.400252,31.229868],[121.400276,31.229893],[121.400297,31.229922],[121.400315,31.229953],[121.400328,31.229983],[121.400336,31.230016],[121.40034,31.230049],[121.400339,31.230078],[121.400335,31.230117],[121.400327,31.230162],[121.400318,31.230198],[121.40031,31.230228],[121.4003,31.23026],[121.40029,31.230294],[121.400281,31.230327],[121.40027,31.230363],[121.400258,31.230399],[121.400248,31.230432],[121.400239,31.230467],[121.40023,31.230502],[121.400223,31.230533],[121.400215,31.230566],[121.400207,31.230601],[121.400199,31.230633],[121.40019,31.230668],[121.400176,31.230715],[121.400161,31.230764],[121.400147,31.230806],[121.400132,31.230847],[121.400118,31.230884],[121.400105,31.230915],[121.400089,31.230947],[121.400069,31.230981],[121.400048,31.23101],[121.400024,31.231038],[121.399997,31.231066],[121.399968,31.231091],[121.399942,31.23111],[121.399913,31.231129],[121.399882,31.231146],[121.399852,31.231159],[121.399815,31.23117],[121.399774,31.231178],[121.399735,31.231181],[121.399695,31.231179],[121.399657,31.231175],[121.399615,31.231166],[121.399572,31.231153],[121.399536,31.231139],[121.399499,31.231121],[121.399463,31.2311],[121.399433,31.231079],[121.399407,31.231052],[121.399386,31.231024],[121.39937,31.230997],[121.399356,31.230968],[121.399342,31.230934],[121.399332,31.23089],[121.399328,31.23085],[121.399331,31.230817],[121.399336,31.230784],[121.399342,31.230756],[121.399348,31.230728],[121.399354,31.230701],[121.399362,31.230668],[121.399372,31.230634],[121.39938,31.230603],[121.399389,31.230569],[121.399398,31.230533],[121.399407,31.230502],[121.399416,31.230467],[121.399427,31.230433],[121.399436,31.230404],[121.399446,31.230371],[121.399457,31.230338],[121.399467,31.23031],[121.399478,31.230277],[121.399489,31.230244],[121.399501,31.230205],[121.399513,31.230166],[121.399525,31.230129],[121.399536,31.230094],[121.399545,31.230066],[121.399555,31.230035],[121.399565,31.230004],[121.399573,31.22998],[121.399589,31.229945],[121.399612,31.229903],[121.399638,31.229869],[121.399667,31.229841],[121.399701,31.229816],[121.399733,31.229798],[121.399767,31.229781],[121.399803,31.229767],[121.399838,31.229755],[121.399884,31.229746],[121.399936,31.22974],[121.399981,31.22974],[121.400023,31.229744],[121.400059,31.229751],[121.400096,31.229763],[121.400133,31.229778],[121.400165,31.229794],[121.400195,31.229816],[121.400224,31.229843],[121.400248,31.229871],[121.400271,31.229902],[121.400292,31.229934],[121.400307,31.229963],[121.400319,31.229995],[121.400328,31.230029],[121.400333,31.23006],[121.400333,31.230104],[121.400329,31.230155],[121.400321,31.230194],[121.400313,31.230226],[121.400303,31.230261],[121.400293,31.230298],[121.400284,31.230333],[121.400273,31.23037],[121.400263,31.230407],[121.400254,31.23044],[121.400245,31.230474],[121.400236,31.230507],[121.40023,31.230534],[121.400221,31.230565],[121.400211,31.230599],[121.400202,31.230629],[121.400193,31.230661],[121.400179,31.230706],[121.400163,31.230754],[121.400151,31.230791],[121.400139,31.230825],[121.400127,31.230859],[121.400114,31.230891],[121.400101,31.230921],[121.400086,31.230953],[121.400067,31.230986],[121.400047,31.231015],[121.400023,31.231044],[121.399994,31.231071],[121.399967,31.231093],[121.399935,31.231114],[121.399899,31.231134],[121.399861,31.231149],[121.399819,31.231161],[121.399777,31.231169],[121.399735,31.231173],[121.399693,31.231173],[121.399654,31.231169],[121.399613,31.23116],[121.399572,31.231148],[121.399537,31.231135],[121.3995,31.231119],[121.399463,31.231099],[121.399434,31.231078],[121.399407,31.231053],[121.399384,31.231027],[121.399364,31.231002],[121.399347,31.230975],[121.399335,31.230946],[121.399328,31.230915],[121.399326,31.23088],[121.399328,31.230844],[121.399332,31.230802],[121.399336,31.230759],[121.399342,31.230725],[121.39935,31.230692],[121.39936,31.23066],[121.39937,31.230629],[121.399378,31.230596],[121.399388,31.230562],[121.399396,31.230532],[121.399405,31.2305],[121.399414,31.230465],[121.399423,31.230433],[121.399434,31.230399],[121.399445,31.230365],[121.399456,31.230335],[121.399468,31.230304],[121.39948,31.230269],[121.399491,31.230235],[121.399503,31.230198],[121.399515,31.230161],[121.399527,31.230129],[121.399539,31.230095],[121.39955,31.230061],[121.39956,31.23003],[121.399571,31.229996],[121.399583,31.229962],[121.399597,31.229931],[121.399616,31.229898],[121.39964,31.229867],[121.399664,31.229842],[121.399693,31.229819],[121.399725,31.2298],[121.399756,31.229786],[121.399792,31.229773],[121.399831,31.229762],[121.39988,31.229755],[121.399933,31.22975],[121.399976,31.229748],[121.400018,31.22975],[121.40006,31.229755],[121.400097,31.229764],[121.400135,31.229777],[121.400171,31.229795],[121.400202,31.229815],[121.400232,31.22984],[121.400259,31.229867],[121.400281,31.229897],[121.4003,31.22993],[121.400315,31.229961],[121.400328,31.229995],[121.400337,31.230031],[121.40034,31.230063],[121.400336,31.230107],[121.400329,31.230159],[121.40032,31.2302],[121.400312,31.230234],[121.400303,31.230269],[121.400293,31.230306],[121.400285,31.230339],[121.400278,31.230375],[121.40027,31.230413],[121.400264,31.230447],[121.400256,31.230484],[121.400248,31.230524],[121.400239,31.23056],[121.400229,31.230597],[121.400218,31.230633],[121.400209,31.230666],[121.4002,31.230702],[121.400187,31.230749],[121.400174,31.230794],[121.400161,31.230827],[121.400147,31.230861],[121.400133,31.230895],[121.400119,31.230925],[121.4001,31.230957],[121.400078,31.230988],[121.400056,31.231016],[121.400028,31.231045],[121.399998,31.231073],[121.399969,31.231097],[121.399937,31.231119],[121.399904,31.231137],[121.399873,31.23115],[121.39984,31.23116],[121.399805,31.231168],[121.399772,31.231174],[121.399735,31.231176],[121.399695,31.231175],[121.399661,31.23117],[121.399621,31.231161],[121.399578,31.231149],[121.399538,31.231137],[121.399498,31.23112],[121.399461,31.231099],[121.399431,31.231075],[121.399406,31.231047],[121.399387,31.23102],[121.399369,31.230988],[121.399352,31.230953],[121.399339,31.230919],[121.399333,31.230882],[121.39933,31.230843],[121.39933,31.230805],[121.399331,31.230767],[121.399335,31.230732],[121.399343,31.230697],[121.399352,31.230662],[121.399362,31.230631],[121.399372,31.2306],[121.399383,31.230568],[121.399394,31.230538],[121.399404,31.230503],[121.399415,31.230466],[121.399427,31.230431],[121.39944,31.230394],[121.399454,31.230359],[121.399467,31.230326],[121.399479,31.230291],[121.39949,31.230255],[121.399499,31.230222],[121.399508,31.230185],[121.399518,31.230143],[121.399526,31.230103],[121.399536,31.230071],[121.399547,31.230039],[121.399557,31.230004],[121.399565,31.22997],[121.399572,31.229939],[121.399575,31.229924]]}}]}