{"type":"FeatureCollection","features":[{"type":"Feature","properties":{"id":"2026-04-05_running_26","type":"running","date":"2026-04-05"},"geometry":{"type":"LineString","coordinates":[[121.399574,31.230024],[121.399611,31.229996],[121.399616,31.229982],[121.39963,31.229956],[121.399638,31.229929],[121.399654,31.22991],[121.399674,31.229892],[121.399699,31.229866],[121.399725,31.229838],[121.399755,31.229813],[121.399792,31.229794],[121.399829,31.22978],[121.399865,31.229769],[121.399898,31.229763],[121.39993,31.229759],[121.399962,31.229757],[121.399993,31.229757],[121.400024,31.229759],[121.400055,31.229763],[121.400085,31.229769],[121.400116,31.229777],[121.400147,31.229789],[121.400177,31.229802],[121.400205,31.229819],[121.400229,31.229839],[121.400253,31.229861],[121.400272,31.229883],[121.400292,31.229911],[121.400309,31.229939],[121.400322,31.229969],[121.40033,31.229994],[121.400337,31.230021],[121.400341,31.230047],[121.400344,31.230074],[121.400343,31.2301],[121.40034,31.230129],[121.400335,31.230157],[121.400329,31.230184],[121.400322,31.23021],[121.400314,31.230237],[121.400306,31.230262],[121.400299,31.230288],[121.400291,31.230314],[121.400281,31.230343],[121.400269,31.230375],[121.400256,31.230408],[121.400243,31.230441],[121.400232,31.230471],[121.400222,31.230502],[121.400214,31.23053],[121.400207,31.230557],[121.4002,31.230583],[121.400193,31.230611],[121.400186,31.230636],[121.400179,31.23066],[121.400171,31.230684],[121.400162,31.230709],[121.400154,31.230735],[121.400144,31.230761],[121.400134,31.230787],[121.400124,31.230814],[121.400112,31.230844],[121.400101,31.230873],[121.400091,31.230901],[121.400083,31.230924],[121.400072,31.230947],[121.40006,31.230971],[121.400046,31.230994],[121.400032,31.231017],[121.400017,31.231038],[121.399999,31.231059],[121.39998,31.231079],[121.39996,31.231096],[121.399937,31.231113],[121.399911,31.23113],[121.399884,31.231145],[121.399855,31.231159],[121.399824,31.231172],[121.399788,31.231183],[121.399753,31.23119],[121.399718,31.231193],[121.399686,31.231193],[121.399657,31.23119],[121.399627,31.231184],[121.399599,31.231177],[121.39957,31.231167],[121.399541,31.231155],[121.399513,31.231142],[121.39949,31.231128],[121.399467,31.231112],[121.399448,31.231095],[121.39943,31.231076],[121.399413,31.231055],[121.399395,31.231031],[121.399378,31.231004],[121.399358,31.230974],[121.399345,31.230946],[121.399337,31.230916],[121.399337,31.230889],[121.399338,31.230859],[121.399337,31.23083],[121.399335,31.230801],[121.399335,31.230775],[121.399338,31.230751],[121.399348,31.230726],[121.39936,31.230697],[121.399369,31.230667],[121.399377,31.23064],[121.399386,31.230612],[121.399394,31.230585],[121.399402,31.230558],[121.399409,31.230531],[121.399418,31.230498],[121.399426,31.230465],[121.399435,31.23043],[121.399444,31.230401],[121.399454,31.23037],[121.399463,31.230341],[121.399471,31.230313],[121.399478,31.230287],[121.399485,31.23026],[121.399493,31.230233],[121.399501,31.230208],[121.399509,31.230182],[121.399517,31.230156],[121.399526,31.23013],[121.399534,31.230105],[121.399543,31.230077],[121.399553,31.23005],[121.399567,31.230017],[121.399582,31.229988],[121.399598,31.229962],[121.399613,31.229939],[121.399629,31.229917],[121.399647,31.229894],[121.399668,31.229871],[121.399693,31.229849],[121.399721,31.229827],[121.399751,31.229808],[121.399784,31.229792],[121.399818,31.229779],[121.399851,31.229769],[121.399885,31.229763],[121.399918,31.229758],[121.399952,31.229756],[121.399985,31.229756],[121.400021,31.229757],[121.400056,31.229761],[121.400091,31.229767],[121.400122,31.229775],[121.400153,31.229787],[121.400181,31.229801],[121.400207,31.229818],[121.400229,31.229837],[121.400252,31.229859],[121.400272,31.229882],[121.400291,31.229907],[121.400306,31.229932],[121.40032,31.229958],[121.40033,31.229984],[121.400338,31.230011],[121.400343,31.230039],[121.400345,31.230068],[121.400345,31.230102],[121.400342,31.230135],[121.400337,31.230167],[121.40033,31.230195],[121.400323,31.230224],[121.400314,31.230253],[121.400304,31.230281],[121.400294,31.23031],[121.400285,31.230338],[121.400275,31.230366],[121.400265,31.230395],[121.400255,31.230423],[121.400244,31.230449],[121.400232,31.230478],[121.40022,31.230506],[121.400209,31.230535],[121.400199,31.230565],[121.400188,31.230596],[121.400178,31.230629],[121.400168,31.230659],[121.40016,31.230686],[121.400151,31.230713],[121.400143,31.230739],[121.400135,31.230766],[121.400127,31.230793],[121.400119,31.23082],[121.40011,31.230847],[121.400102,31.230873],[121.400092,31.2309],[121.400083,31.230926],[121.400072,31.23095],[121.400059,31.230972],[121.400044,31.230994],[121.400026,31.231017],[121.400005,31.231044],[121.399981,31.231071],[121.399956,31.231096],[121.399931,31.231117],[121.399904,31.231136],[121.399876,31.231152],[121.399847,31.231167],[121.399817,31.231179],[121.399786,31.231188],[121.399753,31.231195],[121.399721,31.231198],[121.399689,31.231199],[121.399657,31.231196],[121.399626,31.231189],[121.399594,31.23118],[121.399563,31.231168],[121.399533,31.231155],[121.399502,31.231139],[121.399474,31.231121],[121.39945,31.231102],[121.399431,31.231079],[121.39941,31.231054],[121.399391,31.231029],[121.399374,31.231004],[121.399359,31.230978],[121.399349,31.23095],[121.399342,31.230922],[121.39934,31.230892],[121.39934,31.230861],[121.399341,31.23083],[121.399343,31.230797],[121.399346,31.230764],[121.399351,31.230728],[121.399357,31.230695],[121.399365,31.230661],[121.399373,31.230632],[121.399381,31.230604],[121.399388,31.230579],[121.399396,31.230553],[121.399403,31.23053],[121.39941,31.230503],[121.399418,31.230476],[121.399427,31.230446],[121.399435,31.23042],[121.399443,31.230394],[121.39945,31.230369],[121.399458,31.230342],[121.399466,31.230315],[121.399474,31.230288],[121.399482,31.230264],[121.39949,31.230237],[121.399498,31.23021],[121.399507,31.230184],[121.399515,31.230157],[121.399523,31.230132],[121.399533,31.230106],[121.399542,31.230083],[121.399552,31.230057],[121.399563,31.230032],[121.399575,31.230008],[121.399587,31.229983],[121.399599,31.22996],[121.399613,31.229936],[121.399627,31.229913],[121.399643,31.229891],[121.399661,31.229869],[121.399685,31.229848],[121.399715,31.229826],[121.39975,31.229807],[121.399787,31.229791],[121.399822,31.22978],[121.399857,31.229772],[121.399887,31.229768],[121.39992,31.229765],[121.399953,31.229764],[121.399987,31.229763],[121.400021,31.229764],[121.400055,31.229767],[121.400087,31.229772],[121.400118,31.229779],[121.400147,31.229788],[121.400174,31.229801],[121.400199,31.229815],[121.400223,31.229834],[121.400246,31.229854],[121.400267,31.229876],[121.400288,31.229903],[121.400307,31.22993],[121.400322,31.229958],[121.400331,31.229986],[121.400338,31.230014],[121.400343,31.230043],[121.400344,31.230073],[121.400344,31.230104],[121.40034,31.230136],[121.400335,31.230166],[121.400328,31.230195],[121.40032,31.230221],[121.40031,31.230248],[121.4003,31.230275],[121.40029,31.230303],[121.400279,31.230332],[121.400269,31.230362],[121.400257,31.230395],[121.400245,31.230428],[121.400233,31.230459],[121.400222,31.230487],[121.400212,31.230516],[121.400203,31.230544],[121.400193,31.230572],[121.400184,31.230599],[121.400175,31.230626],[121.400165,31.230654],[121.400157,31.23068],[121.400149,31.230707],[121.400142,31.230732],[121.400135,31.230759],[121.400128,31.230786],[121.400121,31.230814],[121.400114,31.230843],[121.400104,31.230874],[121.400092,31.230907],[121.400078,31.230936],[121.400064,31.230962],[121.400047,31.230986],[121.400029,31.231009],[121.400008,31.231033],[121.399986,31.231055],[121.399962,31.231076],[121.39994,31.231095],[121.399916,31.231112],[121.399892,31.231129],[121.399866,31.231145],[121.39984,31.231159],[121.399811,31.23117],[121.39978,31.23118],[121.399748,31.231187],[121.399714,31.231192],[121.399682,31.231194],[121.399651,31.231191],[121.399623,31.231183],[121.399593,31.231175],[121.399565,31.231166],[121.399537,31.231155],[121.39951,31.231142],[121.399486,31.231128],[121.399464,31.231112],[121.399445,31.231095],[121.399427,31.231076],[121.399409,31.231054],[121.399392,31.231031],[121.399377,31.231006],[121.399366,31.230981],[121.399356,31.230955],[121.399348,31.230925],[121.399342,31.230894],[121.399338,31.230863],[121.399337,31.230833],[121.399338,31.230803],[121.399339,31.230771],[121.399341,31.230737],[121.399342,31.230704],[121.399346,31.230672],[121.399349,31.230643],[121.399356,31.230615],[121.399364,31.230589],[121.399375,31.230561],[121.399384,31.230534],[121.399393,31.230507],[121.399403,31.230481],[121.399412,31.230454],[121.399422,31.230424],[121.399432,31.230394],[121.399441,31.230364],[121.399448,31.230338],[121.399455,31.230311],[121.399461,31.230284],[121.399467,31.230257],[121.39947,31.230228],[121.399477,31.230201],[121.399482,31.230173],[121.399495,31.230145],[121.399504,31.230118],[121.399516,31.230092],[121.399525,31.230067],[121.399534,31.230041],[121.399545,31.230017],[121.399556,31.22999],[121.399573,31.229963],[121.399591,31.229936],[121.399611,31.229911],[121.39963,31.229888],[121.399649,31.229868],[121.399671,31.229848],[121.399695,31.229829],[121.399723,31.229811],[121.399753,31.229797],[121.399785,31.229784],[121.399819,31.229776],[121.399851,31.229769],[121.399884,31.229764],[121.399918,31.229762],[121.399953,31.229761],[121.399991,31.229762],[121.400029,31.229765],[121.400071,31.229771],[121.400112,31.229779],[121.40015,31.22979],[121.40018,31.229804],[121.400207,31.22982],[121.400231,31.229838],[121.400251,31.229858],[121.400268,31.229879],[121.400285,31.229901],[121.400299,31.229925],[121.400312,31.22995],[121.400323,31.229975],[121.400332,31.23],[121.400338,31.230025],[121.400342,31.230051],[121.400342,31.23008],[121.40034,31.230112],[121.400333,31.230148],[121.400325,31.230183],[121.400315,31.230214],[121.400307,31.230237],[121.400299,31.23026],[121.40029,31.230285],[121.400281,31.230311],[121.400272,31.230337],[121.400261,31.230363],[121.400252,31.230391],[121.400243,31.230419],[121.400235,31.230448],[121.400226,31.230473],[121.400218,31.230499],[121.40021,31.230522],[121.400202,31.230549],[121.400193,31.230575],[121.400184,31.230602],[121.400176,31.230628],[121.400167,31.230654],[121.400159,31.230679],[121.400152,31.230703],[121.400144,31.230729],[121.400136,31.230755],[121.400128,31.23078],[121.40012,31.230805],[121.400112,31.230829],[121.400105,31.230853],[121.400097,31.230875],[121.400089,31.230899],[121.400079,31.230926],[121.400066,31.230956],[121.400052,31.230985],[121.400034,31.231009],[121.400013,31.231033],[121.399987,31.231058],[121.399961,31.231084],[121.399936,31.231107],[121.399914,31.231125],[121.399885,31.23114],[121.399854,31.231155],[121.399821,31.231168],[121.399789,31.231177],[121.399756,31.231184],[121.399723,31.231188],[121.399689,31.231188],[121.399657,31.231185],[121.399626,31.23118],[121.399597,31.231172],[121.399567,31.231161],[121.399538,31.231149],[121.399509,31.231134],[121.399478,31.231117],[121.399452,31.231098],[121.399429,31.231077],[121.399412,31.231053],[121.399394,31.231028],[121.39938,31.231004],[121.399367,31.23098],[121.399358,31.230954],[121.39935,31.230927],[121.399345,31.2309],[121.39934,31.230872],[121.399336,31.230843],[121.399334,31.230814],[121.399334,31.230784],[121.399336,31.230754],[121.399339,31.230725],[121.399342,31.230696],[121.399346,31.230667],[121.399351,31.230638],[121.399358,31.230609],[121.399366,31.230581],[121.399375,31.230555],[121.399385,31.230529],[121.399395,31.230503],[121.399405,31.230477],[121.399416,31.230451],[121.399426,31.230425],[121.399436,31.230395],[121.399446,31.230368],[121.399456,31.23034],[121.399464,31.230315],[121.399473,31.230288],[121.399481,31.230261],[121.39949,31.230233],[121.399498,31.230205],[121.399508,31.230174],[121.399517,31.230142],[121.399526,31.230113],[121.399533,31.230086],[121.399542,31.230061],[121.399552,31.230034],[121.399564,31.230009],[121.399577,31.229984],[121.39959,31.229959],[121.399606,31.229934],[121.399623,31.229908],[121.399642,31.229886],[121.399662,31.229866],[121.399684,31.229847],[121.399708,31.22983],[121.399737,31.229814],[121.399766,31.229801],[121.399802,31.229788],[121.399838,31.229777],[121.399877,31.229768],[121.399912,31.229762],[121.399949,31.229758],[121.399983,31.229758],[121.40002,31.229759],[121.400055,31.229762],[121.400091,31.229768],[121.400124,31.229776],[121.400155,31.229788],[121.400184,31.229802],[121.400211,31.229817],[121.400236,31.229834],[121.400257,31.229853],[121.400276,31.229874],[121.400293,31.229897],[121.400308,31.229925],[121.400322,31.229954],[121.400334,31.229982],[121.400343,31.230007],[121.400348,31.230031],[121.400349,31.230055],[121.400344,31.230084],[121.400339,31.230115],[121.400333,31.230148],[121.400326,31.230178],[121.400318,31.230207],[121.400309,31.230235],[121.400301,31.230261],[121.400292,31.230287],[121.400284,31.230311],[121.400275,31.230339],[121.400265,31.230366],[121.400254,31.230399],[121.400244,31.23043],[121.400234,31.230463],[121.400225,31.230494],[121.400215,31.230526],[121.400205,31.230559],[121.400198,31.230591],[121.40019,31.230618],[121.40018,31.230645],[121.400168,31.230673],[121.400155,31.230704],[121.400145,31.230734],[121.400137,31.230762],[121.400128,31.230789],[121.40012,31.230816],[121.400111,31.230843],[121.400102,31.230871],[121.400091,31.230903],[121.400081,31.230936],[121.400071,31.230966],[121.40006,31.230991],[121.400042,31.231013],[121.400021,31.231035],[121.399997,31.231059],[121.399974,31.231082],[121.399951,31.231102],[121.399926,31.231121],[121.3999,31.231137],[121.399872,31.23115],[121.399846,31.231161],[121.399817,31.23117],[121.399787,31.231178],[121.399754,31.231184],[121.399721,31.231187],[121.399685,31.231186],[121.399649,31.231183],[121.399616,31.231177],[121.399589,31.231169],[121.399563,31.231159],[121.399537,31.231147],[121.399511,31.231133],[121.399486,31.231119],[121.399463,31.231104],[121.399444,31.231089],[121.399429,31.23107],[121.399414,31.231047],[121.399397,31.231022],[121.39938,31.230995],[121.399367,31.230968],[121.399358,31.23094],[121.399352,31.230909],[121.399349,31.230876],[121.399345,31.230842],[121.399342,31.23081],[121.39934,31.230779],[121.399344,31.23075],[121.399348,31.230721],[121.399354,31.230694],[121.399361,31.230665],[121.399367,31.230639],[121.399374,31.230612],[121.399381,31.230586],[121.399389,31.230559],[121.399397,31.230533],[121.399406,31.230505],[121.399415,31.230478],[121.399425,31.23045],[121.399434,31.230421],[121.399445,31.23039],[121.399455,31.230359],[121.399463,31.23033],[121.399469,31.230303],[121.399475,31.230277],[121.39948,31.230249],[121.399487,31.230221],[121.399495,31.230192],[121.399503,31.230164],[121.399511,31.230135],[121.39952,31.230106],[121.399529,31.230078],[121.399538,31.230051],[121.399549,31.230024],[121.39956,31.229998],[121.399573,31.229973],[121.399587,31.22995],[121.399607,31.229922],[121.399629,31.229895],[121.399654,31.229869],[121.399678,31.229847],[121.399704,31.229828],[121.399732,31.229811],[121.399761,31.229796],[121.399792,31.229784],[121.399823,31.229773],[121.399854,31.229763],[121.399884,31.229756],[121.399912,31.229753],[121.399943,31.229754],[121.399978,31.229757],[121.400014,31.22976],[121.400052,31.229765],[121.400088,31.229772],[121.400127,31.229782],[121.400162,31.229794],[121.400194,31.229809],[121.400221,31.229826],[121.400245,31.229846],[121.400267,31.229867],[121.400286,31.229892],[121.400302,31.229918],[121.400316,31.229946],[121.400328,31.229974],[121.400337,31.23],[121.400343,31.230026],[121.400342,31.230053],[121.400338,31.230083],[121.400334,31.230115],[121.400329,31.230147],[121.400323,31.230179],[121.400314,31.230213],[121.400305,31.230245],[121.400296,31.230276],[121.400287,31.230304],[121.400279,31.230333],[121.40027,31.230362],[121.400262,31.230392],[121.400254,31.230422],[121.400246,31.230453],[121.400237,31.230484],[121.400228,31.230515],[121.400218,31.230544],[121.40021,31.230572],[121.400202,31.2306],[121.400193,31.230627],[121.400181,31.230653],[121.400167,31.230682],[121.400152,31.230717],[121.400141,31.23075],[121.40013,31.230782],[121.40012,31.230811],[121.400111,31.230841],[121.400102,31.230871],[121.400093,31.2309],[121.400084,31.230929],[121.400075,31.230957],[121.400064,31.230981],[121.40005,31.231003],[121.400035,31.231023],[121.400018,31.231044],[121.399999,31.231063],[121.399975,31.231085],[121.399948,31.231106],[121.39992,31.231125],[121.399888,31.231142],[121.399853,31.231157],[121.399816,31.23117],[121.399782,31.231179],[121.399747,31.231185],[121.399713,31.231188],[121.399679,31.231187],[121.399644,31.231184],[121.399611,31.231179],[121.399581,31.231171],[121.399553,31.23116],[121.399527,31.231147],[121.399502,31.231132],[121.399478,31.231114],[121.399455,31.231094],[121.399434,31.231072],[121.399415,31.231048],[121.399394,31.231018],[121.399375,31.230987],[121.399361,31.230956],[121.399352,31.230928],[121.399347,31.230899],[121.399343,31.230868],[121.39934,31.230837],[121.39934,31.230806],[121.399342,31.230775],[121.399346,31.230746],[121.399352,31.230717],[121.399358,31.230688],[121.399366,31.230659],[121.399374,31.23063],[121.399382,31.2306],[121.399392,31.230568],[121.399402,31.230537],[121.399413,31.230501],[121.399423,31.230469],[121.399433,31.230437],[121.399443,31.230408],[121.399451,31.230381],[121.39946,31.230351],[121.399467,31.230324],[121.399475,31.230294],[121.399482,31.230266],[121.399489,31.230238],[121.399495,31.230212],[121.399502,31.230184],[121.39951,31.230157],[121.399518,31.230127],[121.399527,31.230098],[121.399537,31.230068],[121.399547,31.230039],[121.39956,31.230006],[121.399574,31.229974],[121.39959,31.229942],[121.399607,31.229915],[121.399627,31.22989],[121.399649,31.229866],[121.399673,31.229845],[121.399698,31.229825],[121.399727,31.229808],[121.399756,31.229794],[121.399787,31.229781],[121.399817,31.229771],[121.39985,31.229763],[121.399882,31.229757],[121.399917,31.229753],[121.39995,31.229752],[121.399986,31.229753],[121.400023,31.229756],[121.400061,31.229762],[121.400098,31.22977],[121.400132,31.229779],[121.400162,31.229793],[121.40019,31.229809],[121.400216,31.229827],[121.400238,31.229846],[121.400259,31.229869],[121.400278,31.229893],[121.400295,31.229918],[121.400308,31.229943],[121.400319,31.229969],[121.400329,31.229997],[121.400336,31.230024],[121.40034,31.230055],[121.400337,31.230087],[121.400333,31.230122],[121.400327,31.230155],[121.40032,31.230186],[121.400312,31.230217],[121.400304,31.230245],[121.400296,31.230273],[121.400288,31.230301],[121.40028,31.23033],[121.400271,31.230359],[121.400262,31.230388],[121.400252,31.230418],[121.400242,31.230448],[121.400231,31.230477],[121.40022,31.230504],[121.400208,31.230531],[121.400197,31.23056],[121.400187,31.230586],[121.400178,31.230612],[121.400169,31.230638],[121.400159,31.230664],[121.400151,31.230692],[121.400142,31.230718],[121.400134,31.230745],[121.400127,31.230771],[121.40012,31.230797],[121.400113,31.230823],[121.400106,31.23085],[121.400098,31.230876],[121.400089,31.230904],[121.400078,31.230932],[121.400066,31.230959],[121.400052,31.230984],[121.400034,31.231011],[121.400009,31.231038],[121.399981,31.231065],[121.399948,31.23109],[121.399916,31.231111],[121.399883,31.23113],[121.39985,31.231147],[121.399817,31.231161],[121.399783,31.231172],[121.399747,31.231179],[121.399712,31.231184],[121.399676,31.231185],[121.399644,31.231183],[121.399611,31.231178],[121.399579,31.231171],[121.399548,31.231161],[121.399519,31.231148],[121.399491,31.231132],[121.399461,31.23111],[121.399434,31.231086],[121.399407,31.231061],[121.399387,31.231037],[121.399369,31.231013],[121.399357,31.230988],[121.399347,31.230964],[121.39934,31.230938],[121.399335,31.230913],[121.399332,31.230886],[121.39933,31.230858],[121.39933,31.230829],[121.399331,31.230801],[121.399334,31.230773],[121.399338,31.230746],[121.399342,31.230721],[121.399347,31.230696],[121.399355,31.230665],[121.399363,31.230631],[121.399372,31.230597],[121.399381,31.230565],[121.39939,31.230534],[121.399399,31.230505],[121.399409,31.230478],[121.399418,31.230453],[121.399428,31.230429],[121.399437,31.230405],[121.399446,31.230381],[121.399455,31.230357],[121.399464,31.230333],[121.399472,31.230308],[121.399481,31.230283],[121.399489,31.230256],[121.399497,31.230227],[121.399506,31.230191],[121.399515,31.230156],[121.399524,31.230121],[121.399532,31.230089],[121.399542,31.230058],[121.399553,31.230027],[121.399564,31.229997],[121.399577,31.229968],[121.399591,31.229941],[121.399608,31.229914],[121.399626,31.229889],[121.399647,31.229866],[121.399671,31.229846],[121.399696,31.229828],[121.399724,31.229812],[121.399753,31.229797],[121.399783,31.229784],[121.399819,31.229772],[121.399856,31.229763],[121.399894,31.229757],[121.399929,31.229753],[121.399964,31.229753],[121.399999,31.229755],[121.400033,31.229759],[121.400065,31.229766],[121.400096,31.229774],[121.400127,31.229786],[121.400157,31.2298],[121.400185,31.229817],[121.40021,31.229835],[121.400233,31.229855],[121.400255,31.229878],[121.400277,31.229902],[121.400295,31.229926],[121.400309,31.229955],[121.40032,31.229987],[121.400328,31.230024],[121.400332,31.230057],[121.400332,31.230091],[121.400329,31.230124],[121.400323,31.230156],[121.400316,31.230186],[121.400307,31.230216],[121.400298,31.230245],[121.400288,31.230273],[121.400278,31.2303],[121.400269,31.230329],[121.40026,31.230358],[121.400252,31.230387],[121.400243,31.230415],[121.400233,31.230444],[121.400222,31.230482],[121.40021,31.230519],[121.400197,31.230559],[121.400186,31.230592],[121.400175,31.230624],[121.400166,31.230654],[121.400158,31.230683],[121.400149,31.230713],[121.400141,31.230742],[121.400132,31.230769],[121.400124,31.230796],[121.400115,31.230822],[121.400106,31.230848],[121.400095,31.230874],[121.400082,31.230901],[121.40007,31.230928],[121.40006,31.230952],[121.400044,31.230977],[121.400023,31.231002],[121.399998,31.23103],[121.399972,31.231055],[121.399945,31.231079],[121.399914,31.231102],[121.399883,31.231121],[121.39985,31.231137],[121.399816,31.23115],[121.399781,31.231161],[121.399745,31.231169],[121.399711,31.231174],[121.399676,31.231177],[121.399642,31.231176],[121.399608,31.231173],[121.399577,31.231166],[121.399545,31.231157],[121.399512,31.231144],[121.399478,31.231126],[121.399447,31.231105],[121.399419,31.231083],[121.399395,31.23106],[121.399374,31.231037],[121.399357,31.231012],[121.399345,31.230988],[121.399336,31.230964],[121.39933,31.230939],[121.399325,31.230914],[121.399321,31.230886],[121.399319,31.230857],[121.399319,31.230828],[121.399321,31.230797],[121.399324,31.230768],[121.399329,31.23074],[121.399335,31.230707],[121.399344,31.230672],[121.399353,31.230636],[121.399363,31.230606],[121.399372,31.230577],[121.399381,31.23055],[121.399391,31.230522],[121.399401,31.230495],[121.399412,31.230467],[121.399422,31.230441],[121.399433,31.230412],[121.399443,31.230385],[121.399454,31.230356],[121.399463,31.230329],[121.399472,31.230301],[121.399481,31.230275],[121.39949,31.230247],[121.399499,31.230215],[121.399509,31.230179],[121.399519,31.230143],[121.399529,31.230109],[121.399538,31.230077],[121.399547,31.230047],[121.399558,31.230016],[121.399568,31.229987],[121.39958,31.229959],[121.399593,31.229933],[121.399609,31.229907],[121.399628,31.229882],[121.399649,31.22986],[121.399672,31.22984],[121.399698,31.229822],[121.399726,31.229806],[121.399755,31.22979],[121.399787,31.229775],[121.399822,31.229764],[121.39986,31.229757],[121.399898,31.229753],[121.399935,31.229751],[121.399971,31.229751],[121.400009,31.229754],[121.400045,31.229759],[121.400081,31.229767],[121.400116,31.229779],[121.400151,31.229794],[121.400182,31.229812],[121.400211,31.229832],[121.400237,31.229855],[121.400263,31.229878],[121.400286,31.2299],[121.400304,31.229923],[121.400317,31.229952],[121.400327,31.229987],[121.400335,31.230025],[121.400338,31.23006],[121.400335,31.230097],[121.40033,31.230131],[121.400322,31.230164],[121.400314,31.230192],[121.400305,31.230219],[121.400296,31.230246],[121.400286,31.230273],[121.400277,31.2303],[121.400267,31.230328],[121.400258,31.230357],[121.400249,31.230387],[121.40024,31.230417],[121.400231,31.230448],[121.40022,31.230486],[121.40021,31.230524],[121.400198,31.230563],[121.400188,31.230596],[121.400179,31.230629],[121.400168,31.230662],[121.400157,31.230693],[121.400146,31.230723],[121.400137,31.23075],[121.400126,31.230779],[121.400115,31.230807],[121.400104,31.230834],[121.400093,31.230861],[121.400082,31.230887],[121.400071,31.230913],[121.40006,31.230937],[121.400049,31.230961],[121.40003,31.230991],[121.400007,31.231018],[121.399977,31.231049],[121.399949,31.231073],[121.399918,31.231096],[121.399885,31.231116],[121.39985,31.231133],[121.399815,31.231147],[121.399779,31.231157],[121.399744,31.231166],[121.39971,31.231171],[121.399675,31.231173],[121.39964,31.231173],[121.399605,31.231169],[121.399571,31.231162],[121.399538,31.231152],[121.399506,31.231139],[121.399473,31.231122],[121.399443,31.231101],[121.399414,31.231078],[121.39939,31.231054],[121.399369,31.231029],[121.39935,31.231001],[121.399336,31.230974],[121.399324,31.230947],[121.399315,31.23092],[121.399309,31.230891],[121.399305,31.230862],[121.399303,31.230832],[121.399304,31.2308],[121.399307,31.230769],[121.399312,31.230736],[121.399319,31.230703],[121.399327,31.230671],[121.399337,31.230635],[121.399347,31.230602],[121.399359,31.230567],[121.399369,31.230537],[121.39938,31.230508],[121.39939,31.230481],[121.3994,31.230453],[121.39941,31.230426],[121.39942,31.230397],[121.399429,31.230369],[121.399438,31.230341],[121.399447,31.230313],[121.399455,31.230287],[121.399463,31.23026],[121.399472,31.230233],[121.399481,31.230204],[121.399489,31.230175],[121.399499,31.230141],[121.399509,31.230108],[121.39952,31.230073],[121.399532,31.230041],[121.399543,31.230011],[121.399557,31.229981],[121.399571,31.229953],[121.399587,31.229926],[121.399604,31.229901],[121.399625,31.229878],[121.399647,31.229856],[121.399672,31.229835],[121.399699,31.229816],[121.399729,31.229799],[121.399761,31.229784],[121.399795,31.229771],[121.39983,31.229759],[121.399869,31.22975],[121.399907,31.229744],[121.399947,31.229743],[121.399985,31.229745],[121.400022,31.229749],[121.400056,31.229756],[121.400089,31.229765],[121.400121,31.229777],[121.400151,31.229792],[121.40018,31.22981],[121.400207,31.22983],[121.400232,31.229853],[121.400254,31.229876],[121.400273,31.229901],[121.400289,31.229928],[121.400301,31.229956],[121.400311,31.229986],[121.400317,31.230022],[121.400321,31.230058],[121.40032,31.230095],[121.400317,31.230128],[121.40031,31.230161],[121.400302,31.230195],[121.400292,31.230227],[121.400281,31.230258],[121.400271,31.230286],[121.40026,31.230318],[121.400251,31.23035],[121.400242,31.230384],[121.400233,31.230418],[121.400223,31.230451],[121.400213,31.230486],[121.400202,31.23052],[121.400193,31.230554],[121.400183,31.230591],[121.400173,31.230626],[121.400162,31.230663],[121.400153,31.230695],[121.400143,31.230726],[121.400133,31.230756],[121.400123,31.230785],[121.400113,31.230815],[121.400103,31.230845],[121.400092,31.230875],[121.40008,31.230907],[121.400067,31.230937],[121.400052,31.230967],[121.400035,31.230996],[121.400014,31.231024],[121.399991,31.23105],[121.399966,31.231074],[121.399934,31.231097],[121.399898,31.231118],[121.39986,31.231136],[121.399823,31.231149],[121.399785,31.23116],[121.399748,31.231168],[121.39971,31.231173],[121.399672,31.231175],[121.399634,31.231174],[121.399596,31.23117],[121.39956,31.231162],[121.399525,31.231151],[121.399493,31.231138],[121.399463,31.231121],[121.399435,31.231101],[121.399409,31.231079],[121.399385,31.231054],[121.399362,31.231025],[121.399342,31.230991],[121.399325,31.230958],[121.399314,31.230925],[121.399307,31.230895],[121.399302,31.230864],[121.3993,31.230832],[121.399301,31.2308],[121.399303,31.230766],[121.399308,31.230734],[121.399315,31.230699],[121.399323,31.230665],[121.399333,31.23063],[121.399342,31.230596],[121.399352,31.230563],[121.399363,31.230531],[121.399375,31.2305],[121.399389,31.230465],[121.399403,31.230429],[121.399416,31.230392],[121.399428,31.230361],[121.399439,31.230328],[121.399449,31.230296],[121.39946,31.230263],[121.399469,31.230233],[121.399479,31.230202],[121.399488,31.23017],[121.399497,31.230138],[121.399506,31.230106],[121.399517,31.230074],[121.399529,31.230042],[121.399542,31.230011],[121.399556,31.22998],[121.399571,31.229949],[121.399589,31.229919],[121.399612,31.22989],[121.399641,31.229862],[121.39967,31.229837],[121.399701,31.229814],[121.399733,31.229795],[121.399768,31.229779],[121.399804,31.229764],[121.39984,31.229753],[121.39988,31.229746],[121.39992,31.229742],[121.39996,31.229741],[121.399999,31.229743],[121.400039,31.229748],[121.400077,31.229757],[121.400113,31.229769],[121.400146,31.229783],[121.400179,31.229804],[121.400209,31.229826],[121.400237,31.229854],[121.400257,31.229879],[121.400275,31.229908],[121.400288,31.229936],[121.400299,31.229966],[121.400307,31.229995],[121.400312,31.230026],[121.400314,31.230058],[121.400314,31.230092],[121.40031,31.230126],[121.400305,31.23016],[121.400297,31.230193],[121.400288,31.230224],[121.400278,31.230255],[121.400268,31.230285],[121.400257,31.230319],[121.400246,31.230356],[121.400234,31.230393],[121.400224,31.230428],[121.400214,31.230462],[121.400205,31.230495],[121.400196,31.230529],[121.400187,31.230562],[121.400179,31.230595],[121.40017,31.230627],[121.400161,31.23066],[121.400151,31.230692],[121.400141,31.230725],[121.400131,31.230758],[121.400121,31.230789],[121.400111,31.230821],[121.400101,31.230851],[121.400088,31.230887],[121.400071,31.230922],[121.400051,31.230957],[121.40003,31.230988],[121.400006,31.231017],[121.399981,31.231043],[121.399957,31.231066],[121.399928,31.231087],[121.399896,31.231107],[121.399862,31.231124],[121.399826,31.231138],[121.399788,31.23115],[121.399749,31.23116],[121.399709,31.231167],[121.399669,31.231171],[121.39963,31.231172],[121.399593,31.231168],[121.399553,31.231159],[121.399512,31.231144],[121.399474,31.231126],[121.39944,31.231106],[121.399411,31.231087],[121.399386,31.231066],[121.399365,31.231043],[121.399346,31.231018],[121.399329,31.23099],[121.399314,31.230962],[121.399303,31.230932],[121.399294,31.230901],[121.39929,31.230869],[121.399289,31.230835],[121.39929,31.230803],[121.399294,31.230771],[121.399299,31.23074],[121.399307,31.230701],[121.399317,31.230661],[121.399328,31.23062],[121.399338,31.230584],[121.399348,31.230551],[121.399359,31.230517],[121.399371,31.230485],[121.399384,31.230452],[121.399397,31.230419],[121.399409,31.230386],[121.39942,31.230353],[121.39943,31.230321],[121.399439,31.230289],[121.399447,31.230258],[121.399456,31.230227],[121.399466,31.230195],[121.399477,31.230162],[121.399485,31.230127],[121.399497,31.230092],[121.399508,31.230058],[121.399524,31.230026],[121.399537,31.229994],[121.399551,31.229963],[121.399568,31.229934],[121.399587,31.229907],[121.39961,31.22988],[121.399637,31.229854],[121.399666,31.22983],[121.399696,31.229809],[121.399728,31.22979],[121.399761,31.229775],[121.399796,31.229761],[121.399832,31.229751],[121.399869,31.229744],[121.399913,31.22974],[121.399956,31.229739],[121.4,31.229741],[121.400039,31.229747],[121.400077,31.229757],[121.400112,31.229769],[121.400146,31.229785],[121.400177,31.229804],[121.400207,31.229825],[121.400233,31.22985],[121.400257,31.229876],[121.400277,31.229904],[121.400293,31.229933],[121.400305,31.229962],[121.400313,31.22999],[121.400319,31.23002],[121.40032,31.23005],[121.400318,31.230086],[121.400312,31.230122],[121.400303,31.230159],[121.400294,31.230194],[121.400284,31.230228],[121.400274,31.23026],[121.400264,31.230292],[121.400254,31.230325],[121.400244,31.230358],[121.400234,31.230392],[121.400224,31.230427],[121.400214,31.230461],[121.400202,31.230495],[121.400188,31.230529],[121.400174,31.230561],[121.400162,31.230592],[121.400151,31.230623],[121.400139,31.230659],[121.400129,31.230695],[121.400118,31.230733],[121.400109,31.230766],[121.4001,31.2308],[121.400092,31.230833],[121.400083,31.230865],[121.400072,31.230897],[121.400058,31.230928],[121.400041,31.230958],[121.400021,31.230987],[121.4,31.231015],[121.399976,31.231041],[121.399951,31.231064],[121.399923,31.231087],[121.399893,31.231108],[121.399861,31.231126],[121.399823,31.231144],[121.399782,31.231159],[121.399739,31.23117],[121.399699,31.231176],[121.399659,31.231179],[121.39962,31.231178],[121.399583,31.231173],[121.399548,31.231163],[121.399515,31.231152],[121.399486,31.231138],[121.399459,31.231122],[121.399433,31.231104],[121.399408,31.231083],[121.399385,31.231062],[121.399365,31.231038],[121.399347,31.231013],[121.399332,31.230984],[121.399319,31.23095],[121.399309,31.230911],[121.399304,31.230871],[121.399303,31.230834],[121.399306,31.2308],[121.39931,31.230767],[121.399315,31.230735],[121.399323,31.230702],[121.399332,31.23067],[121.399342,31.230638],[121.399351,31.230606],[121.39936,31.230574],[121.399369,31.230544],[121.399378,31.230512],[121.399389,31.230481],[121.3994,31.230448],[121.399412,31.230415],[121.399425,31.230376],[121.399438,31.230335],[121.399451,31.230294],[121.399462,31.230258],[121.399472,31.230223],[121.399483,31.23019],[121.399493,31.230157],[121.399503,31.230125],[121.399513,31.230092],[121.399524,31.230059],[121.399536,31.230027],[121.399549,31.229997],[121.399563,31.229968],[121.39958,31.229939],[121.399598,31.229912],[121.39962,31.229885],[121.399643,31.22986],[121.399677,31.229834],[121.399714,31.22981],[121.399756,31.229788],[121.399794,31.229772],[121.399833,31.22976],[121.399873,31.229752],[121.399913,31.229749],[121.399953,31.229749],[121.399992,31.229752],[121.400029,31.229758],[121.400065,31.229767],[121.4001,31.229779],[121.400133,31.229794],[121.400164,31.229812],[121.400193,31.229833],[121.40022,31.229856],[121.400245,31.229881],[121.400267,31.229914],[121.400286,31.229948],[121.4003,31.229984],[121.40031,31.230017],[121.400314,31.230053],[121.400314,31.230091],[121.400309,31.230129],[121.400302,31.230166],[121.400292,31.230202],[121.400282,31.230235],[121.400272,31.230271],[121.400263,31.230307],[121.400253,31.230345],[121.400244,31.230382],[121.400234,31.230419],[121.400223,31.230457],[121.400208,31.230493],[121.40019,31.230533],[121.400171,31.230575],[121.400156,31.230617],[121.400144,31.230656],[121.400132,31.230694],[121.400119,31.230731],[121.400108,31.230767],[121.400096,31.230802],[121.400086,31.230837],[121.400075,31.23087],[121.400064,31.230904],[121.400051,31.230937],[121.400036,31.23097],[121.40002,31.231],[121.400004,31.231029],[121.399982,31.231056],[121.399957,31.231078],[121.399925,31.231101],[121.399892,31.231121],[121.399856,31.231141],[121.399816,31.231156],[121.399774,31.231169],[121.399732,31.231176],[121.399693,31.231179],[121.399655,31.231178],[121.399617,31.231172],[121.399579,31.231163],[121.399543,31.23115],[121.399508,31.231135],[121.399476,31.231117],[121.399446,31.231097],[121.399419,31.231075],[121.399395,31.23105],[121.399373,31.231022],[121.399354,31.230986],[121.399339,31.230947],[121.399327,31.230905],[121.399322,31.230865],[121.39932,31.230827],[121.399322,31.230789],[121.399327,31.230753],[121.399334,31.230716],[121.399342,31.230681],[121.399352,31.230645],[121.399361,31.23061],[121.399371,31.230577],[121.39938,31.230544],[121.399391,31.230512],[121.399402,31.230481],[121.399414,31.230448],[121.399427,31.230415],[121.399441,31.230372],[121.399454,31.230328],[121.399467,31.230285],[121.399479,31.230246],[121.39949,31.23021],[121.399501,31.230173],[121.399512,31.230139],[121.399522,31.230103],[121.399532,31.230068],[121.399542,31.23003],[121.399552,31.229991],[121.399562,31.229953],[121.399573,31.229916],[121.399583,31.229883],[121.399594,31.229851],[121.399607,31.22982],[121.399627,31.229786],[121.399639,31.22977],[121.399649,31.229757]]}}]}