{"type":"FeatureCollection","features":[{"type":"Feature","properties":{"id":"2026-03-03_running_19","type":"running","date":"2026-03-03"},"geometry":{"type":"LineString","coordinates":[[121.39959,31.22999],[121.3996,31.229953],[121.399604,31.229942],[121.399614,31.229919],[121.399628,31.229895],[121.399648,31.229866],[121.399673,31.229836],[121.399708,31.229801],[121.399745,31.229771],[121.399784,31.229747],[121.39982,31.229735],[121.399855,31.229728],[121.399891,31.229724],[121.399925,31.229723],[121.39996,31.229724],[121.399992,31.229728],[121.400024,31.229734],[121.400052,31.229742],[121.400083,31.229753],[121.400112,31.229767],[121.400142,31.229785],[121.400169,31.229805],[121.400197,31.22983],[121.400227,31.22986],[121.400258,31.229892],[121.400285,31.229923],[121.400305,31.229952],[121.40032,31.22998],[121.400333,31.230013],[121.400341,31.230047],[121.400343,31.230078],[121.400341,31.230107],[121.400335,31.230131],[121.400329,31.230157],[121.400322,31.230183],[121.400316,31.23021],[121.400308,31.230237],[121.400301,31.230264],[121.400293,31.230294],[121.400284,31.230326],[121.400273,31.230362],[121.400263,31.230397],[121.400253,31.230431],[121.400244,31.23046],[121.400235,31.230489],[121.400226,31.230517],[121.400217,31.230545],[121.400208,31.230571],[121.4002,31.230598],[121.400191,31.230625],[121.400183,31.230652],[121.400174,31.230678],[121.400166,31.230704],[121.400159,31.230727],[121.400152,31.230751],[121.400144,31.230776],[121.400136,31.2308],[121.400128,31.230824],[121.40012,31.230847],[121.40011,31.230872],[121.4001,31.230895],[121.400088,31.230921],[121.400072,31.230949],[121.40005,31.230982],[121.400023,31.231018],[121.399996,31.231047],[121.399966,31.231072],[121.399939,31.231088],[121.399911,31.231101],[121.399883,31.23111],[121.399851,31.231117],[121.399819,31.231121],[121.399783,31.231122],[121.399748,31.231122],[121.399704,31.23112],[121.399661,31.231116],[121.399619,31.23111],[121.399586,31.231103],[121.399554,31.231093],[121.399528,31.231081],[121.399502,31.231067],[121.399478,31.231052],[121.399454,31.231036],[121.399431,31.231019],[121.399411,31.231002],[121.399398,31.230982],[121.399388,31.230957],[121.399379,31.230928],[121.399371,31.230897],[121.399366,31.230864],[121.399363,31.23083],[121.399361,31.23079],[121.399361,31.230748],[121.399364,31.230711],[121.399368,31.230681],[121.399373,31.230655],[121.399379,31.230628],[121.399385,31.2306],[121.399391,31.230573],[121.399397,31.230546],[121.399404,31.230519],[121.399409,31.230495],[121.399416,31.230466],[121.399424,31.230437],[121.399431,31.230409],[121.399439,31.230382],[121.399447,31.230352],[121.399457,31.230321],[121.399468,31.230287],[121.39948,31.230254],[121.39949,31.230222],[121.399499,31.230196],[121.399508,31.230173],[121.399516,31.230148],[121.399525,31.230121],[121.399534,31.230095],[121.399542,31.230069],[121.39955,31.230046],[121.399559,31.230021],[121.399568,31.229997],[121.399579,31.229972],[121.399593,31.229947],[121.39961,31.229918],[121.399631,31.229889],[121.399653,31.229862],[121.39968,31.229833],[121.399709,31.229807],[121.39974,31.229786],[121.399767,31.229773],[121.399795,31.229764],[121.399824,31.229757],[121.399857,31.229751],[121.399893,31.229746],[121.39993,31.229745],[121.399968,31.229748],[121.400005,31.229754],[121.400039,31.229763],[121.400073,31.229777],[121.400108,31.229795],[121.400141,31.229817],[121.400171,31.229841],[121.400204,31.229872],[121.400234,31.229904],[121.400263,31.229936],[121.400285,31.229965],[121.400303,31.229994],[121.400318,31.230025],[121.400324,31.230056],[121.400327,31.230084],[121.400323,31.230112],[121.400321,31.230136],[121.400317,31.230162],[121.400314,31.230185],[121.400309,31.230211],[121.400304,31.230238],[121.400298,31.230265],[121.400291,31.230294],[121.400284,31.230323],[121.400276,31.230356],[121.400268,31.230388],[121.400259,31.230419],[121.400252,31.230446],[121.400244,31.230472],[121.400236,31.230498],[121.400228,31.230524],[121.400221,31.230548],[121.400213,31.230572],[121.400205,31.230597],[121.400197,31.230625],[121.400188,31.230653],[121.40018,31.230681],[121.400171,31.230708],[121.400163,31.230733],[121.400153,31.23076],[121.400144,31.230786],[121.400132,31.230821],[121.400119,31.230854],[121.400103,31.230891],[121.400085,31.230923],[121.400063,31.230959],[121.40004,31.23099],[121.400014,31.23102],[121.399988,31.231044],[121.399959,31.231065],[121.399928,31.231082],[121.399895,31.231095],[121.399863,31.231104],[121.399827,31.231112],[121.399788,31.231117],[121.399747,31.231119],[121.399706,31.231118],[121.399666,31.231114],[121.399622,31.231107],[121.399586,31.231098],[121.399553,31.231085],[121.399529,31.23107],[121.399503,31.231051],[121.399476,31.231031],[121.39945,31.231009],[121.399426,31.230987],[121.399406,31.230964],[121.39939,31.230938],[121.399379,31.230908],[121.399371,31.230876],[121.399367,31.230846],[121.399368,31.230817],[121.399369,31.23079],[121.399371,31.230761],[121.399373,31.230731],[121.399377,31.230697],[121.399382,31.230665],[121.399387,31.230632],[121.399393,31.230604],[121.399399,31.230575],[121.399406,31.230546],[121.399413,31.230516],[121.39942,31.230486],[121.399427,31.230458],[121.399435,31.230426],[121.399443,31.230394],[121.399451,31.230362],[121.399459,31.230331],[121.399466,31.230302],[121.399475,31.230273],[121.399483,31.230245],[121.399494,31.230215],[121.399505,31.230177],[121.399517,31.230142],[121.399527,31.230108],[121.399537,31.23008],[121.399546,31.230053],[121.399557,31.230025],[121.399568,31.23],[121.399583,31.229969],[121.399602,31.229937],[121.399623,31.229905],[121.399645,31.229879],[121.39967,31.229854],[121.399697,31.229831],[121.399726,31.22981],[121.399755,31.229792],[121.39979,31.229778],[121.399826,31.229766],[121.399869,31.229757],[121.399911,31.229751],[121.399954,31.229749],[121.399991,31.229753],[121.400027,31.22976],[121.400062,31.22977],[121.400093,31.229783],[121.400124,31.2298],[121.400151,31.229818],[121.400178,31.229838],[121.400204,31.22986],[121.400228,31.229883],[121.40025,31.229908],[121.400269,31.229932],[121.400288,31.229958],[121.400304,31.229986],[121.400318,31.230015],[121.400328,31.230048],[121.400334,31.23008],[121.400335,31.23011],[121.400333,31.230136],[121.400329,31.230162],[121.400324,31.230189],[121.400319,31.230218],[121.400312,31.230247],[121.400305,31.230275],[121.400297,31.230303],[121.40029,31.230331],[121.400282,31.230359],[121.400274,31.230388],[121.400266,31.230417],[121.400258,31.230447],[121.40025,31.230477],[121.400241,31.230505],[121.400231,31.230538],[121.400221,31.23057],[121.400211,31.230603],[121.400203,31.230631],[121.400194,31.230659],[121.400185,31.230687],[121.400176,31.230713],[121.400167,31.23074],[121.400158,31.230767],[121.400149,31.230794],[121.40014,31.230823],[121.40013,31.230852],[121.400118,31.230881],[121.400104,31.23091],[121.400087,31.230938],[121.400067,31.230969],[121.400044,31.230996],[121.400016,31.231026],[121.399986,31.231052],[121.399954,31.231074],[121.399922,31.231089],[121.399888,31.231102],[121.399852,31.231111],[121.399814,31.231118],[121.399775,31.231121],[121.399735,31.231123],[121.399696,31.231122],[121.399659,31.231119],[121.399622,31.231114],[121.399588,31.231105],[121.399556,31.231093],[121.399526,31.231076],[121.399496,31.231058],[121.399468,31.231038],[121.399442,31.231015],[121.399418,31.230989],[121.399399,31.230962],[121.399384,31.230935],[121.399373,31.230906],[121.399365,31.230874],[121.399359,31.230838],[121.399354,31.230803],[121.399352,31.230771],[121.399353,31.230741],[121.399357,31.23071],[121.39936,31.230681],[121.399366,31.230651],[121.399373,31.230621],[121.399381,31.23059],[121.399389,31.230559],[121.399397,31.230527],[121.399407,31.230493],[121.399417,31.230458],[121.399427,31.230424],[121.399436,31.230393],[121.399444,31.230363],[121.399453,31.230332],[121.399462,31.230301],[121.399472,31.230269],[121.399483,31.230238],[121.399493,31.230207],[121.399504,31.230176],[121.399515,31.230145],[121.399526,31.230116],[121.399536,31.230088],[121.399546,31.23006],[121.399559,31.230031],[121.399571,31.230001],[121.399586,31.22997],[121.399601,31.22994],[121.399618,31.229909],[121.399638,31.22988],[121.39966,31.229854],[121.399686,31.22983],[121.399714,31.229809],[121.399744,31.229792],[121.399775,31.229777],[121.399808,31.229766],[121.399842,31.229757],[121.399877,31.229751],[121.399912,31.229747],[121.399949,31.229746],[121.399987,31.229749],[121.400024,31.229755],[121.400065,31.229767],[121.400104,31.229783],[121.400144,31.229804],[121.400177,31.229825],[121.400208,31.229848],[121.400234,31.229871],[121.40026,31.229898],[121.400283,31.229925],[121.400305,31.229953],[121.400323,31.229983],[121.400337,31.230014],[121.400347,31.230044],[121.400352,31.230072],[121.400354,31.2301],[121.400354,31.230127],[121.400351,31.230155],[121.400346,31.230182],[121.40034,31.230209],[121.400332,31.230235],[121.400324,31.230261],[121.400315,31.230289],[121.400307,31.230315],[121.400298,31.230341],[121.400289,31.230367],[121.400279,31.230395],[121.400269,31.230422],[121.400259,31.230449],[121.40025,31.230474],[121.400242,31.230497],[121.400234,31.230522],[121.400226,31.230546],[121.400218,31.230571],[121.40021,31.230598],[121.400202,31.230625],[121.400193,31.230652],[121.400184,31.230682],[121.400175,31.230712],[121.400165,31.230745],[121.400157,31.230774],[121.400148,31.230803],[121.400139,31.23083],[121.400128,31.23086],[121.400114,31.23089],[121.400099,31.23092],[121.400082,31.230948],[121.400063,31.230976],[121.40004,31.231005],[121.400015,31.231032],[121.399988,31.231055],[121.399961,31.231073],[121.39993,31.231089],[121.399896,31.231101],[121.399854,31.231112],[121.399811,31.231121],[121.399766,31.231129],[121.39973,31.231133],[121.399693,31.231133],[121.399656,31.231129],[121.39962,31.231123],[121.399585,31.231113],[121.399552,31.231101],[121.39952,31.231087],[121.399489,31.23107],[121.399463,31.23105],[121.399439,31.231027],[121.399417,31.231003],[121.399398,31.230979],[121.399381,31.230953],[121.399367,31.230918],[121.399356,31.230879],[121.39935,31.230838],[121.399349,31.230802],[121.39935,31.23077],[121.399354,31.23074],[121.399358,31.23071],[121.399363,31.230679],[121.399369,31.230652],[121.399376,31.230621],[121.399383,31.230591],[121.399391,31.230559],[121.399399,31.23053],[121.399406,31.230501],[121.399415,31.23047],[121.399423,31.230439],[121.399432,31.230408],[121.399441,31.230376],[121.399451,31.230341],[121.399463,31.230302],[121.399475,31.230266],[121.399486,31.230233],[121.399496,31.230202],[121.399506,31.230173],[121.399516,31.230144],[121.399526,31.230116],[121.399535,31.230089],[121.399544,31.230063],[121.399552,31.230038],[121.399563,31.230009],[121.399576,31.229976],[121.399591,31.229943],[121.399606,31.229913],[121.399623,31.229886],[121.399642,31.229861],[121.399667,31.229836],[121.399697,31.229812],[121.399731,31.229792],[121.399765,31.229776],[121.3998,31.229764],[121.399836,31.229755],[121.399872,31.22975],[121.399909,31.229746],[121.399946,31.229746],[121.39998,31.229748],[121.400015,31.229753],[121.400046,31.22976],[121.400079,31.229771],[121.400112,31.229786],[121.400143,31.229803],[121.400171,31.229822],[121.400198,31.229843],[121.400226,31.229867],[121.400252,31.229894],[121.400277,31.229923],[121.400298,31.229952],[121.400317,31.229985],[121.40033,31.230019],[121.400338,31.230051],[121.40034,31.23008],[121.400341,31.230106],[121.400339,31.230131],[121.400337,31.230155],[121.400333,31.230179],[121.400327,31.230207],[121.400321,31.230235],[121.400314,31.230263],[121.400306,31.230291],[121.400298,31.23032],[121.400288,31.230355],[121.400278,31.230389],[121.400267,31.230423],[121.400258,31.230453],[121.400248,31.230483],[121.400239,31.230512],[121.400229,31.230541],[121.400219,31.23057],[121.400209,31.2306],[121.4002,31.230627],[121.400192,31.230653],[121.400183,31.230678],[121.400174,31.230706],[121.400165,31.230734],[121.400156,31.230761],[121.400147,31.230788],[121.400139,31.230814],[121.400125,31.230851],[121.400109,31.230888],[121.400088,31.23093],[121.400066,31.230965],[121.400041,31.231],[121.400013,31.231032],[121.399986,31.23106],[121.399955,31.231083],[121.39992,31.231101],[121.399882,31.231116],[121.399844,31.231128],[121.399807,31.231136],[121.399766,31.231142],[121.399727,31.231146],[121.399688,31.231147],[121.39965,31.231143],[121.399613,31.231135],[121.399568,31.23112],[121.399524,31.231103],[121.399482,31.231084],[121.39945,31.231066],[121.399425,31.231044],[121.399405,31.231019],[121.399389,31.230991],[121.399373,31.230961],[121.399357,31.230928],[121.399345,31.230895],[121.39934,31.23086],[121.39934,31.230824],[121.399342,31.230786],[121.399347,31.230748],[121.399354,31.23071],[121.399362,31.230672],[121.39937,31.230636],[121.39938,31.230595],[121.399391,31.23055],[121.399401,31.230507],[121.39941,31.230469],[121.39942,31.230434],[121.39943,31.2304],[121.39944,31.230366],[121.399449,31.230333],[121.39946,31.230298],[121.399471,31.230264],[121.399483,31.23023],[121.399494,31.230199],[121.399505,31.230167],[121.399515,31.230136],[121.399525,31.230103],[121.399534,31.230074],[121.399543,31.230044],[121.399556,31.230009],[121.399572,31.229974],[121.39959,31.229938],[121.399606,31.229909],[121.399624,31.229881],[121.399643,31.229856],[121.399666,31.229834],[121.399691,31.229814],[121.399718,31.229798],[121.399747,31.229783],[121.399776,31.229771],[121.399807,31.229761],[121.399839,31.229753],[121.399874,31.229747],[121.399911,31.229743],[121.399949,31.229744],[121.399987,31.229748],[121.400032,31.229758],[121.400072,31.229773],[121.400112,31.229791],[121.400144,31.229811],[121.400174,31.229832],[121.4002,31.229854],[121.400225,31.229878],[121.400248,31.229904],[121.400271,31.229932],[121.400289,31.22996],[121.400305,31.22999],[121.400317,31.230017],[121.400325,31.230045],[121.400329,31.23007],[121.40033,31.230098],[121.400328,31.230123],[121.400323,31.230151],[121.400315,31.230185],[121.400305,31.230221],[121.400293,31.230257],[121.400284,31.230289],[121.400274,31.23032],[121.400265,31.23035],[121.400256,31.23038],[121.400247,31.23041],[121.400239,31.230441],[121.400231,31.23047],[121.400222,31.230499],[121.400212,31.230528],[121.400201,31.230556],[121.400192,31.230585],[121.400183,31.230613],[121.400174,31.23064],[121.400165,31.230667],[121.400154,31.230698],[121.400142,31.23073],[121.40013,31.230762],[121.400118,31.230792],[121.400107,31.230823],[121.400094,31.230855],[121.400079,31.230888],[121.400062,31.230921],[121.400043,31.230955],[121.400021,31.230991],[121.399997,31.23103],[121.399963,31.231061],[121.399925,31.231085],[121.399883,31.231099],[121.399846,31.231111],[121.399807,31.231119],[121.399764,31.231127],[121.399722,31.231134],[121.399681,31.231136],[121.399646,31.231132],[121.39961,31.231124],[121.399574,31.231115],[121.399539,31.231104],[121.399506,31.231093],[121.399475,31.231079],[121.399447,31.231062],[121.399421,31.231043],[121.399398,31.231021],[121.399377,31.230996],[121.399357,31.230967],[121.399337,31.230936],[121.399321,31.230906],[121.399312,31.230876],[121.399309,31.230836],[121.399308,31.230796],[121.399308,31.230758],[121.399314,31.230726],[121.399323,31.230692],[121.399333,31.230659],[121.399342,31.230627],[121.399352,31.230595],[121.399364,31.230563],[121.399375,31.23053],[121.399387,31.230498],[121.399397,31.230466],[121.399406,31.230435],[121.399416,31.230405],[121.399424,31.230378],[121.399432,31.230349],[121.399438,31.230322],[121.399445,31.230286],[121.399453,31.230251],[121.39946,31.230214],[121.399466,31.230183],[121.399472,31.230153],[121.399476,31.230125],[121.399481,31.230097],[121.399485,31.230072],[121.399488,31.230059],[121.399489,31.230051]]}}]}