{"type":"FeatureCollection","features":[{"type":"Feature","properties":{"id":"2026-05-30_running_42","type":"running","date":"2026-05-30"},"geometry":{"type":"LineString","coordinates":[[121.399529,31.230012],[121.399545,31.229977],[121.399557,31.229952],[121.399566,31.229934],[121.399577,31.229915],[121.399591,31.229895],[121.399607,31.229874],[121.399631,31.229851],[121.399657,31.229827],[121.39968,31.229807],[121.399706,31.229787],[121.399735,31.229772],[121.399762,31.229762],[121.399791,31.229754],[121.399821,31.229747],[121.399854,31.229741],[121.399886,31.229737],[121.399917,31.229734],[121.399956,31.229732],[121.399993,31.229733],[121.400025,31.229736],[121.400056,31.229741],[121.400087,31.22975],[121.400121,31.229764],[121.400159,31.229784],[121.400191,31.229807],[121.400216,31.229827],[121.400238,31.229847],[121.40026,31.229869],[121.400281,31.229893],[121.400298,31.229918],[121.400311,31.229941],[121.400323,31.229968],[121.400332,31.229995],[121.400338,31.23002],[121.400341,31.230046],[121.400342,31.230072],[121.400341,31.230103],[121.400337,31.230135],[121.400332,31.230167],[121.400323,31.230203],[121.400311,31.230246],[121.4003,31.23029],[121.400293,31.230317],[121.400286,31.230337],[121.400276,31.230365],[121.400267,31.230391],[121.400259,31.230415],[121.40025,31.230443],[121.40024,31.23047],[121.400232,31.230493],[121.400223,31.230516],[121.400213,31.230545],[121.400203,31.230572],[121.400196,31.230594],[121.400188,31.230617],[121.400179,31.230642],[121.400167,31.230675],[121.400153,31.230714],[121.400141,31.230749],[121.400133,31.230772],[121.400124,31.230796],[121.400114,31.230823],[121.400104,31.230848],[121.400092,31.230877],[121.400081,31.230903],[121.400071,31.230924],[121.400061,31.230946],[121.400048,31.230972],[121.400036,31.230995],[121.400024,31.231014],[121.400009,31.231038],[121.399987,31.231061],[121.39996,31.231082],[121.39993,31.231101],[121.3999,31.231117],[121.399865,31.231134],[121.399827,31.231148],[121.399782,31.231161],[121.399737,31.231172],[121.399706,31.231177],[121.399682,31.231173],[121.399654,31.231162],[121.399623,31.231151],[121.399593,31.231144],[121.39956,31.231135],[121.399529,31.231124],[121.399501,31.231111],[121.399475,31.231095],[121.399449,31.231077],[121.399424,31.231058],[121.3994,31.231036],[121.39938,31.231015],[121.399366,31.230996],[121.399354,31.230975],[121.399341,31.230949],[121.399332,31.230924],[121.399327,31.230899],[121.399323,31.230872],[121.39932,31.23084],[121.399319,31.23081],[121.399321,31.230781],[121.399325,31.23075],[121.399332,31.230719],[121.399339,31.230688],[121.399346,31.230658],[121.399356,31.230626],[121.399366,31.230598],[121.399373,31.230576],[121.399375,31.230552],[121.399379,31.230523],[121.399386,31.230493],[121.399394,31.230464],[121.399403,31.230437],[121.399412,31.230412],[121.399422,31.230383],[121.39943,31.230355],[121.399436,31.23033],[121.39944,31.230306],[121.399446,31.230279],[121.399453,31.230252],[121.399462,31.230225],[121.39947,31.230192],[121.399474,31.230163],[121.399482,31.230142],[121.399497,31.230117],[121.399512,31.230087],[121.399522,31.230058],[121.399532,31.230029],[121.399543,31.229999],[121.399553,31.229973],[121.399563,31.229949],[121.399576,31.229922],[121.39959,31.229896],[121.399609,31.229868],[121.39963,31.229844],[121.399654,31.229825],[121.399681,31.229805],[121.39971,31.229787],[121.399739,31.229773],[121.39977,31.229762],[121.3998,31.229753],[121.399833,31.229745],[121.39987,31.229739],[121.399905,31.229736],[121.399942,31.229734],[121.399977,31.229734],[121.400013,31.229737],[121.400047,31.229743],[121.400081,31.229753],[121.400116,31.229766],[121.400148,31.229782],[121.40018,31.2298],[121.400208,31.22982],[121.400234,31.229843],[121.400258,31.229868],[121.400279,31.229892],[121.400297,31.229919],[121.400311,31.229945],[121.400322,31.229971],[121.400332,31.230001],[121.400338,31.230029],[121.400341,31.230056],[121.400341,31.230083],[121.400336,31.230113],[121.40033,31.230145],[121.400322,31.230178],[121.400312,31.230212],[121.400302,31.230245],[121.400295,31.230276],[121.400288,31.230309],[121.400277,31.230341],[121.400269,31.230365],[121.400261,31.230388],[121.400252,31.230416],[121.400243,31.230444],[121.400235,31.230469],[121.400225,31.230498],[121.400216,31.230527],[121.400208,31.230553],[121.400198,31.230584],[121.400189,31.230614],[121.400181,31.230641],[121.400171,31.230672],[121.400161,31.230704],[121.40015,31.230734],[121.400141,31.230764],[121.400133,31.230788],[121.400125,31.230812],[121.400116,31.230837],[121.400105,31.230864],[121.400094,31.23089],[121.400084,31.230912],[121.400071,31.230939],[121.400058,31.230963],[121.400046,31.230984],[121.400032,31.231005],[121.400016,31.231031],[121.399999,31.231055],[121.399978,31.231077],[121.399939,31.231103],[121.399897,31.231128],[121.399866,31.231142],[121.399833,31.23115],[121.399795,31.231156],[121.399755,31.23116],[121.399719,31.231163],[121.399687,31.231162],[121.399654,31.231158],[121.399619,31.231152],[121.399586,31.231144],[121.399556,31.231136],[121.399524,31.231124],[121.399494,31.23111],[121.399467,31.231093],[121.39944,31.231074],[121.399416,31.231051],[121.399395,31.231027],[121.399377,31.231003],[121.399359,31.230976],[121.399344,31.230949],[121.399333,31.23092],[121.399327,31.230892],[121.399323,31.230866],[121.399321,31.230839],[121.39932,31.230811],[121.399321,31.230781],[121.399325,31.230748],[121.399331,31.230717],[121.399338,31.230686],[121.39935,31.230653],[121.399362,31.230623],[121.39937,31.230601],[121.399372,31.230576],[121.399375,31.230546],[121.399385,31.230515],[121.399397,31.230476],[121.39941,31.230439],[121.39942,31.230411],[121.399428,31.230382],[121.399435,31.230351],[121.399443,31.230316],[121.399451,31.23028],[121.399459,31.230249],[121.399469,31.230216],[121.399477,31.230183],[121.399485,31.230152],[121.399496,31.230122],[121.399507,31.230093],[121.399517,31.230064],[121.399527,31.230035],[121.399537,31.230007],[121.399548,31.229976],[121.39956,31.229946],[121.399572,31.229919],[121.399584,31.229892],[121.3996,31.22987],[121.399622,31.229849],[121.399649,31.229826],[121.399676,31.229805],[121.399701,31.229789],[121.399733,31.229775],[121.399765,31.229762],[121.399794,31.229753],[121.399827,31.229744],[121.399861,31.229737],[121.399892,31.229733],[121.399925,31.229732],[121.399956,31.229732],[121.399984,31.229734],[121.400013,31.229738],[121.400046,31.229744],[121.400079,31.229754],[121.400111,31.229767],[121.400141,31.229782],[121.400168,31.229797],[121.400194,31.229817],[121.400218,31.229837],[121.400238,31.229857],[121.400258,31.229878],[121.400279,31.229902],[121.400296,31.229928],[121.400308,31.229953],[121.400318,31.229979],[121.400325,31.230008],[121.400329,31.230037],[121.40033,31.230069],[121.400329,31.230103],[121.400325,31.230136],[121.400317,31.230178],[121.400309,31.230218],[121.4003,31.230252],[121.40029,31.230287],[121.400281,31.230325],[121.40027,31.23036],[121.400262,31.230386],[121.400255,31.23041],[121.400246,31.230438],[121.400238,31.230465],[121.400231,31.230488],[121.400225,31.23051],[121.400218,31.230535],[121.400208,31.230565],[121.400199,31.230595],[121.400192,31.230618],[121.400185,31.230642],[121.400177,31.23067],[121.400167,31.230701],[121.400157,31.230731],[121.400149,31.230756],[121.400139,31.230783],[121.400128,31.230814],[121.400117,31.230843],[121.400106,31.230868],[121.400093,31.230897],[121.400082,31.230919],[121.400073,31.230936],[121.400061,31.230957],[121.400047,31.230978],[121.400033,31.231001],[121.400016,31.231027],[121.399999,31.231051],[121.399979,31.231071],[121.399943,31.231097],[121.399904,31.231121],[121.399873,31.231133],[121.399837,31.231142],[121.399799,31.23115],[121.399765,31.231158],[121.399732,31.231161],[121.3997,31.231161],[121.399673,31.231158],[121.399643,31.231154],[121.399613,31.231148],[121.399585,31.231141],[121.399553,31.231132],[121.399523,31.231121],[121.399495,31.231107],[121.399465,31.231089],[121.399439,31.23107],[121.399418,31.231049],[121.399397,31.231024],[121.399379,31.230999],[121.399363,31.230974],[121.399347,31.230948],[121.399336,31.23092],[121.399331,31.230894],[121.399327,31.230869],[121.399326,31.230842],[121.399327,31.230814],[121.399332,31.230783],[121.39934,31.230752],[121.399348,31.230727],[121.399353,31.230703],[121.399355,31.230677],[121.39936,31.230649],[121.399369,31.230622],[121.399378,31.230594],[121.399384,31.230566],[121.399389,31.230539],[121.399395,31.230508],[121.399401,31.230476],[121.399406,31.230448],[121.399409,31.23042],[121.399414,31.230389],[121.399422,31.230361],[121.399428,31.230332],[121.399436,31.230304],[121.399445,31.230278],[121.399454,31.230248],[121.399464,31.230218],[121.399474,31.230189],[121.399484,31.230159],[121.399496,31.23013],[121.399507,31.230102],[121.399518,31.230071],[121.39953,31.230041],[121.399542,31.230012],[121.399553,31.229982],[121.399566,31.229952],[121.39958,31.229925],[121.399594,31.229901],[121.399613,31.229874],[121.399634,31.229849],[121.399653,31.229825],[121.399671,31.229805],[121.399694,31.229794],[121.399726,31.229781],[121.39976,31.229766],[121.399789,31.229754],[121.39982,31.229743],[121.399854,31.229736],[121.399886,31.229732],[121.399917,31.22973],[121.399951,31.229729],[121.399983,31.229729],[121.400014,31.229733],[121.400048,31.229741],[121.400081,31.229751],[121.400111,31.229762],[121.400144,31.229778],[121.400174,31.229795],[121.400201,31.229812],[121.400228,31.229832],[121.400251,31.229853],[121.400271,31.229873],[121.400291,31.229898],[121.400307,31.229924],[121.400318,31.229949],[121.400327,31.229978],[121.400334,31.230007],[121.400337,31.230035],[121.40034,31.230066],[121.40034,31.230099],[121.400336,31.230132],[121.400326,31.230167],[121.400313,31.230195],[121.400307,31.230219],[121.400303,31.23025],[121.400296,31.230285],[121.400286,31.230317],[121.400275,31.230355],[121.400267,31.230386],[121.40026,31.230407],[121.400251,31.230435],[121.400242,31.230462],[121.400234,31.230486],[121.400225,31.230515],[121.400216,31.230543],[121.400209,31.230567],[121.400201,31.230592],[121.400193,31.230622],[121.400184,31.23065],[121.400177,31.230675],[121.400167,31.230705],[121.400158,31.230733],[121.400151,31.230758],[121.400141,31.230787],[121.400131,31.230815],[121.400122,31.23084],[121.40011,31.230869],[121.400099,31.230897],[121.400087,31.23092],[121.400073,31.230947],[121.400058,31.230972],[121.400044,31.230992],[121.400029,31.231013],[121.400011,31.231037],[121.399993,31.23106],[121.399976,31.231078],[121.399952,31.2311],[121.399912,31.23112],[121.399868,31.231134],[121.399829,31.231149],[121.399795,31.231162],[121.399767,31.231167],[121.399737,31.231165],[121.399703,31.231161],[121.399671,31.231158],[121.399637,31.231152],[121.399608,31.231146],[121.399582,31.231139],[121.399552,31.231128],[121.399524,31.231116],[121.399498,31.231101],[121.399471,31.231084],[121.399444,31.231063],[121.399422,31.231041],[121.399404,31.231018],[121.399386,31.23099],[121.399371,31.23096],[121.399361,31.230931],[121.399355,31.230902],[121.399351,31.230877],[121.399344,31.230853],[121.399335,31.230821],[121.399331,31.230786],[121.399331,31.230752],[121.399333,31.230718],[121.399338,31.230682],[121.399344,31.230645],[121.399353,31.230615],[121.399364,31.230584],[121.399374,31.230556],[121.399382,31.230531],[121.399392,31.230505],[121.399401,31.230477],[121.39941,31.230449],[121.399417,31.23042],[121.399423,31.230392],[121.399429,31.230366],[121.399438,31.230337],[121.399447,31.230308],[121.399455,31.230281],[121.399463,31.230253],[121.399472,31.230222],[121.399482,31.230193],[121.39949,31.230166],[121.3995,31.230137],[121.399509,31.230109],[121.399518,31.230084],[121.399528,31.230057],[121.399537,31.230032],[121.399547,31.230009],[121.399558,31.229982],[121.399571,31.229954],[121.399586,31.229926],[121.399604,31.2299],[121.399623,31.229873],[121.399644,31.229848],[121.399665,31.229821],[121.399686,31.229798],[121.399711,31.229783],[121.399746,31.229769],[121.399779,31.229755],[121.399809,31.229743],[121.399839,31.229734],[121.399873,31.229728],[121.399906,31.229723],[121.399938,31.229722],[121.399974,31.229726],[121.40001,31.229735],[121.400048,31.229743],[121.400087,31.229751],[121.400122,31.22976],[121.400156,31.229774],[121.400185,31.229791],[121.40021,31.229808],[121.400236,31.229829],[121.40026,31.22985],[121.400279,31.229871],[121.400298,31.229894],[121.400315,31.22992],[121.400328,31.229946],[121.400337,31.229972],[121.400345,31.230002],[121.400349,31.230031],[121.40035,31.230058],[121.40035,31.230085],[121.400349,31.230109],[121.400344,31.230135],[121.400335,31.230163],[121.400325,31.23019],[121.400314,31.230218],[121.400304,31.230249],[121.400296,31.23028],[121.400289,31.230306],[121.400282,31.230336],[121.400275,31.230366],[121.400269,31.230393],[121.400262,31.230423],[121.400255,31.230452],[121.400247,31.230479],[121.400239,31.230506],[121.40023,31.230535],[121.400221,31.230563],[121.400212,31.23059],[121.400201,31.230619],[121.400192,31.230647],[121.400183,31.230675],[121.400173,31.230704],[121.400166,31.230727],[121.400157,31.230753],[121.400147,31.230782],[121.400138,31.230808],[121.400129,31.230836],[121.400118,31.230865],[121.400109,31.230893],[121.400098,31.230922],[121.400085,31.230954],[121.40007,31.230982],[121.400055,31.231005],[121.400034,31.231029],[121.40001,31.231054],[121.399986,31.231075],[121.399959,31.231097],[121.399929,31.231118],[121.399897,31.231137],[121.399862,31.231152],[121.399826,31.231164],[121.399796,31.231171],[121.399763,31.231173],[121.39973,31.231172],[121.399697,31.231169],[121.399659,31.231162],[121.39962,31.231155],[121.399587,31.231148],[121.399554,31.231136],[121.399522,31.231122],[121.399493,31.231107],[121.399466,31.23109],[121.399439,31.231069],[121.399415,31.231047],[121.399395,31.231024],[121.399377,31.230999],[121.399363,31.230973],[121.399353,31.230947],[121.399346,31.230918],[121.399339,31.230886],[121.399333,31.230856],[121.399327,31.230823],[121.399323,31.230789],[121.399321,31.230758],[121.399321,31.230725],[121.399324,31.230693],[121.399329,31.230662],[121.399336,31.230633],[121.399344,31.230604],[121.399353,31.230577],[121.399361,31.230553],[121.39937,31.230526],[121.399379,31.230498],[121.399388,31.230469],[121.399397,31.23044],[121.399404,31.230412],[121.39941,31.230385],[121.39942,31.230356],[121.399431,31.230328],[121.399442,31.230302],[121.399453,31.230272],[121.399461,31.230242],[121.399469,31.230214],[121.399477,31.230186],[121.399486,31.230157],[121.399495,31.230129],[121.399504,31.230102],[121.399515,31.230072],[121.399526,31.230041],[121.399539,31.230012],[121.399553,31.229984],[121.399566,31.229958],[121.399583,31.229929],[121.399601,31.2299],[121.399618,31.229876],[121.399637,31.229851],[121.399657,31.229827],[121.399678,31.229807],[121.399702,31.22979],[121.399732,31.229772],[121.399765,31.229756],[121.399794,31.229744],[121.399826,31.229735],[121.39986,31.229727],[121.399892,31.229722],[121.399928,31.22972],[121.399964,31.229722],[121.399999,31.229726],[121.400035,31.229731],[121.400065,31.229736],[121.400094,31.229744],[121.400126,31.229756],[121.400158,31.229772],[121.400187,31.229789],[121.400214,31.229809],[121.40024,31.22983],[121.400262,31.22985],[121.400284,31.229874],[121.400303,31.229899],[121.400319,31.229924],[121.40033,31.229948],[121.400341,31.229977],[121.400351,31.230007],[121.400356,31.230036],[121.400357,31.230069],[121.400355,31.230102],[121.400348,31.230132],[121.400339,31.230163],[121.400328,31.230196],[121.400318,31.230225],[121.400309,31.230255],[121.400301,31.230285],[121.400293,31.230313],[121.400286,31.230343],[121.400278,31.230373],[121.40027,31.2304],[121.400262,31.230425],[121.400254,31.230451],[121.400245,31.230479],[121.400236,31.230504],[121.400225,31.230534],[121.400214,31.230566],[121.400206,31.230595],[121.400198,31.230626],[121.40019,31.230659],[121.400182,31.230688],[121.400173,31.230716],[121.400163,31.230744],[121.400153,31.230771],[121.400141,31.230802],[121.400129,31.230835],[121.400117,31.230864],[121.400107,31.230895],[121.400096,31.230928],[121.400084,31.230956],[121.400069,31.230983],[121.400049,31.231009],[121.400028,31.231032],[121.400007,31.231055],[121.399984,31.23108],[121.399956,31.231104],[121.399925,31.231126],[121.399891,31.231144],[121.399857,31.231156],[121.399819,31.231164],[121.399783,31.23117],[121.399751,31.231175],[121.399722,31.231179],[121.39969,31.23118],[121.399654,31.231176],[121.399623,31.231169],[121.399593,31.23116],[121.399561,31.231148],[121.39953,31.231134],[121.3995,31.231118],[121.39947,31.231099],[121.399441,31.231077],[121.399418,31.231056],[121.399397,31.231031],[121.399379,31.231004],[121.399363,31.230975],[121.399348,31.230944],[121.399338,31.230914],[121.399332,31.230884],[121.399328,31.230854],[121.399326,31.230823],[121.399325,31.230794],[121.399325,31.230761],[121.399326,31.230727],[121.399331,31.230694],[121.399339,31.23065],[121.399347,31.230608],[121.399354,31.230579],[121.399361,31.230554],[121.39937,31.230525],[121.399379,31.230493],[121.399387,31.230466],[121.399395,31.23044],[121.399402,31.230414],[121.399412,31.230384],[121.399421,31.230352],[121.399429,31.230324],[121.399439,31.230292],[121.399449,31.230259],[121.399457,31.23023],[121.399465,31.230203],[121.399475,31.230171],[121.399486,31.230138],[121.399495,31.23011],[121.399507,31.230079],[121.399519,31.230047],[121.399531,31.23002],[121.399545,31.229991],[121.39956,31.229961],[121.399576,31.229932],[121.399593,31.229904],[121.399609,31.229881],[121.399627,31.229856],[121.399646,31.229832],[121.399662,31.229812],[121.399677,31.229795],[121.399706,31.229776],[121.399749,31.229758],[121.399789,31.229746],[121.399825,31.229736],[121.399862,31.22973],[121.399899,31.229727],[121.399933,31.229726],[121.399966,31.229726],[121.400002,31.229728],[121.400038,31.229733],[121.40007,31.229741],[121.400101,31.229752],[121.400132,31.229765],[121.400162,31.229781],[121.400192,31.2298],[121.400219,31.229821],[121.400246,31.229846],[121.400273,31.229874],[121.400294,31.2299],[121.400313,31.229929],[121.400329,31.229959],[121.400341,31.229986],[121.40035,31.230014],[121.400355,31.230043],[121.400357,31.230074],[121.400355,31.230103],[121.400348,31.230132],[121.400338,31.230166],[121.400328,31.230206],[121.400319,31.230242],[121.400311,31.230267],[121.400305,31.230288],[121.400296,31.230316],[121.400286,31.230346],[121.400277,31.230372],[121.400268,31.230402],[121.400258,31.230434],[121.400249,31.230461],[121.400242,31.230486],[121.400234,31.230512],[121.400224,31.230544],[121.400213,31.230578],[121.400205,31.230606],[121.400197,31.230633],[121.400189,31.23066],[121.400179,31.230691],[121.400168,31.230723],[121.400157,31.230755],[121.400142,31.230795],[121.400126,31.230837],[121.400112,31.230872],[121.400101,31.2309],[121.400087,31.230928],[121.400073,31.230957],[121.40006,31.23098],[121.400045,31.231005],[121.40003,31.231032],[121.400016,31.231052],[121.400001,31.231074],[121.399975,31.231097],[121.399935,31.231118],[121.399895,31.231134],[121.399856,31.231149],[121.39982,31.231162],[121.399788,31.231169],[121.399748,31.231174],[121.399698,31.231177],[121.399655,31.231176],[121.39962,31.23117],[121.399589,31.231161],[121.399558,31.231148],[121.399527,31.231132],[121.399499,31.231116],[121.399468,31.231096],[121.39944,31.231074],[121.399417,31.231053],[121.399397,31.231029],[121.399381,31.231006],[121.399367,31.230979],[121.399354,31.23095],[121.399344,31.230922],[121.399337,31.230893],[121.399333,31.230864],[121.39933,31.230833],[121.399328,31.2308],[121.399328,31.230766],[121.39933,31.230734],[121.399333,31.2307],[121.399339,31.230665],[121.399345,31.230633],[121.399353,31.2306],[121.399362,31.230568],[121.399371,31.230541],[121.399379,31.23051],[121.399387,31.23048],[121.399395,31.230453],[121.399404,31.230423],[121.399414,31.230389],[121.399423,31.230357],[121.399432,31.230327],[121.39944,31.230293],[121.399449,31.230258],[121.399457,31.230227],[121.399464,31.230198],[121.399472,31.230166],[121.39948,31.230134],[121.399488,31.230105],[121.399497,31.230073],[121.399508,31.230041],[121.399522,31.230015],[121.399538,31.229987],[121.399555,31.229958],[121.399572,31.229932],[121.399592,31.229904],[121.399613,31.229877],[121.399632,31.229853],[121.399652,31.22983],[121.399673,31.22981],[121.399702,31.229788],[121.399743,31.229767],[121.399784,31.229751],[121.399823,31.229741],[121.399861,31.229734],[121.3999,31.22973],[121.399938,31.22973],[121.399972,31.22973],[121.400008,31.229734],[121.400044,31.229738],[121.400075,31.229745],[121.400109,31.229755],[121.400142,31.229768],[121.400172,31.229783],[121.400202,31.229801],[121.40023,31.229821],[121.400254,31.229843],[121.400276,31.229867],[121.400295,31.229892],[121.400313,31.229922],[121.40033,31.229953],[121.400342,31.229981],[121.40035,31.23001],[121.400355,31.230037],[121.400355,31.230068],[121.400352,31.230101],[121.400346,31.230131],[121.400337,31.230164],[121.400328,31.230199],[121.400318,31.230231],[121.400309,31.230263],[121.400298,31.230296],[121.400289,31.230328],[121.400279,31.230358],[121.400269,31.230389],[121.40026,31.230419],[121.400251,31.230452],[121.400242,31.230484],[121.400234,31.230512],[121.400225,31.230542],[121.400217,31.23057],[121.400211,31.230594],[121.400206,31.230618],[121.400199,31.230646],[121.400191,31.230672],[121.400181,31.230701],[121.40017,31.23073],[121.400159,31.230759],[121.400147,31.230791],[121.400135,31.230822],[121.400125,31.23085],[121.400115,31.23088],[121.400105,31.230909],[121.400092,31.230938],[121.400077,31.230966],[121.400062,31.230989],[121.400046,31.23101],[121.40003,31.23103],[121.40001,31.231051],[121.399987,31.231071],[121.399961,31.23109],[121.399928,31.231111],[121.399891,31.231131],[121.399855,31.231147],[121.399816,31.231159],[121.399778,31.231166],[121.39974,31.23117],[121.399698,31.231172],[121.399657,31.23117],[121.399618,31.231164],[121.399586,31.231155],[121.399553,31.231143],[121.399522,31.231127],[121.399495,31.231113],[121.399467,31.231094],[121.399441,31.231073],[121.399422,31.231054],[121.399403,31.23103],[121.399385,31.231003],[121.399369,31.230976],[121.399355,31.23095],[121.399342,31.23092],[121.399333,31.230888],[121.399327,31.230859],[121.399324,31.230827],[121.399323,31.230794],[121.399322,31.230763],[121.399322,31.230731],[121.399325,31.230693],[121.399331,31.230643],[121.399341,31.230593],[121.39935,31.230558],[121.399359,31.230532],[121.399366,31.230508],[121.399373,31.230486],[121.399381,31.230459],[121.39939,31.230429],[121.399397,31.230404],[121.399406,31.230373],[121.399415,31.230342],[121.399423,31.230315],[121.399432,31.230284],[121.399442,31.230252],[121.39945,31.230223],[121.399461,31.230192],[121.399473,31.23016],[121.399484,31.230132],[121.399497,31.230102],[121.39951,31.23007],[121.399523,31.230044],[121.399537,31.230015],[121.399552,31.229987],[121.399565,31.229964],[121.399581,31.229937],[121.399599,31.229908],[121.399615,31.229886],[121.399633,31.229861],[121.399651,31.229835],[121.399667,31.229816],[121.399684,31.229794],[121.399716,31.22977],[121.399762,31.229754],[121.399808,31.229743],[121.399851,31.229736],[121.399893,31.229732],[121.399934,31.229731],[121.399968,31.229733],[121.400005,31.229737],[121.400043,31.229742],[121.400077,31.229749],[121.400109,31.229759],[121.400143,31.229772],[121.400174,31.229787],[121.4002,31.229803],[121.400225,31.22982],[121.400249,31.229842],[121.400273,31.229868],[121.400293,31.229894],[121.400312,31.229921],[121.400327,31.229948],[121.40034,31.229977],[121.400349,31.230007],[121.400354,31.230036],[121.400354,31.230068],[121.400351,31.230101],[121.400345,31.230132],[121.400338,31.230162],[121.40033,31.230195],[121.400323,31.230228],[121.400316,31.230259],[121.400308,31.230289],[121.400298,31.230321],[121.400287,31.230353],[121.400277,31.230381],[121.400267,31.230412],[121.400257,31.230445],[121.400249,31.230475],[121.40024,31.230507],[121.400231,31.23054],[121.400222,31.230572],[121.400211,31.230602],[121.400201,31.230628],[121.400189,31.230658],[121.400176,31.230691],[121.400165,31.230722],[121.400155,31.230753],[121.400145,31.230787],[121.400136,31.230817],[121.400126,31.230848],[121.400117,31.23088],[121.400109,31.23091],[121.400098,31.230938],[121.400084,31.230968],[121.400069,31.230997],[121.400052,31.231023],[121.400034,31.231047],[121.400015,31.231069],[121.399993,31.231089],[121.399968,31.231108],[121.399941,31.231126],[121.399908,31.231145],[121.399875,31.23116],[121.399847,31.231168],[121.399815,31.231173],[121.399781,31.231175],[121.399754,31.231174],[121.399723,31.231172],[121.399689,31.231168],[121.399654,31.231164],[121.399617,31.231157],[121.39958,31.231146],[121.399549,31.231133],[121.399516,31.231118],[121.399485,31.231102],[121.399459,31.231082],[121.399436,31.231058],[121.399418,31.231034],[121.399398,31.231005],[121.399377,31.230975],[121.399361,31.230947],[121.39935,31.230916],[121.399342,31.230883],[121.399338,31.230853],[121.399337,31.230822],[121.399337,31.23079],[121.399337,31.230756],[121.399336,31.230721],[121.399339,31.230685],[121.399345,31.230647],[121.399353,31.230614],[121.399362,31.230581],[121.399371,31.230553],[121.399377,31.230528],[121.399383,31.230502],[121.39939,31.230471],[121.399398,31.230439],[121.399404,31.23041],[121.39941,31.230377],[121.399417,31.230342],[121.399422,31.230312],[121.399428,31.230279],[121.399435,31.230246],[121.399441,31.230217],[121.399448,31.230185],[121.399456,31.230153],[121.399464,31.230125],[121.399474,31.230094],[121.399483,31.230062],[121.39949,31.230034],[121.3995,31.230004],[121.399511,31.229972],[121.399519,31.229954],[121.399526,31.229935],[121.399531,31.229919]]}}]}