{"type":"FeatureCollection","features":[{"type":"Feature","properties":{"id":"2026-10-01_walking_50","type":"walking","date":"2026-10-01"},"geometry":{"type":"LineString","coordinates":[[120.684794,31.642637],[120.684802,31.642652],[120.684808,31.642662],[120.684814,31.642667],[120.68482,31.642674],[120.684824,31.642678],[120.684827,31.64268],[120.684833,31.642684],[120.684841,31.642688],[120.684852,31.642692],[120.684866,31.642694],[120.684881,31.642693],[120.68488,31.642703],[120.684871,31.642717],[120.684872,31.642724],[120.684875,31.642728],[120.684878,31.642732],[120.684885,31.64274],[120.684893,31.642748],[120.684898,31.642754],[120.684903,31.642761],[120.684909,31.64277],[120.684917,31.642783],[120.684926,31.642796],[120.684938,31.642807],[120.684949,31.642817],[120.68496,31.642826],[120.684971,31.642835],[120.684982,31.642842],[120.684991,31.642847],[120.685002,31.642852],[120.685015,31.642859],[120.685026,31.642865],[120.685037,31.642871],[120.685049,31.642874],[120.685058,31.642876],[120.685068,31.642879],[120.68508,31.642883],[120.685091,31.642888],[120.685102,31.642893],[120.685112,31.642899],[120.685121,31.642904],[120.685131,31.642909],[120.685144,31.642915],[120.685156,31.64292],[120.685166,31.642923],[120.685176,31.642927],[120.685189,31.642932],[120.685205,31.642938],[120.685217,31.642943],[120.685226,31.642945],[120.685237,31.642948],[120.685249,31.642952],[120.685259,31.642954],[120.685266,31.642955],[120.685271,31.642954],[120.685278,31.642953],[120.685284,31.642953],[120.685292,31.642954],[120.685298,31.642956],[120.685307,31.64296],[120.685319,31.642965],[120.685331,31.642971],[120.685342,31.642976],[120.685349,31.64298],[120.685357,31.642984],[120.685368,31.642989],[120.685379,31.642993],[120.685393,31.642996],[120.685408,31.642999],[120.685423,31.643001],[120.685439,31.643003],[120.685456,31.643007],[120.68547,31.643011],[120.685481,31.643013],[120.685492,31.643015],[120.685499,31.643016],[120.685505,31.643016],[120.68551,31.643018],[120.685509,31.643022],[120.685505,31.643024],[120.6855,31.643025],[120.685493,31.643026],[120.685485,31.643025],[120.685475,31.643023],[120.685466,31.643023],[120.685458,31.643024],[120.685448,31.643025],[120.685438,31.643025],[120.685428,31.643023],[120.68542,31.64302],[120.685409,31.643014],[120.685398,31.643007],[120.685385,31.642999],[120.685369,31.642992],[120.685353,31.642985],[120.685339,31.642978],[120.685326,31.642971],[120.685311,31.642962],[120.6853,31.642955],[120.685294,31.642949],[120.685292,31.642945],[120.685288,31.642938],[120.685284,31.64293],[120.685283,31.642927],[120.685278,31.642924],[120.685266,31.64292],[120.68525,31.642916],[120.685239,31.642912],[120.685235,31.64291],[120.685235,31.642909],[120.685235,31.642908],[120.685235,31.642907],[120.685235,31.642904],[120.685235,31.642904],[120.685235,31.642905],[120.685233,31.642907],[120.685228,31.642911],[120.685215,31.642913],[120.685199,31.642915],[120.685186,31.64292],[120.685169,31.642927],[120.685155,31.642934],[120.68515,31.642944],[120.685143,31.642956],[120.685132,31.642964],[120.685116,31.642973],[120.685101,31.642985],[120.685093,31.642994],[120.685087,31.643002],[120.685084,31.643007],[120.685086,31.643013],[120.685089,31.643018],[120.685085,31.643019],[120.685083,31.643015],[120.685082,31.64301],[120.685077,31.64301],[120.68507,31.643007],[120.685062,31.643002],[120.685052,31.642995],[120.685042,31.642987],[120.685031,31.642977],[120.685022,31.642967],[120.685011,31.642952],[120.685,31.642938],[120.684991,31.642926],[120.68498,31.642913],[120.684971,31.642902],[120.684962,31.642893],[120.684954,31.642885],[120.684946,31.642877],[120.684939,31.64287],[120.684931,31.642861],[120.684924,31.642851],[120.684918,31.64284],[120.684913,31.642831],[120.684908,31.642824],[120.684905,31.642817],[120.684903,31.642808],[120.684896,31.642798],[120.684886,31.64279],[120.684877,31.642784],[120.684869,31.642776],[120.684859,31.642766],[120.68485,31.642756],[120.684844,31.642749],[120.684838,31.642745],[120.684831,31.642739],[120.684822,31.642731],[120.684814,31.642724],[120.68481,31.642721],[120.684803,31.642718],[120.684795,31.642713],[120.684787,31.642708],[120.684783,31.642703],[120.684779,31.642698],[120.684774,31.642691],[120.684769,31.642684],[120.684765,31.642678],[120.684762,31.642673],[120.684757,31.642665],[120.684752,31.642656],[120.684748,31.642648],[120.684742,31.642637],[120.684732,31.642623],[120.684723,31.64261],[120.684715,31.642601],[120.684709,31.642594],[120.684703,31.642586],[120.684696,31.642576],[120.684689,31.642566],[120.684683,31.642555],[120.684676,31.642542],[120.68467,31.642526],[120.684668,31.642513],[120.684674,31.642506],[120.684686,31.642498],[120.684698,31.642493],[120.684706,31.64249],[120.684714,31.642488],[120.684724,31.642483],[120.684733,31.642479],[120.684742,31.642473],[120.684752,31.642466],[120.684764,31.642454],[120.684777,31.642442],[120.684789,31.642431],[120.684803,31.642419],[120.68482,31.642406],[120.684834,31.642394],[120.684841,31.642384],[120.684846,31.642377],[120.684852,31.64237],[120.68486,31.642361],[120.684868,31.642354],[120.684877,31.642348],[120.684887,31.642341],[120.684898,31.642334],[120.684908,31.642326],[120.684917,31.642318],[120.684927,31.642308],[120.684938,31.642298],[120.684949,31.642289],[120.684961,31.642281],[120.684972,31.642273],[120.684987,31.642264],[120.685002,31.642253],[120.685009,31.642244],[120.685017,31.642232],[120.685023,31.642219],[120.685027,31.642207],[120.685031,31.642194],[120.685033,31.64218],[120.685036,31.642166],[120.685039,31.642152],[120.685041,31.642138],[120.685043,31.642125],[120.685044,31.642114],[120.685045,31.642103],[120.685046,31.642091],[120.685048,31.642078],[120.685051,31.642064],[120.685056,31.642052],[120.685061,31.642042],[120.685067,31.64203],[120.685075,31.642014],[120.685079,31.641999],[120.685082,31.641988],[120.685084,31.641973],[120.685085,31.641957],[120.685087,31.641943],[120.685087,31.641928],[120.685084,31.641913],[120.685079,31.641898],[120.685072,31.641883],[120.685065,31.641871],[120.685058,31.641861],[120.685049,31.641845],[120.685042,31.64183],[120.685037,31.64182],[120.685032,31.641806],[120.685027,31.641792],[120.685024,31.641782],[120.68502,31.641774],[120.685015,31.641768],[120.685011,31.641764],[120.685008,31.641762],[120.685003,31.641762],[120.684995,31.64176],[120.684989,31.641759],[120.684985,31.641759],[120.684979,31.641756],[120.684968,31.64175],[120.684954,31.641742],[120.68494,31.641736],[120.684928,31.64173],[120.684911,31.641725],[120.684893,31.64172],[120.684876,31.641715],[120.684864,31.641712],[120.684853,31.64171],[120.684835,31.641707],[120.684818,31.641704],[120.684806,31.641703],[120.684798,31.641703],[120.684787,31.641703],[120.684774,31.641702],[120.684761,31.6417],[120.684744,31.641698],[120.684728,31.641696],[120.684719,31.641694],[120.684706,31.641692],[120.68469,31.641689],[120.684679,31.641687],[120.684667,31.641685],[120.684657,31.641684],[120.684647,31.641682],[120.684634,31.64168],[120.684622,31.641677],[120.68461,31.641673],[120.684596,31.641669],[120.684581,31.641664],[120.68457,31.64166],[120.684558,31.641655],[120.684543,31.641646],[120.68453,31.641638],[120.684522,31.641632],[120.684515,31.641626],[120.684505,31.64162],[120.684493,31.641612],[120.684481,31.641605],[120.684469,31.641595],[120.684458,31.641586],[120.684448,31.641577],[120.68444,31.641568],[120.684432,31.64156],[120.684424,31.641551],[120.684418,31.641543],[120.684412,31.641534],[120.684403,31.641525],[120.684395,31.641516],[120.684387,31.641507],[120.684376,31.641497],[120.684365,31.641488],[120.684357,31.641479],[120.684352,31.64147],[120.684348,31.641459],[120.684343,31.641447],[120.68434,31.641436],[120.684339,31.641428],[120.684336,31.64142],[120.684336,31.641411],[120.684339,31.641402],[120.684343,31.641393],[120.684346,31.641382],[120.684347,31.641371],[120.684348,31.641362],[120.684347,31.641354],[120.684344,31.641341],[120.68434,31.641326],[120.684333,31.641312],[120.684322,31.641294],[120.684313,31.641278],[120.684305,31.641263],[120.684298,31.641249],[120.684292,31.641239],[120.684288,31.641232],[120.684286,31.641226],[120.684283,31.641218],[120.68428,31.641209],[120.684273,31.6412],[120.684266,31.641192],[120.684258,31.641187],[120.684249,31.641181],[120.684234,31.641173],[120.684219,31.641165],[120.684208,31.641156],[120.684195,31.641143],[120.684184,31.641131],[120.684176,31.641121],[120.684168,31.64111],[120.68416,31.641099],[120.684151,31.641091],[120.684144,31.641082],[120.684141,31.641074],[120.684142,31.641066],[120.684145,31.641055],[120.68415,31.641043],[120.684157,31.64103],[120.684164,31.641015],[120.68417,31.640996],[120.684175,31.640981],[120.684181,31.640972],[120.684195,31.640959],[120.684208,31.640946],[120.684215,31.640934],[120.684223,31.640924],[120.684233,31.640917],[120.684249,31.640908],[120.684265,31.640897],[120.684274,31.640887],[120.684281,31.64088],[120.684286,31.640874],[120.684292,31.640869],[120.684303,31.640863],[120.68432,31.64085],[120.684334,31.640832],[120.684342,31.640813],[120.684348,31.6408],[120.684354,31.640795],[120.684364,31.64079],[120.684376,31.640782],[120.684388,31.640772],[120.6844,31.640762],[120.684414,31.640748],[120.684428,31.640735],[120.684442,31.640721],[120.684456,31.640707],[120.68447,31.640694],[120.684484,31.640679],[120.684498,31.640666],[120.684498,31.640666],[120.684498,31.640666],[120.684498,31.640666],[120.684498,31.640666],[120.684498,31.640666],[120.684498,31.640666],[120.684498,31.640666],[120.684498,31.640666],[120.684498,31.640666],[120.684498,31.640666],[120.684498,31.640666],[120.684498,31.640666],[120.684498,31.640666],[120.684498,31.640666],[120.684498,31.640666],[120.684498,31.640666],[120.684498,31.640666],[120.684498,31.640666],[120.684498,31.640666],[120.684498,31.640666],[120.684498,31.640666],[120.684498,31.640666],[120.684498,31.640666],[120.684498,31.640666],[120.684498,31.640666],[120.684498,31.640666],[120.684498,31.640666],[120.684498,31.640666],[120.684498,31.640666],[120.684498,31.640666],[120.684498,31.640666],[120.684498,31.640666],[120.684498,31.640666],[120.684498,31.640666],[120.684498,31.640666],[120.684498,31.640666],[120.684498,31.640666],[120.684498,31.640666],[120.684498,31.640666],[120.684498,31.640666],[120.684498,31.640666],[120.684498,31.640666],[120.684498,31.640666],[120.684498,31.640666],[120.684498,31.640666],[120.684498,31.640666],[120.684498,31.640666],[120.684498,31.640666],[120.684498,31.640666],[120.684498,31.640666],[120.684498,31.640666],[120.684498,31.640666],[120.684498,31.640666],[120.684498,31.640666],[120.684498,31.640666],[120.684498,31.640666],[120.684498,31.640666],[120.684498,31.640666],[120.684498,31.640666],[120.684498,31.640666],[120.684498,31.640666],[120.684498,31.640666],[120.684498,31.640666],[120.684498,31.640666],[120.684498,31.640666],[120.684498,31.640666],[120.684498,31.640666],[120.684498,31.640666],[120.684498,31.640666],[120.684498,31.640666],[120.684498,31.640666],[120.684498,31.640666],[120.684498,31.640666],[120.684498,31.640666],[120.684498,31.640666],[120.684498,31.640666],[120.684498,31.640666],[120.684498,31.640666],[120.684498,31.640666],[120.684498,31.640666],[120.684498,31.640666],[120.684498,31.640666],[120.684498,31.640666],[120.684498,31.640666],[120.684498,31.640666],[120.684498,31.640666],[120.684498,31.640666],[120.684498,31.640666],[120.684498,31.640666],[120.684498,31.640666],[120.684498,31.640666],[120.684498,31.640666],[120.684498,31.640666],[120.684498,31.640666],[120.684498,31.640666],[120.684498,31.640666],[120.684498,31.640666],[120.684498,31.640666],[120.684498,31.640666],[120.684498,31.640666],[120.684498,31.640666],[120.684498,31.640666],[120.684498,31.640666],[120.684498,31.640666],[120.684498,31.640666],[120.684498,31.640666],[120.684498,31.640666],[120.684498,31.640666],[120.684498,31.640666],[120.684498,31.640666],[120.684498,31.640666],[120.684498,31.640666],[120.684498,31.640666],[120.684498,31.640666],[120.684498,31.640666],[120.684498,31.640666],[120.684498,31.640666],[120.684498,31.640666],[120.684498,31.640666],[120.684498,31.640666],[120.684498,31.640666],[120.684498,31.640666],[120.684498,31.640666],[120.684498,31.640666],[120.684498,31.640666],[120.684498,31.640666],[120.684498,31.640666],[120.684498,31.640666],[120.684498,31.640666],[120.684498,31.640666],[120.684498,31.640666],[120.684498,31.640666],[120.684498,31.640666],[120.684498,31.640666],[120.684498,31.640666],[120.684498,31.640666],[120.684498,31.640666],[120.684498,31.640666],[120.684498,31.640666],[120.684498,31.640666],[120.684498,31.640666],[120.684498,31.640666],[120.684498,31.640666],[120.684498,31.640666],[120.684498,31.640666],[120.684498,31.640666],[120.684498,31.640666],[120.684498,31.640666],[120.684498,31.640666],[120.684498,31.640666],[120.684498,31.640666],[120.684498,31.640666],[120.684498,31.640666],[120.684498,31.640666],[120.684498,31.640666],[120.684498,31.640666],[120.684498,31.640666],[120.684498,31.640666],[120.684498,31.640666],[120.684498,31.640666],[120.684498,31.640666],[120.684498,31.640666],[120.684498,31.640666],[120.684498,31.640666],[120.684498,31.640666],[120.684498,31.640666],[120.684498,31.640666],[120.684498,31.640666],[120.684498,31.640666],[120.684498,31.640666],[120.684498,31.640666],[120.684498,31.640666],[120.684498,31.640666],[120.684498,31.640666],[120.684498,31.640666],[120.684498,31.640666],[120.684498,31.640666],[120.684498,31.640666],[120.684498,31.640666],[120.684498,31.640666],[120.684498,31.640666],[120.684498,31.640666],[120.684498,31.640666],[120.684498,31.640666],[120.684498,31.640666],[120.684498,31.640666],[120.684498,31.640666],[120.684498,31.640666],[120.684498,31.640666],[120.684498,31.640666],[120.684498,31.640666],[120.684498,31.640666],[120.684498,31.640666],[120.684498,31.640666],[120.684498,31.640666],[120.684498,31.640666],[120.684498,31.640666],[120.684498,31.640666],[120.684498,31.640666],[120.684498,31.640666],[120.684498,31.640666],[120.684498,31.640666],[120.684498,31.640666],[120.684498,31.640666],[120.684498,31.640666],[120.684498,31.640666],[120.684498,31.640666],[120.684498,31.640666],[120.684498,31.640666],[120.684498,31.640666],[120.684498,31.640666],[120.684498,31.640666],[120.684498,31.640666],[120.684498,31.640666],[120.684498,31.640666],[120.684498,31.640666],[120.684498,31.640666],[120.684498,31.640666],[120.684498,31.640666],[120.684498,31.640666],[120.684498,31.640666],[120.684498,31.640666],[120.684498,31.640666],[120.684498,31.640666],[120.684498,31.640666],[120.684498,31.640666],[120.684498,31.640666],[120.684498,31.640666],[120.684498,31.640666],[120.684498,31.640666],[120.684498,31.640666],[120.684498,31.640666],[120.684498,31.640666],[120.684498,31.640666],[120.684498,31.640666],[120.684498,31.640666],[120.684498,31.640666],[120.684498,31.640666],[120.684498,31.640666],[120.684498,31.640666],[120.684498,31.640666],[120.684498,31.640666],[120.684498,31.640666],[120.684498,31.640666],[120.684498,31.640666],[120.684498,31.640666],[120.684498,31.640666],[120.684498,31.640666],[120.684498,31.640666],[120.684498,31.640666],[120.684498,31.640666],[120.684498,31.640666],[120.684498,31.640666],[120.684498,31.640666],[120.684498,31.640666],[120.684498,31.640666],[120.684498,31.640666],[120.684498,31.640666],[120.684498,31.640666],[120.684498,31.640666],[120.684498,31.640666],[120.684498,31.640666],[120.684498,31.640666],[120.684498,31.640666],[120.684498,31.640666],[120.684498,31.640666],[120.684498,31.640666],[120.684498,31.640666],[120.684498,31.640666],[120.684498,31.640666],[120.684498,31.640666],[120.684498,31.640666],[120.684498,31.640666],[120.684498,31.640666],[120.684498,31.640666],[120.684511,31.640649],[120.684524,31.640631],[120.684537,31.640614],[120.68455,31.640597],[120.684563,31.64058],[120.684575,31.640563],[120.684586,31.640556],[120.684597,31.640549],[120.6846,31.640543],[120.684601,31.640536],[120.6846,31.640529],[120.684599,31.640522],[120.684596,31.640517],[120.684595,31.640513],[120.684595,31.640511],[120.684591,31.640508],[120.684584,31.640505],[120.684575,31.640502],[120.684563,31.640497],[120.68455,31.640492],[120.684535,31.640483],[120.684522,31.64047],[120.684511,31.640459],[120.684499,31.640443],[120.684486,31.640425],[120.68447,31.640411],[120.684456,31.640397],[120.684445,31.640385],[120.684436,31.640374],[120.684431,31.640366],[120.684426,31.64036],[120.684421,31.640351],[120.684415,31.640342],[120.684406,31.640333],[120.684397,31.640324],[120.684388,31.640313],[120.68438,31.640301],[120.684372,31.640289],[120.684365,31.640277],[120.684359,31.64026],[120.684358,31.640242],[120.684364,31.640228],[120.684372,31.640217],[120.684382,31.640207],[120.684394,31.640199],[120.684405,31.640191],[120.684415,31.640182],[120.684427,31.640172],[120.684437,31.640162],[120.684447,31.64015],[120.684456,31.640137],[120.684462,31.640125],[120.68447,31.640116],[120.68448,31.640109],[120.684492,31.640102],[120.684504,31.64009],[120.684516,31.640076],[120.684526,31.640064],[120.684535,31.640053],[120.684546,31.64004],[120.684554,31.640024],[120.684561,31.640011],[120.684567,31.640002],[120.684572,31.639994],[120.684578,31.639986],[120.684587,31.639978],[120.684599,31.63997],[120.684609,31.639961],[120.684619,31.639952],[120.68463,31.639944],[120.684641,31.639936],[120.684652,31.639927],[120.684664,31.639914],[120.684675,31.6399],[120.684683,31.639889],[120.684688,31.639877],[120.684695,31.639867],[120.684705,31.63986],[120.684717,31.639853],[120.684728,31.639844],[120.68474,31.639833],[120.684752,31.63982],[120.684762,31.639809],[120.684772,31.639798],[120.684778,31.639787],[120.684783,31.639777],[120.684786,31.639768],[120.684789,31.639763],[120.6848,31.639756],[120.684814,31.639746],[120.684826,31.639736],[120.684838,31.639724],[120.684847,31.639714],[120.684855,31.639706],[120.684868,31.639695],[120.68488,31.639684],[120.68489,31.639676],[120.684901,31.639668],[120.684912,31.639659],[120.684923,31.63965],[120.684934,31.639641],[120.684944,31.639631],[120.684952,31.639621],[120.684958,31.63961],[120.684964,31.6396],[120.684974,31.639589],[120.684987,31.639579],[120.684999,31.639569],[120.68501,31.639558],[120.68502,31.639546],[120.68503,31.639536],[120.68504,31.639526],[120.68505,31.639518],[120.685062,31.63951],[120.685072,31.639501],[120.685083,31.639493],[120.685093,31.639484],[120.6851,31.639478],[120.685106,31.639474],[120.685116,31.639467],[120.685126,31.639458],[120.685136,31.63945],[120.68515,31.63944],[120.685165,31.639428],[120.685177,31.639419],[120.685189,31.63941],[120.6852,31.6394],[120.685207,31.639394],[120.685214,31.639389],[120.685223,31.639381],[120.685233,31.639372],[120.685244,31.639362],[120.685254,31.639353],[120.685264,31.639343],[120.685275,31.639332],[120.685288,31.63932],[120.685301,31.639307],[120.685312,31.639296],[120.685322,31.639285],[120.685333,31.639274],[120.685343,31.639263],[120.685354,31.639251],[120.68537,31.639234],[120.685386,31.639219],[120.685398,31.639207],[120.685408,31.639195],[120.685417,31.639184],[120.685426,31.639175],[120.685437,31.639165],[120.685447,31.639154],[120.685455,31.639146],[120.685462,31.639138],[120.68547,31.63913],[120.685479,31.639122],[120.685489,31.639114],[120.685502,31.639104],[120.685516,31.639095],[120.685529,31.639086],[120.685543,31.639076],[120.685556,31.639067],[120.685565,31.639056],[120.685574,31.639043],[120.685584,31.639032],[120.685595,31.639022],[120.685605,31.639013],[120.685615,31.639004],[120.685625,31.638996],[120.685637,31.638987],[120.685647,31.638977],[120.685653,31.63897],[120.68566,31.638966],[120.685669,31.638956],[120.685677,31.638943],[120.685685,31.638932],[120.685695,31.638922],[120.685707,31.638912],[120.685716,31.638903],[120.685724,31.638893],[120.685734,31.638884],[120.685742,31.638876],[120.685749,31.638868],[120.685757,31.638858],[120.685764,31.638849],[120.685772,31.63884],[120.685782,31.638833],[120.685794,31.638826],[120.685804,31.638821],[120.685815,31.638814],[120.685828,31.638803],[120.68584,31.638793],[120.685856,31.638778],[120.685873,31.638762],[120.685886,31.63875],[120.685894,31.638743],[120.6859,31.638736],[120.685909,31.638728],[120.685918,31.638718],[120.685928,31.638709],[120.685937,31.638699],[120.685947,31.63869],[120.685953,31.638683],[120.685959,31.638678],[120.68597,31.638666],[120.685985,31.638652],[120.685996,31.63864],[120.686006,31.638629],[120.686015,31.638619],[120.686024,31.63861],[120.686034,31.638599],[120.686044,31.638587],[120.686054,31.638576],[120.686064,31.638566],[120.686071,31.638558],[120.686078,31.638552],[120.686086,31.638544],[120.686096,31.638535],[120.686106,31.638526],[120.686115,31.638517],[120.686125,31.638507],[120.686134,31.638496],[120.686141,31.638488],[120.686146,31.63848],[120.686152,31.638469],[120.686159,31.638459],[120.686166,31.63845],[120.686174,31.638441],[120.686182,31.638433],[120.686192,31.638424],[120.686203,31.638416],[120.686212,31.638407],[120.68622,31.638399],[120.686228,31.63839],[120.686233,31.638383],[120.686239,31.638377],[120.686244,31.638369],[120.686247,31.638362],[120.686252,31.638352],[120.68626,31.638342],[120.686276,31.638332],[120.686293,31.638326],[120.686306,31.638321],[120.686314,31.638314],[120.686318,31.638306],[120.686322,31.638295],[120.686327,31.638284],[120.686332,31.638271],[120.686337,31.638258],[120.686342,31.638245],[120.686346,31.638232],[120.686347,31.63822],[120.686346,31.63821],[120.686342,31.638199],[120.686337,31.638187],[120.686331,31.638174],[120.686326,31.638159],[120.68632,31.63814],[120.686313,31.638122],[120.686308,31.638111],[120.686301,31.638102],[120.68629,31.638092],[120.68628,31.638082],[120.686271,31.638071],[120.686263,31.638059],[120.686255,31.638047],[120.686248,31.638036],[120.686242,31.638026],[120.686234,31.638013],[120.686226,31.638],[120.686219,31.637988],[120.686213,31.637977],[120.686207,31.637967],[120.686198,31.637954],[120.686188,31.637944],[120.686182,31.637936],[120.686176,31.637924],[120.686168,31.637911],[120.68616,31.6379],[120.686155,31.637892],[120.686152,31.637886],[120.686141,31.637877],[120.686124,31.637863],[120.686111,31.63785],[120.686102,31.637842],[120.686095,31.637835],[120.686085,31.637826],[120.686074,31.637817],[120.686063,31.637807],[120.686047,31.637793],[120.686033,31.63778],[120.686024,31.637773],[120.686012,31.637762],[120.686,31.637751],[120.685988,31.63774],[120.685976,31.637729],[120.685965,31.637718],[120.685954,31.637708],[120.685943,31.637697],[120.685932,31.637686],[120.685921,31.637676],[120.685913,31.637669],[120.685905,31.637662],[120.685895,31.637653],[120.685885,31.637642],[120.685871,31.637629],[120.685856,31.637614],[120.685844,31.637602],[120.685833,31.637592],[120.685823,31.637582],[120.685813,31.637572],[120.685803,31.637563],[120.685794,31.637553],[120.685786,31.637543],[120.68578,31.637536],[120.685773,31.637527],[120.685763,31.637516],[120.685752,31.637506],[120.685743,31.637498],[120.685735,31.637492],[120.68573,31.637471],[120.685725,31.63745],[120.68572,31.637429],[120.685715,31.637408],[120.68571,31.637387],[120.68571,31.637387],[120.68571,31.637387],[120.68571,31.637387],[120.68571,31.637387],[120.68571,31.637387],[120.68571,31.637387],[120.68571,31.637387],[120.68571,31.637387],[120.68571,31.637387],[120.68571,31.637387],[120.68571,31.637387],[120.68571,31.637387],[120.68571,31.637387],[120.68571,31.637387],[120.68571,31.637387],[120.68571,31.637387],[120.68571,31.637387],[120.68571,31.637387],[120.68571,31.637387],[120.68571,31.637387],[120.68571,31.637387],[120.68571,31.637387],[120.68571,31.637387],[120.68571,31.637387],[120.68571,31.637387],[120.68571,31.637387],[120.68571,31.637387],[120.68571,31.637387],[120.68571,31.637387],[120.68571,31.637387],[120.68571,31.637387],[120.68571,31.637387],[120.68571,31.637387],[120.68571,31.637387],[120.68571,31.637387],[120.68571,31.637387],[120.68571,31.637387],[120.68571,31.637387],[120.68571,31.637387],[120.68571,31.637387],[120.68571,31.637387],[120.68571,31.637387],[120.68571,31.637387],[120.68571,31.637387],[120.68571,31.637387],[120.68571,31.637387],[120.68571,31.637387],[120.68571,31.637387],[120.68571,31.637387],[120.68571,31.637387],[120.68571,31.637387],[120.68571,31.637387],[120.68571,31.637387],[120.68571,31.637387],[120.68571,31.637387],[120.68571,31.637387],[120.68571,31.637387],[120.68571,31.637387],[120.68571,31.637387],[120.68571,31.637387],[120.68571,31.637387],[120.68571,31.637387],[120.68571,31.637387],[120.68571,31.637387],[120.68571,31.637387],[120.68571,31.637387],[120.68571,31.637387],[120.68571,31.637387],[120.68571,31.637387],[120.68571,31.637387],[120.68571,31.637387],[120.68571,31.637387],[120.68571,31.637387],[120.68571,31.637387],[120.68571,31.637387],[120.68571,31.637387],[120.68571,31.637387],[120.68571,31.637387],[120.68571,31.637387],[120.68571,31.637387],[120.68571,31.637387],[120.68571,31.637387],[120.68571,31.637387],[120.68571,31.637387],[120.68571,31.637387],[120.68571,31.637387],[120.68571,31.637387],[120.68571,31.637387],[120.68571,31.637387],[120.68571,31.637387],[120.68571,31.637387],[120.68571,31.637387],[120.68571,31.637387],[120.68571,31.637387],[120.68571,31.637387],[120.68571,31.637387],[120.68571,31.637387],[120.68571,31.637387],[120.68571,31.637387],[120.68571,31.637387],[120.68571,31.637387],[120.68571,31.637387],[120.68571,31.637387],[120.68571,31.637387],[120.68571,31.637387],[120.68571,31.637387],[120.68571,31.637387],[120.68571,31.637387],[120.68571,31.637387],[120.68571,31.637387],[120.68571,31.637387],[120.68571,31.637387],[120.68571,31.637387],[120.68571,31.637387],[120.68571,31.637387],[120.68571,31.637387],[120.68571,31.637387],[120.68571,31.637387],[120.68571,31.637387],[120.68571,31.637387],[120.68571,31.637387],[120.68571,31.637387],[120.68571,31.637387],[120.68571,31.637387],[120.68571,31.637387],[120.68571,31.637387],[120.68571,31.637387],[120.68571,31.637387],[120.68571,31.637387],[120.68571,31.637387],[120.68571,31.637387],[120.68571,31.637387],[120.68571,31.637387],[120.68571,31.637387],[120.68571,31.637387],[120.68571,31.637387],[120.68571,31.637387],[120.68571,31.637387],[120.68571,31.637387],[120.68571,31.637387],[120.68571,31.637387],[120.68571,31.637387],[120.68571,31.637387],[120.68571,31.637387],[120.68571,31.637387],[120.68571,31.637387],[120.68571,31.637387],[120.68571,31.637387],[120.68571,31.637387],[120.68571,31.637387],[120.68571,31.637387],[120.68571,31.637387],[120.68571,31.637387],[120.68571,31.637387],[120.68571,31.637387],[120.68571,31.637387],[120.68571,31.637387],[120.68571,31.637387],[120.68571,31.637387],[120.68571,31.637387],[120.68571,31.637387],[120.68571,31.637387],[120.68571,31.637387],[120.68571,31.637387],[120.68571,31.637387],[120.68571,31.637387],[120.68571,31.637387],[120.68571,31.637387],[120.68571,31.637387],[120.685726,31.637404],[120.685743,31.63742],[120.685759,31.637437],[120.685776,31.637453],[120.68581,31.637483],[120.685849,31.637517],[120.685895,31.637554],[120.685945,31.637597],[120.686,31.637645],[120.686058,31.637694],[120.686116,31.637743],[120.686173,31.637788],[120.686226,31.637833],[120.686282,31.637878],[120.686333,31.637921],[120.686378,31.637963],[120.686419,31.638006],[120.686453,31.638052],[120.686466,31.638108],[120.686513,31.638194],[120.686518,31.638563],[120.68652,31.638608],[120.686519,31.638659],[120.686518,31.638716],[120.686516,31.638777],[120.686512,31.638842],[120.686511,31.638909],[120.686509,31.638978],[120.686503,31.639048],[120.686492,31.639118],[120.686478,31.639189],[120.686466,31.639257],[120.68646,31.639323],[120.686456,31.639388],[120.686453,31.63945],[120.68645,31.63951],[120.686449,31.639567],[120.686449,31.639621],[120.686452,31.639672],[120.686457,31.63972],[120.686467,31.639765],[120.68648,31.639807],[120.686496,31.639847],[120.686512,31.639884],[120.686532,31.639921],[120.686551,31.639957],[120.686567,31.639993],[120.686583,31.640029],[120.686599,31.640065],[120.686613,31.640101],[120.686628,31.640138],[120.68664,31.640175],[120.68665,31.640212],[120.68666,31.640247],[120.68667,31.640282],[120.686677,31.640315],[120.68668,31.640347],[120.686684,31.640376],[120.686688,31.640403],[120.686691,31.640426],[120.686694,31.640446],[120.686696,31.640462],[120.686706,31.640506],[120.686721,31.640578],[120.686741,31.640636],[120.686769,31.640682],[120.686807,31.640723],[120.686845,31.640763],[120.68688,31.640801],[120.686915,31.640838],[120.686949,31.640876],[120.686986,31.640918],[120.687027,31.640964],[120.687074,31.641008],[120.687123,31.641049],[120.687169,31.641087],[120.687211,31.641122],[120.68725,31.641156],[120.687289,31.641193],[120.687326,31.641239],[120.687359,31.641289],[120.687387,31.641345],[120.68741,31.641405],[120.687429,31.641469],[120.687447,31.64154],[120.68746,31.641613],[120.687468,31.641687],[120.687473,31.641764],[120.687469,31.641836],[120.687457,31.641906],[120.687438,31.641972],[120.687416,31.642033],[120.687394,31.642092],[120.687376,31.642149],[120.687363,31.642204],[120.687356,31.64226],[120.687356,31.642317],[120.687365,31.642369],[120.687388,31.642417],[120.687417,31.642463],[120.68744,31.642509],[120.687454,31.642555],[120.687457,31.642599],[120.687448,31.642641],[120.68743,31.642681],[120.687412,31.64272],[120.687395,31.642758],[120.687385,31.642793],[120.687386,31.642826],[120.687396,31.642854],[120.687411,31.642878],[120.687424,31.642899],[120.687442,31.642924],[120.687465,31.642948],[120.687475,31.642959]]}}]}