{"type":"FeatureCollection","features":[{"type":"Feature","properties":{"id":"2026-08-08_cycling_47","type":"cycling","date":"2026-08-08"},"geometry":{"type":"LineString","coordinates":[[121.496007,31.235116],[121.496041,31.235082],[121.496071,31.235058],[121.496103,31.235028],[121.496137,31.234998],[121.496172,31.234967],[121.49621,31.234934],[121.496249,31.2349],[121.496296,31.234858],[121.496343,31.234816],[121.49639,31.234775],[121.496433,31.234736],[121.496475,31.234698],[121.496509,31.234669],[121.49654,31.234638],[121.49657,31.234608],[121.496599,31.234577],[121.496628,31.234542],[121.496658,31.234508],[121.496693,31.234473],[121.49674,31.234436],[121.496795,31.234398],[121.496854,31.23436],[121.496918,31.234318],[121.496978,31.234276],[121.497039,31.23423],[121.497092,31.234188],[121.497143,31.234147],[121.497191,31.234112],[121.49724,31.23408],[121.497278,31.234057],[121.497314,31.234035],[121.497347,31.234012],[121.497379,31.233986],[121.497413,31.233956],[121.497446,31.233922],[121.497477,31.233884],[121.497504,31.233844],[121.497529,31.233803],[121.49755,31.233764],[121.497569,31.233727],[121.497589,31.233694],[121.497613,31.233657],[121.497635,31.233621],[121.497649,31.233583],[121.497655,31.233543],[121.497648,31.233502],[121.497626,31.233466],[121.497594,31.233433],[121.497553,31.233407],[121.497505,31.233389],[121.497454,31.233379],[121.497408,31.233381],[121.497368,31.233396],[121.49734,31.233422],[121.497327,31.233454],[121.497329,31.233491],[121.497342,31.233527],[121.497363,31.233562],[121.4974,31.233591],[121.497441,31.233612],[121.497487,31.233623],[121.497537,31.233623],[121.497549,31.233666],[121.497593,31.233644],[121.497635,31.233618],[121.497674,31.233592],[121.497708,31.233566],[121.497754,31.233531],[121.497783,31.233508],[121.497812,31.233485],[121.497842,31.23346],[121.497872,31.233434],[121.49793,31.233363],[121.497964,31.233337],[121.498,31.23331],[121.498044,31.233279],[121.498086,31.233249],[121.498107,31.233244],[121.498148,31.233213],[121.498186,31.233183],[121.498216,31.233158],[121.498245,31.233134],[121.498297,31.233083],[121.498304,31.233085],[121.498334,31.233061],[121.498364,31.233036],[121.498374,31.233039],[121.498402,31.233014],[121.498449,31.232966],[121.498473,31.232944],[121.498498,31.232922],[121.498541,31.232872],[121.498573,31.232843],[121.498605,31.232812],[121.498638,31.23278],[121.49867,31.232747],[121.498699,31.232714],[121.49872,31.232685],[121.498739,31.232654],[121.498756,31.232623],[121.498773,31.23259],[121.498785,31.23258],[121.498808,31.232549],[121.498823,31.232542],[121.498853,31.232513],[121.498884,31.232486],[121.498924,31.232438],[121.498956,31.232415],[121.498998,31.232371],[121.499037,31.232348],[121.499076,31.232326],[121.499106,31.232327],[121.499147,31.232311],[121.499187,31.232294],[121.499215,31.232302],[121.499242,31.232287],[121.499275,31.232248],[121.499293,31.232248],[121.499302,31.23222],[121.499308,31.232166],[121.499308,31.232132],[121.499305,31.232095],[121.4993,31.232033],[121.499301,31.231994],[121.499308,31.231955],[121.499323,31.231918],[121.499356,31.231876],[121.4994,31.231836],[121.499451,31.231796],[121.499499,31.231772],[121.499549,31.231746],[121.499596,31.231709],[121.499642,31.231672],[121.499686,31.231636],[121.499733,31.231584],[121.499778,31.231533],[121.49981,31.23151],[121.49984,31.231486],[121.499873,31.231449],[121.499905,31.231408],[121.499939,31.231366],[121.499977,31.231311],[121.500017,31.231254],[121.500062,31.2312],[121.50011,31.231145],[121.500162,31.231094],[121.500218,31.231045],[121.500277,31.230999],[121.500328,31.230964],[121.500376,31.230929],[121.500419,31.230892],[121.500453,31.230854],[121.50048,31.230813],[121.500504,31.230771],[121.500527,31.230732],[121.500553,31.230695],[121.500585,31.230659],[121.500622,31.230625],[121.500665,31.230594],[121.500712,31.230563],[121.50077,31.230522],[121.500825,31.230481],[121.50088,31.230439],[121.50093,31.230395],[121.50098,31.230348],[121.501021,31.230308],[121.501062,31.230266],[121.501099,31.230226],[121.501141,31.230182],[121.501176,31.230137],[121.501207,31.230093],[121.501235,31.23005],[121.501266,31.230004],[121.50129,31.229965],[121.501318,31.229926],[121.50135,31.22989],[121.501385,31.229858],[121.501436,31.229822],[121.501491,31.229786],[121.501549,31.229751],[121.501605,31.229714],[121.50166,31.229673],[121.501702,31.229637],[121.501742,31.229597],[121.501781,31.229555],[121.501821,31.229512],[121.501859,31.229469],[121.501895,31.229426],[121.50193,31.229385],[121.501963,31.229347],[121.501994,31.229312],[121.502022,31.229279],[121.50205,31.229247],[121.502077,31.229216],[121.502109,31.229181],[121.502142,31.229145],[121.502174,31.229109],[121.502209,31.229072],[121.502243,31.229037],[121.50227,31.229007],[121.502296,31.228978],[121.502319,31.228948],[121.502339,31.228919],[121.502357,31.228891],[121.502377,31.228862],[121.5024,31.228835],[121.502426,31.22881],[121.502459,31.228788],[121.502501,31.228765],[121.502546,31.228738],[121.502589,31.228708],[121.502644,31.228661],[121.502689,31.228606],[121.502723,31.22855],[121.502752,31.228493],[121.502778,31.228437],[121.50279,31.228394],[121.502805,31.228354],[121.502822,31.228319],[121.502843,31.228288],[121.502868,31.228261],[121.502897,31.228236],[121.502933,31.228213],[121.502973,31.228187],[121.503013,31.228162],[121.503051,31.228133],[121.503085,31.2281],[121.503112,31.228065],[121.50314,31.228016],[121.503162,31.227963],[121.503183,31.227908],[121.503201,31.227855],[121.503221,31.227801],[121.503238,31.227758],[121.503257,31.227714],[121.503276,31.227668],[121.503293,31.227621],[121.503309,31.227575],[121.503321,31.227532],[121.503333,31.227492],[121.503347,31.227454],[121.503362,31.227416],[121.50338,31.22738],[121.5034,31.227339],[121.50342,31.227297],[121.503445,31.22725],[121.50347,31.227205],[121.503495,31.227163],[121.503521,31.227124],[121.503548,31.227089],[121.503572,31.227063],[121.503601,31.227041],[121.503634,31.227021],[121.50367,31.227003],[121.503708,31.226985],[121.503751,31.226967],[121.503793,31.226948],[121.503833,31.226931],[121.503872,31.226914],[121.503911,31.226897],[121.503948,31.226882],[121.503984,31.226867],[121.50403,31.226843],[121.504074,31.226815],[121.504116,31.226783],[121.504158,31.226745],[121.504198,31.226701],[121.504229,31.226659],[121.504261,31.226616],[121.504296,31.226572],[121.504331,31.226527],[121.504368,31.226482],[121.504406,31.226438],[121.504442,31.226398],[121.504474,31.226359],[121.504503,31.226324],[121.504527,31.226292],[121.50455,31.226263],[121.504572,31.226232],[121.504602,31.226196],[121.504632,31.226164],[121.504664,31.226135],[121.504698,31.226111],[121.504732,31.226094],[121.504761,31.226086],[121.504789,31.226078],[121.504819,31.226068],[121.504847,31.226058],[121.504873,31.226042],[121.504896,31.226021],[121.504916,31.225994],[121.504934,31.225963],[121.504948,31.225928],[121.504963,31.225891],[121.504978,31.225854],[121.504995,31.225818],[121.505018,31.225776],[121.505042,31.225735],[121.505068,31.225696],[121.505093,31.225656],[121.505118,31.225617],[121.505136,31.225585],[121.505149,31.225557],[121.505159,31.225533],[121.505167,31.225518],[121.505174,31.22551],[121.505179,31.22551],[121.505183,31.225517],[121.505185,31.225532],[121.505183,31.225547],[121.505174,31.225566],[121.505159,31.225581],[121.50514,31.225592],[121.505122,31.225595],[121.505107,31.225595],[121.505096,31.225592],[121.50509,31.225588],[121.505086,31.225586],[121.505086,31.225587],[121.505085,31.225587],[121.505085,31.225587],[121.505085,31.225586],[121.505086,31.225586],[121.505086,31.225585],[121.505085,31.225585],[121.505085,31.225585],[121.505085,31.225585],[121.505085,31.225585],[121.505085,31.225585],[121.505085,31.225585],[121.505085,31.225585],[121.505085,31.225585],[121.505086,31.225585],[121.505086,31.225585],[121.505087,31.225585],[121.505087,31.225585],[121.505087,31.225585],[121.505088,31.225583],[121.505089,31.22558],[121.505092,31.225574],[121.505095,31.225566],[121.5051,31.225559],[121.505106,31.22555],[121.505112,31.225541],[121.50512,31.225533],[121.505129,31.225526],[121.50514,31.225519],[121.505149,31.225513],[121.505155,31.225506],[121.505162,31.225499],[121.505166,31.225493],[121.505166,31.225483],[121.505167,31.22547],[121.505172,31.225457],[121.505176,31.225441],[121.505183,31.225422],[121.505197,31.225405],[121.505213,31.225384],[121.50523,31.225361],[121.505251,31.225336],[121.505273,31.225311],[121.505293,31.225285],[121.505312,31.225261],[121.505331,31.225238],[121.505351,31.225216],[121.505372,31.225182],[121.505396,31.225144],[121.505422,31.225102],[121.505448,31.225057],[121.505474,31.225012],[121.505498,31.224976],[121.505522,31.224943],[121.505545,31.224912],[121.505566,31.224883],[121.505586,31.224853],[121.505604,31.224823],[121.505622,31.224793],[121.505639,31.22476],[121.505656,31.224727],[121.505673,31.224693],[121.505691,31.22466],[121.50571,31.224629],[121.505734,31.224595],[121.505758,31.224562],[121.505783,31.224526],[121.505806,31.22449],[121.505829,31.224451],[121.505846,31.224415],[121.505862,31.224379],[121.505879,31.224343],[121.505897,31.224307],[121.505914,31.224271],[121.505932,31.224233],[121.505949,31.224195],[121.505967,31.224156],[121.505985,31.224118],[121.506005,31.224079],[121.506027,31.224042],[121.506051,31.224005],[121.50608,31.223963],[121.50611,31.223919],[121.506139,31.223875],[121.506168,31.223831],[121.506196,31.223789],[121.506217,31.223753],[121.506238,31.223718],[121.506257,31.223683],[121.506275,31.223648],[121.506293,31.223611],[121.506312,31.223573],[121.506331,31.223536],[121.506348,31.223499],[121.506363,31.223461],[121.506372,31.223419],[121.506375,31.223376],[121.506374,31.223332],[121.50637,31.223288],[121.506365,31.223247],[121.506362,31.223209],[121.506361,31.223173],[121.506363,31.223138],[121.506367,31.223106],[121.506377,31.223074],[121.506391,31.223043],[121.506409,31.223013],[121.506431,31.222982],[121.506454,31.222951],[121.506475,31.222916],[121.506496,31.222879],[121.506517,31.222837],[121.506539,31.222794],[121.506561,31.222749],[121.506583,31.222706],[121.506604,31.222665],[121.506627,31.222619],[121.506649,31.222573],[121.506671,31.222526],[121.506696,31.222476],[121.506722,31.222423],[121.506747,31.222375],[121.506772,31.222327],[121.506799,31.222279],[121.506825,31.22223],[121.506851,31.222184],[121.506875,31.222141],[121.506899,31.222099],[121.50692,31.22206],[121.506938,31.222024],[121.506954,31.221988],[121.506968,31.22195],[121.50698,31.221914],[121.506998,31.221865],[121.507018,31.221815],[121.507039,31.221764],[121.507063,31.221714],[121.50709,31.221666],[121.507112,31.221629],[121.507133,31.221592],[121.507152,31.221556],[121.507169,31.221521],[121.507184,31.221487],[121.507198,31.221456],[121.507215,31.221429],[121.507237,31.221405],[121.50726,31.221382],[121.507285,31.221359],[121.507311,31.221332],[121.507335,31.221302],[121.50736,31.221259],[121.507383,31.221214],[121.507402,31.221169],[121.507421,31.221124],[121.507438,31.221084],[121.50745,31.221052],[121.507463,31.221019],[121.507474,31.220985],[121.507486,31.22095],[121.5075,31.220913],[121.507514,31.220876],[121.507527,31.220838],[121.50754,31.220801],[121.507555,31.22076],[121.50757,31.220719],[121.507585,31.220675],[121.5076,31.220629],[121.507618,31.220574],[121.507635,31.220521],[121.507651,31.220469],[121.507667,31.220419],[121.507681,31.220371],[121.507692,31.220331],[121.507703,31.220292],[121.507713,31.220255],[121.507723,31.220221],[121.507734,31.220187],[121.507747,31.220154],[121.507762,31.220121],[121.50778,31.220084],[121.507797,31.220045],[121.507814,31.220005],[121.507829,31.219964],[121.507843,31.219923],[121.507857,31.219875],[121.507873,31.219828],[121.507891,31.21978],[121.50791,31.219734],[121.507928,31.219688],[121.507944,31.21965],[121.507959,31.219611],[121.507972,31.219574],[121.507985,31.219536],[121.508,31.219496],[121.508014,31.219456],[121.508028,31.219416],[121.508041,31.219378],[121.508053,31.219341],[121.508066,31.219305],[121.508078,31.219271],[121.508091,31.219238],[121.508107,31.219199],[121.508123,31.219161],[121.508139,31.219122],[121.508154,31.219085],[121.508168,31.219047],[121.508179,31.219013],[121.50819,31.218975],[121.5082,31.218933],[121.508211,31.218887],[121.508222,31.218837],[121.508234,31.218785],[121.508245,31.218731],[121.508258,31.218679],[121.508272,31.21863],[121.508284,31.218583],[121.508295,31.218537],[121.508304,31.218494],[121.508313,31.218441],[121.508321,31.218389],[121.508329,31.218338],[121.508339,31.218289],[121.508351,31.21824],[121.508359,31.218201],[121.508369,31.21816],[121.508376,31.21812],[121.508382,31.218079],[121.508384,31.218039],[121.508379,31.218],[121.508365,31.217962],[121.508346,31.217925],[121.508322,31.217889],[121.508298,31.217853],[121.508278,31.217815],[121.508263,31.217775],[121.508258,31.217728],[121.508259,31.21768],[121.508266,31.217633],[121.508276,31.217588],[121.508289,31.217544],[121.508303,31.217508],[121.508319,31.217471],[121.508336,31.217435],[121.508353,31.217398],[121.508372,31.217362],[121.508388,31.217327],[121.508404,31.217292],[121.508417,31.217257],[121.508424,31.217222],[121.508422,31.217189],[121.508412,31.217155],[121.508393,31.217122],[121.508362,31.217086],[121.508328,31.217051],[121.508295,31.217015],[121.508264,31.216981],[121.508234,31.216945],[121.508212,31.216913],[121.508191,31.21688],[121.508169,31.216846],[121.508143,31.216809],[121.508118,31.216774],[121.508091,31.216739],[121.508064,31.216704],[121.508036,31.216669],[121.50801,31.216634],[121.507986,31.216597],[121.507964,31.21656],[121.507944,31.216521],[121.507928,31.216479],[121.507915,31.216439],[121.507904,31.2164],[121.507896,31.216361],[121.507888,31.216323],[121.507882,31.21629],[121.507875,31.216258],[121.507868,31.216226],[121.507859,31.216194],[121.507851,31.216163],[121.507842,31.216132],[121.507833,31.216101],[121.507824,31.216069],[121.507815,31.216037],[121.507805,31.216007],[121.507795,31.215977],[121.507784,31.215945],[121.507772,31.215905],[121.507759,31.215864],[121.507747,31.215822],[121.507736,31.215779],[121.507725,31.215737],[121.507716,31.215701],[121.507708,31.215665],[121.507699,31.215628],[121.50769,31.215589],[121.507681,31.21555],[121.507671,31.215512],[121.507661,31.215474],[121.507656,31.215437],[121.507655,31.215401],[121.507664,31.215366],[121.507682,31.215329],[121.507707,31.215292],[121.50774,31.215244],[121.507775,31.215196],[121.507809,31.215148],[121.50784,31.215101],[121.507867,31.215054],[121.507883,31.215015],[121.507889,31.214975],[121.507883,31.214936],[121.507866,31.214897],[121.507844,31.214856],[121.50782,31.214817],[121.507797,31.214776],[121.507777,31.214734],[121.507758,31.214688],[121.507738,31.214641],[121.507715,31.214593],[121.507689,31.214545],[121.507657,31.214489],[121.507625,31.214435],[121.50759,31.214384],[121.507554,31.214336],[121.50751,31.214293],[121.507463,31.214267],[121.507411,31.214248],[121.507358,31.214237],[121.507307,31.214231],[121.507265,31.21423],[121.507232,31.214231],[121.507205,31.214232],[121.507182,31.214233],[121.507161,31.214234],[121.507139,31.214234],[121.507115,31.214234],[121.507089,31.21423],[121.507058,31.214215],[121.507028,31.214194],[121.507,31.214166],[121.506975,31.21413],[121.506951,31.214088],[121.50693,31.214048],[121.506908,31.214007],[121.506883,31.213965],[121.506854,31.213923],[121.506819,31.213883],[121.506782,31.213843],[121.506741,31.213803],[121.506703,31.213763],[121.506668,31.213722],[121.506637,31.213682],[121.506608,31.213643],[121.50658,31.213605],[121.506548,31.213563],[121.506515,31.213522],[121.506483,31.213482],[121.506452,31.213442],[121.506422,31.213401],[121.5064,31.213365],[121.506378,31.21333],[121.506358,31.213296],[121.506338,31.213262],[121.50632,31.213227],[121.506301,31.213193],[121.506282,31.213158],[121.506263,31.213123],[121.506243,31.213087],[121.506224,31.213053],[121.506205,31.213018],[121.506187,31.212984],[121.506164,31.212944],[121.506142,31.212904],[121.506119,31.212865],[121.506094,31.212827],[121.506066,31.212791],[121.506039,31.212764],[121.50601,31.212737],[121.505981,31.212712],[121.505952,31.212687],[121.505923,31.212661],[121.505895,31.212634],[121.505868,31.212607],[121.505843,31.212578],[121.505821,31.212548],[121.505801,31.212518],[121.505782,31.212488],[121.505763,31.212457],[121.505741,31.21242],[121.505719,31.212382],[121.505698,31.212342],[121.505677,31.212301],[121.505657,31.212261],[121.505641,31.212225],[121.505628,31.21219],[121.505619,31.212155],[121.505613,31.21212],[121.505612,31.212086],[121.505613,31.212051],[121.505613,31.212014],[121.505609,31.211975],[121.505599,31.211935],[121.505584,31.211895],[121.505567,31.211857],[121.505552,31.211823],[121.505539,31.211788],[121.505531,31.211757],[121.505524,31.211727],[121.505518,31.211699],[121.50551,31.21167],[121.505499,31.211645],[121.505487,31.21162],[121.505475,31.211594],[121.505463,31.211568],[121.505451,31.211542],[121.505438,31.211517],[121.505424,31.211491],[121.50541,31.211464],[121.505396,31.211437],[121.505382,31.211409],[121.505367,31.211382],[121.505353,31.211356],[121.505335,31.211325],[121.505317,31.211293],[121.505297,31.211261],[121.505279,31.211227],[121.505261,31.211193],[121.505246,31.211163],[121.505233,31.211134],[121.505219,31.211104],[121.505207,31.211073],[121.505198,31.211042],[121.505191,31.21101],[121.505187,31.210977],[121.505189,31.210945],[121.505195,31.210914],[121.505204,31.210886],[121.505216,31.210857],[121.505232,31.21083],[121.505251,31.210799],[121.505268,31.210768],[121.505281,31.210736],[121.505291,31.210706],[121.505292,31.210675],[121.505282,31.210648],[121.505266,31.210623],[121.505243,31.210599],[121.505214,31.210576],[121.505182,31.210555],[121.505149,31.210533],[121.505117,31.210512],[121.505087,31.210491],[121.505061,31.21047],[121.505035,31.210449],[121.505009,31.210428],[121.504979,31.210405],[121.504945,31.21037],[121.504911,31.210331],[121.504878,31.210289],[121.504848,31.210243],[121.504821,31.210197],[121.504801,31.210159],[121.504781,31.210122],[121.504762,31.210087],[121.504743,31.210053],[121.504723,31.21002],[121.504701,31.209987],[121.504682,31.209954],[121.504662,31.20992],[121.504644,31.209888],[121.504626,31.209856],[121.50461,31.209825],[121.504594,31.209795],[121.504575,31.209761],[121.504556,31.209726],[121.504536,31.209691],[121.504517,31.209654],[121.504496,31.209617],[121.504476,31.209582],[121.504454,31.209546],[121.504432,31.209509],[121.504408,31.209471],[121.504383,31.209432],[121.504359,31.209395],[121.504334,31.20936],[121.504309,31.209327],[121.504284,31.209295],[121.50426,31.209262],[121.504237,31.209228],[121.504218,31.209193],[121.504198,31.209148],[121.504179,31.209102],[121.504162,31.209058],[121.504144,31.209015],[121.504126,31.208973],[121.504106,31.208939],[121.504086,31.208905],[121.504065,31.20887],[121.504042,31.208833],[121.504021,31.208797],[121.503999,31.208761],[121.503979,31.208727],[121.50396,31.208696],[121.503944,31.208666],[121.503932,31.208636],[121.503924,31.208605],[121.503923,31.208575],[121.503933,31.208541],[121.503948,31.208507],[121.503968,31.208474],[121.503989,31.208443],[121.504013,31.208411],[121.504034,31.208384],[121.504054,31.208355],[121.504075,31.208327],[121.504097,31.2083],[121.504118,31.208275],[121.504137,31.20825],[121.504156,31.208225],[121.504175,31.208201],[121.504194,31.208177],[121.504216,31.208152],[121.504238,31.208126],[121.504261,31.2081],[121.504285,31.208067],[121.504307,31.208033],[121.504326,31.207999],[121.504341,31.207965],[121.504354,31.20793],[121.504361,31.207901],[121.504364,31.207872],[121.504365,31.207843],[121.504363,31.207815],[121.504357,31.207787],[121.504348,31.20776],[121.504337,31.207735],[121.504323,31.207711],[121.504309,31.207687],[121.504293,31.207663],[121.504277,31.207637],[121.50426,31.207609],[121.504242,31.207574],[121.504224,31.207537],[121.504206,31.207501],[121.504188,31.207467],[121.50417,31.207432],[121.504153,31.207403],[121.504136,31.207373],[121.504117,31.207343],[121.504099,31.207311],[121.504079,31.207281],[121.504059,31.207252],[121.50404,31.207225],[121.504024,31.207203],[121.504012,31.207184],[121.504002,31.207168],[121.503995,31.207156],[121.503994,31.207138],[121.503977,31.207113],[121.503942,31.207101],[121.503919,31.207012],[121.503895,31.206967],[121.503875,31.206918],[121.503858,31.206888],[121.503844,31.20686],[121.503829,31.206833],[121.503814,31.206806],[121.503798,31.206777],[121.503779,31.206746],[121.50376,31.206713],[121.503741,31.206678],[121.503722,31.206642],[121.503702,31.206607],[121.50368,31.206563],[121.503661,31.206518],[121.503647,31.206473],[121.503637,31.206428],[121.503635,31.206382],[121.503645,31.206347],[121.50366,31.206313],[121.50368,31.206279],[121.5037,31.20625],[121.50372,31.206219],[121.503739,31.206188],[121.503757,31.206157],[121.503773,31.206127],[121.503791,31.206094],[121.503807,31.206062],[121.503821,31.206029],[121.503831,31.205994],[121.503835,31.205951],[121.503833,31.205906],[121.503826,31.205861],[121.503812,31.205817],[121.503792,31.205774],[121.503766,31.20574],[121.503737,31.205709],[121.503704,31.205681],[121.503668,31.205656],[121.503631,31.205634],[121.503592,31.205614],[121.503553,31.205592],[121.503515,31.205573],[121.503476,31.205554],[121.503439,31.205536],[121.503402,31.205519],[121.503364,31.205504],[121.503317,31.205487],[121.503269,31.20547],[121.503219,31.205452],[121.503167,31.205432],[121.503115,31.205414],[121.503072,31.205398],[121.503028,31.205382],[121.502985,31.205367],[121.502941,31.205353],[121.502895,31.205338],[121.502849,31.205322],[121.502802,31.205307],[121.502753,31.20529],[121.502702,31.20527],[121.502649,31.205247],[121.502594,31.205222],[121.502538,31.205197],[121.502473,31.205168],[121.502409,31.205143],[121.502344,31.20512],[121.502281,31.205099],[121.502218,31.205079],[121.502167,31.205062],[121.502118,31.205043],[121.502073,31.205021],[121.502034,31.204997],[121.502001,31.204967],[121.501975,31.204932],[121.501956,31.204895],[121.501943,31.204855],[121.501934,31.204813],[121.501932,31.204771],[121.501938,31.20473],[121.50195,31.204688],[121.501973,31.204638],[121.502,31.204589],[121.502026,31.204539],[121.502048,31.204489],[121.502063,31.204438],[121.502067,31.204393],[121.50206,31.204349],[121.502047,31.204307],[121.502026,31.204268],[121.501999,31.20423],[121.501966,31.204196],[121.501928,31.204166],[121.501887,31.204139],[121.501845,31.204114],[121.501801,31.204091],[121.501758,31.204069],[121.501715,31.204046],[121.501664,31.204019],[121.501612,31.203991],[121.501559,31.203964],[121.501506,31.203936],[121.501452,31.203907],[121.501408,31.203881],[121.501366,31.203852],[121.501323,31.203823],[121.501281,31.203792],[121.501238,31.203758],[121.501193,31.203724],[121.501147,31.203688],[121.501102,31.203649],[121.501055,31.20361],[121.501007,31.203571],[121.500958,31.203533],[121.500906,31.203497],[121.500849,31.203453],[121.500795,31.203408],[121.500742,31.20336],[121.50069,31.20331],[121.500637,31.203257],[121.500591,31.203209],[121.500544,31.203159],[121.500498,31.203105],[121.500454,31.203049],[121.500413,31.202993],[121.500374,31.202936],[121.500335,31.202881],[121.5003,31.202828],[121.500268,31.202776],[121.500241,31.202726],[121.500223,31.202678],[121.500214,31.202637],[121.500212,31.202595],[121.500213,31.20256],[121.500215,31.202528],[121.500214,31.202498],[121.500209,31.20247],[121.500199,31.202445],[121.500188,31.202421],[121.500177,31.202399],[121.500164,31.202377],[121.50015,31.202355],[121.500137,31.202333],[121.500124,31.202311],[121.50011,31.202287],[121.500098,31.202264],[121.500086,31.202242],[121.500075,31.202221],[121.500065,31.202199],[121.500051,31.202173],[121.500039,31.202146],[121.500027,31.202119],[121.500015,31.202091],[121.500001,31.202063],[121.49999,31.20204],[121.499979,31.202017],[121.499968,31.201994],[121.499958,31.201968],[121.499947,31.201941],[121.499936,31.201914],[121.499925,31.201887],[121.499911,31.201859],[121.499895,31.201833],[121.499876,31.201806],[121.499856,31.201777],[121.499835,31.201748],[121.49981,31.201715],[121.499784,31.201683],[121.49976,31.201653],[121.499738,31.201624],[121.499717,31.201597],[121.499702,31.201574],[121.499686,31.20155],[121.499669,31.201524],[121.499652,31.201498],[121.499631,31.201469],[121.499609,31.201439],[121.499589,31.201407],[121.499566,31.201375],[121.499543,31.201345],[121.499519,31.201316],[121.499493,31.201291],[121.499463,31.201267],[121.499422,31.201239],[121.499378,31.201209],[121.499332,31.201176],[121.499285,31.201139],[121.499236,31.201098],[121.499196,31.20106],[121.499159,31.201022],[121.499125,31.200983],[121.499094,31.200947],[121.499067,31.200913],[121.499043,31.200879],[121.499024,31.200846],[121.499007,31.200813],[121.498994,31.200783],[121.498983,31.200756],[121.498971,31.200731],[121.498959,31.200709],[121.498943,31.200679],[121.498927,31.200647],[121.498913,31.200613],[121.4989,31.200574],[121.498887,31.200533],[121.498877,31.200498],[121.498867,31.200464],[121.498857,31.200431],[121.498847,31.2004],[121.498838,31.20037],[121.498831,31.200343],[121.498825,31.200318],[121.498816,31.200295],[121.498806,31.200272],[121.498795,31.200248],[121.498783,31.200224],[121.498771,31.200197],[121.498758,31.200165],[121.498746,31.200133],[121.498736,31.200099],[121.498725,31.200063],[121.498713,31.200025],[121.498702,31.199987],[121.49869,31.199944],[121.498674,31.199903],[121.498654,31.199864],[121.498632,31.19983],[121.498611,31.199802],[121.498592,31.199778],[121.498575,31.199759],[121.49856,31.19974],[121.498546,31.199722],[121.498533,31.199704],[121.498519,31.199685],[121.498499,31.19966],[121.498478,31.199631],[121.498455,31.199599],[121.49843,31.199564],[121.498403,31.199526],[121.498374,31.199488],[121.49834,31.199452],[121.498298,31.199415],[121.498247,31.199378],[121.498186,31.19934],[121.498122,31.199306],[121.498054,31.199271],[121.497985,31.199236],[121.497921,31.199201],[121.497863,31.199165],[121.497808,31.199128],[121.497756,31.199092],[121.497697,31.199047],[121.497641,31.199002],[121.497588,31.198956],[121.497537,31.198909],[121.497486,31.19886],[121.497444,31.198815],[121.497405,31.198768],[121.497365,31.19872],[121.497327,31.198671],[121.497293,31.198622],[121.497262,31.198572],[121.497231,31.198522],[121.497202,31.198472],[121.497171,31.198422],[121.497142,31.19837],[121.497117,31.198317],[121.4971,31.198265],[121.497092,31.198205],[121.497093,31.198147],[121.497099,31.198093],[121.497107,31.198042],[121.497116,31.197995],[121.497122,31.19796],[121.497128,31.197926],[121.497133,31.197895],[121.497135,31.197865],[121.497135,31.197836],[121.497132,31.197808],[121.497127,31.197781],[121.497122,31.197753],[121.49712,31.197725],[121.49712,31.197696],[121.497123,31.197667],[121.497125,31.197639],[121.497127,31.197606],[121.497127,31.197574],[121.497125,31.197542],[121.497122,31.19751],[121.497116,31.197479],[121.497108,31.197452],[121.497098,31.197426],[121.497084,31.1974],[121.497068,31.197375],[121.49705,31.19735],[121.497033,31.197327],[121.497014,31.197305],[121.496995,31.197285],[121.496974,31.197266],[121.496951,31.197251],[121.496927,31.197237],[121.4969,31.197226],[121.496865,31.197215],[121.496831,31.197204],[121.496796,31.197195],[121.496762,31.197186],[121.496729,31.197177],[121.496703,31.197172],[121.496677,31.197166],[121.496651,31.197163],[121.496626,31.197161],[121.496602,31.19716],[121.496579,31.197161],[121.496557,31.197164],[121.496534,31.197168],[121.496511,31.197172],[121.496488,31.197177],[121.496462,31.197183],[121.496435,31.19719],[121.496401,31.197196],[121.496365,31.197203],[121.496326,31.197209],[121.496288,31.197213],[121.496248,31.197217],[121.496214,31.197219],[121.496179,31.197219],[121.496144,31.197218],[121.496109,31.197213],[121.496074,31.197205],[121.496038,31.197193],[121.496004,31.197175],[121.495972,31.197152],[121.495943,31.197123],[121.495914,31.197091],[121.495887,31.197055],[121.495858,31.197018],[121.49582,31.196973],[121.495779,31.196924],[121.495733,31.196876],[121.495685,31.196826],[121.495635,31.196773],[121.49559,31.196727],[121.495542,31.196678],[121.495491,31.196629],[121.495437,31.196578],[121.495383,31.196524],[121.495329,31.19647],[121.495274,31.196414],[121.495221,31.196355],[121.495169,31.196293],[121.495123,31.196227],[121.495086,31.196159],[121.495057,31.196088],[121.495033,31.196008],[121.495013,31.195931],[121.494996,31.19586],[121.494978,31.195794],[121.494959,31.195734],[121.494947,31.195689],[121.494937,31.195646],[121.494931,31.195604],[121.494929,31.195563],[121.494925,31.195523],[121.494916,31.195485],[121.494899,31.19545],[121.494876,31.195417],[121.494849,31.195391],[121.494821,31.195368],[121.494794,31.195349],[121.494771,31.195332],[121.494746,31.195313],[121.494719,31.195293],[121.494689,31.195273],[121.494656,31.195251],[121.494621,31.195227],[121.494591,31.195204],[121.494561,31.195181],[121.494532,31.195157],[121.494503,31.195131],[121.494474,31.195103],[121.494443,31.195071],[121.494411,31.195037],[121.49438,31.195002],[121.494347,31.194969],[121.494311,31.194937],[121.494276,31.19491],[121.494237,31.194887],[121.49419,31.194862],[121.494143,31.194838],[121.494097,31.194814],[121.494052,31.19479],[121.494012,31.194765],[121.493982,31.194744],[121.493957,31.19472],[121.493937,31.194693],[121.49392,31.194666],[121.493906,31.194638],[121.493895,31.194611],[121.493885,31.194585],[121.493873,31.194562],[121.493861,31.194538],[121.49385,31.194514],[121.493839,31.19449],[121.49383,31.194466],[121.493819,31.194438],[121.493808,31.194412],[121.493794,31.194388],[121.493778,31.194365],[121.493757,31.194343],[121.493738,31.194326],[121.49372,31.194308],[121.4937,31.194289],[121.493678,31.19427],[121.493656,31.194251],[121.493631,31.194231],[121.493605,31.194213],[121.493579,31.194194],[121.493553,31.194174],[121.493526,31.194154],[121.493497,31.194134],[121.493465,31.194114],[121.493426,31.194089],[121.493385,31.194065],[121.493345,31.19404],[121.493305,31.194014],[121.493267,31.193988],[121.493237,31.193967],[121.493206,31.193947],[121.493173,31.193927],[121.49314,31.193906],[121.493106,31.193886],[121.493073,31.193865],[121.49304,31.193843],[121.493008,31.193821],[121.492976,31.193799],[121.492942,31.193776],[121.492907,31.193755],[121.492872,31.193733],[121.492833,31.193707],[121.492796,31.19368],[121.492762,31.193653],[121.49273,31.193625],[121.492697,31.193596],[121.492666,31.193571],[121.492634,31.193548],[121.4926,31.193524],[121.492564,31.193502],[121.492529,31.19348],[121.492493,31.193459],[121.492458,31.193437],[121.492421,31.193415],[121.492384,31.193392],[121.492346,31.193368],[121.49231,31.193345],[121.492274,31.193322],[121.492231,31.193293],[121.492189,31.193263],[121.492147,31.193235],[121.492104,31.193208],[121.49206,31.193181],[121.492025,31.19316],[121.49199,31.193139],[121.491956,31.193118],[121.491922,31.193098],[121.49189,31.19308],[121.491859,31.193063],[121.491826,31.193047],[121.491793,31.193032],[121.491757,31.193019],[121.49172,31.193007],[121.49168,31.192996],[121.491638,31.192985],[121.491584,31.192965],[121.491529,31.19294],[121.491472,31.19291],[121.491416,31.192874],[121.491364,31.192834],[121.491326,31.192796],[121.491293,31.192754],[121.491264,31.19271],[121.491236,31.192665],[121.491208,31.192623],[121.491178,31.192583],[121.491147,31.192545],[121.491116,31.192509],[121.491086,31.192474],[121.491058,31.192437],[121.491031,31.192396],[121.491004,31.192358],[121.490965,31.192319],[121.490918,31.192286],[121.490866,31.192263],[121.490806,31.192249],[121.490742,31.192246],[121.490688,31.192257],[121.490638,31.192275],[121.490595,31.1923],[121.490559,31.192329],[121.490525,31.192361],[121.490493,31.192392],[121.490459,31.192422],[121.490423,31.192449],[121.490385,31.192472],[121.490347,31.192492],[121.490312,31.192508],[121.490279,31.19252],[121.490243,31.19253],[121.490208,31.192537],[121.490173,31.192542],[121.490139,31.192545],[121.490104,31.192547],[121.490075,31.192546],[121.490048,31.192543],[121.49002,31.192542],[121.489994,31.192542],[121.489974,31.192544],[121.48996,31.192546],[121.489953,31.192549],[121.489951,31.192552],[121.489953,31.192555],[121.489955,31.192557],[121.489956,31.19256],[121.489956,31.192562],[121.489956,31.192563],[121.489956,31.192563],[121.489956,31.192564],[121.489956,31.192564],[121.489956,31.192564],[121.489956,31.192564],[121.489956,31.192564],[121.489956,31.192564],[121.489956,31.192564],[121.489956,31.192564],[121.489956,31.192564],[121.489956,31.192564],[121.489956,31.192564],[121.489956,31.192564],[121.489957,31.192564],[121.489957,31.192564],[121.489958,31.192564],[121.48996,31.192565],[121.489961,31.192565],[121.489962,31.192565],[121.489962,31.192565],[121.489962,31.192565],[121.489962,31.192565],[121.489962,31.192565],[121.489962,31.192565],[121.489962,31.192565],[121.489962,31.192565],[121.489962,31.192565],[121.489962,31.192565],[121.489962,31.192565],[121.489962,31.192565],[121.489962,31.192565],[121.489962,31.192565],[121.489962,31.192565],[121.489962,31.192565],[121.489962,31.192565],[121.489962,31.192565],[121.489962,31.192565],[121.489962,31.192565],[121.489962,31.192565],[121.489962,31.192565],[121.489963,31.192564],[121.489964,31.192564],[121.489965,31.192563],[121.489966,31.192563],[121.489967,31.192562],[121.489966,31.192563],[121.489964,31.192563],[121.489963,31.192564],[121.489961,31.192564],[121.48996,31.192564],[121.48996,31.192564],[121.48996,31.192564],[121.48996,31.192564],[121.48996,31.192564],[121.48996,31.192564],[121.48996,31.192564],[121.48996,31.192564],[121.48996,31.192564],[121.48996,31.192564],[121.48996,31.192564],[121.489959,31.192565],[121.489959,31.192565],[121.489958,31.192565],[121.489958,31.192565],[121.489958,31.192566],[121.489958,31.192566],[121.489957,31.192565],[121.489957,31.192564],[121.489957,31.192564],[121.489957,31.192563],[121.489956,31.192563],[121.489956,31.192563],[121.489956,31.192562],[121.489957,31.192561],[121.489959,31.19256],[121.48996,31.192559],[121.489962,31.192558],[121.489962,31.192558],[121.48996,31.192559],[121.489957,31.192561],[121.489954,31.192563],[121.489951,31.192564],[121.489949,31.192566],[121.489948,31.192564],[121.489951,31.19257],[121.487354,31.191556],[121.487335,31.191541],[121.487319,31.191526],[121.4873,31.191512],[121.487276,31.191498],[121.487257,31.191489],[121.48724,31.191482],[121.487221,31.191475],[121.487218,31.191477],[121.487232,31.19147],[121.487229,31.191468],[121.487223,31.191473],[121.487217,31.191477],[121.48721,31.191484],[121.487203,31.191492],[121.487196,31.191503],[121.48719,31.191517],[121.487185,31.191535],[121.487176,31.19156],[121.487166,31.191588],[121.487154,31.191616],[121.487138,31.191641],[121.487115,31.19166],[121.487091,31.191667],[121.487061,31.191669],[121.487028,31.191663],[121.486993,31.191654],[121.486959,31.191645],[121.486925,31.191635],[121.486912,31.19163],[121.486878,31.19162],[121.486844,31.191612],[121.486811,31.191605],[121.486779,31.191598],[121.486727,31.191588],[121.486688,31.191579],[121.48665,31.191569],[121.486611,31.191558],[121.486572,31.191545],[121.486533,31.191528],[121.4865,31.191514],[121.486469,31.191499],[121.486439,31.191482],[121.48641,31.191461],[121.486388,31.191434],[121.486374,31.191403],[121.486368,31.191366],[121.486367,31.191324],[121.486369,31.191292],[121.486368,31.191262],[121.486349,31.19123],[121.486316,31.191204],[121.486263,31.191179],[121.486203,31.191146],[121.486138,31.191113],[121.486082,31.191085],[121.486029,31.191057],[121.485985,31.191034],[121.485943,31.191013],[121.485897,31.190996],[121.485848,31.190982],[121.4858,31.190969],[121.485752,31.190957],[121.485704,31.190945],[121.485658,31.190932],[121.485614,31.19092],[121.485571,31.190908],[121.485532,31.190895],[121.485494,31.190884],[121.485458,31.190874],[121.485424,31.190866],[121.485389,31.190858],[121.485354,31.190852],[121.485319,31.190845],[121.485285,31.190839],[121.485254,31.190832],[121.485225,31.190824],[121.485205,31.190815],[121.485179,31.190805],[121.485152,31.190793],[121.48512,31.19078],[121.485084,31.190764],[121.48504,31.190746],[121.485009,31.190729],[121.48497,31.190712],[121.484932,31.190699],[121.484894,31.190692],[121.484842,31.190691],[121.484779,31.190694],[121.484718,31.190702],[121.484656,31.190709],[121.484592,31.190718],[121.484536,31.190724],[121.484479,31.190729],[121.484422,31.190731],[121.484367,31.190727],[121.484312,31.19072],[121.48426,31.19071],[121.484208,31.190696],[121.484159,31.190683],[121.484109,31.19067],[121.484061,31.190657],[121.484013,31.190644],[121.483966,31.190633],[121.483913,31.190618],[121.483861,31.190601],[121.483812,31.190583],[121.483775,31.190562],[121.483727,31.190541],[121.483686,31.190525],[121.483643,31.190511],[121.483598,31.190501],[121.483544,31.190492],[121.483505,31.190477],[121.483474,31.190455],[121.483455,31.190425],[121.483448,31.190389],[121.48345,31.19035],[121.483458,31.190311],[121.483466,31.190276],[121.483471,31.190243],[121.483466,31.190205],[121.483456,31.190168],[121.48344,31.190131],[121.483419,31.190092],[121.483403,31.190067],[121.48338,31.190035],[121.483355,31.190006],[121.483327,31.189982],[121.483297,31.189962],[121.483258,31.189933],[121.483227,31.189919],[121.483197,31.189904],[121.483169,31.18989],[121.483141,31.189871],[121.483113,31.189848],[121.483083,31.189821],[121.48305,31.189793],[121.483002,31.189759],[121.482945,31.189726],[121.482883,31.189695],[121.482818,31.189666],[121.482751,31.189641],[121.482693,31.189623],[121.482637,31.189606],[121.482582,31.189591],[121.482526,31.189577],[121.482467,31.189562],[121.482408,31.18955],[121.48235,31.18954],[121.482296,31.189533],[121.482243,31.189528],[121.482193,31.189525],[121.482143,31.189524],[121.482093,31.189524],[121.482035,31.18953],[121.481976,31.18954],[121.481916,31.189554],[121.481857,31.189571],[121.481796,31.189591],[121.481745,31.189604],[121.481693,31.189614],[121.481639,31.189619],[121.481584,31.189618],[121.481525,31.189612],[121.481467,31.189606],[121.481409,31.189601],[121.481354,31.1896],[121.481303,31.189601],[121.481253,31.189602],[121.481208,31.189599],[121.481168,31.189589],[121.48113,31.189566],[121.481096,31.189537],[121.481064,31.189507],[121.481032,31.18948],[121.480998,31.189455],[121.48096,31.189439],[121.48092,31.189428],[121.480878,31.18942],[121.480836,31.189415],[121.480794,31.189415],[121.480751,31.189419],[121.480707,31.189426],[121.480661,31.189435],[121.480615,31.189445],[121.480569,31.189454],[121.48052,31.189459],[121.480468,31.189461],[121.480396,31.189456],[121.480322,31.189445],[121.480246,31.18943],[121.48017,31.189413],[121.480095,31.189395],[121.480036,31.189381],[121.479978,31.189373],[121.47992,31.189372],[121.479861,31.189375],[121.479803,31.18938],[121.479747,31.189385],[121.479691,31.189386],[121.479636,31.189383],[121.479578,31.189375],[121.479519,31.189366],[121.479461,31.189357],[121.479403,31.189348],[121.479334,31.189339],[121.479266,31.189332],[121.479198,31.189324],[121.479131,31.189315],[121.479064,31.189304],[121.479007,31.189293],[121.478948,31.189278],[121.478889,31.189261],[121.47883,31.189239],[121.478774,31.189212],[121.478724,31.18918],[121.478679,31.189144],[121.478636,31.189106],[121.478595,31.189069],[121.478548,31.189037],[121.478498,31.189008],[121.478446,31.188981],[121.478391,31.188947],[121.478341,31.188911],[121.478298,31.188873],[121.478259,31.188833],[121.478222,31.188793],[121.47819,31.18876],[121.478155,31.188731],[121.478116,31.188703],[121.478074,31.188678],[121.478029,31.188654],[121.477985,31.18863],[121.477952,31.1886],[121.477913,31.188576],[121.477879,31.188554],[121.477845,31.188535],[121.477826,31.188513],[121.477771,31.188507],[121.47772,31.188496],[121.477668,31.188492],[121.477617,31.188489],[121.477552,31.188496],[121.477512,31.188499],[121.4775,31.188496],[121.477472,31.188497],[121.477448,31.188498],[121.477428,31.188498],[121.477415,31.188496],[121.477385,31.188503],[121.477379,31.188502],[121.477375,31.1885],[121.477301,31.188427],[121.477277,31.188416],[121.477222,31.188409],[121.477167,31.188403],[121.477107,31.188402],[121.477043,31.188405],[121.476976,31.188416],[121.476917,31.188433],[121.476858,31.188452],[121.4768,31.18847],[121.476756,31.188472],[121.476703,31.188469],[121.476662,31.188454],[121.476634,31.188427],[121.47662,31.188391],[121.476601,31.188359],[121.4766,31.188317],[121.476597,31.188279],[121.476586,31.188244],[121.476558,31.188209],[121.476525,31.188179],[121.476491,31.188153],[121.476456,31.188131],[121.476428,31.188113],[121.476419,31.1881],[121.476423,31.188085],[121.476438,31.188064],[121.476458,31.188039],[121.47647,31.188003],[121.476475,31.187971],[121.47646,31.187943],[121.47643,31.187923],[121.476393,31.18791],[121.476358,31.187909],[121.476321,31.18791],[121.476288,31.187911],[121.476258,31.187912],[121.476231,31.187912],[121.476205,31.187912],[121.476178,31.18791],[121.476156,31.187906],[121.476134,31.187903],[121.476111,31.1879],[121.476088,31.187896],[121.476064,31.187892],[121.476039,31.187889],[121.47601,31.187886],[121.475979,31.187883],[121.475945,31.187878],[121.475907,31.187874],[121.475866,31.187868],[121.475822,31.187862],[121.475777,31.187856],[121.47573,31.187851],[121.475685,31.187845],[121.475638,31.187839],[121.475591,31.187833],[121.475543,31.187827],[121.475496,31.187822],[121.475448,31.187817],[121.475401,31.187811],[121.475355,31.187806],[121.475311,31.187803],[121.475267,31.187802],[121.475224,31.187805],[121.47518,31.187814],[121.475137,31.187826],[121.475091,31.187841],[121.475044,31.187857],[121.474988,31.187876],[121.474931,31.187894],[121.474872,31.187911],[121.474811,31.187926],[121.474749,31.187939],[121.474697,31.187947],[121.474655,31.187938],[121.474602,31.18794],[121.474552,31.18794],[121.474503,31.187938],[121.474455,31.187935],[121.4744,31.187944],[121.474358,31.187938],[121.474319,31.187929],[121.474282,31.187918],[121.474247,31.187906],[121.474209,31.187893],[121.474163,31.187874],[121.474116,31.187854],[121.47407,31.187833],[121.474026,31.187809],[121.473984,31.187785],[121.473952,31.187764],[121.473921,31.187744],[121.473894,31.187723],[121.473869,31.187699],[121.47385,31.187673],[121.473836,31.187641],[121.473826,31.187605],[121.473816,31.187566],[121.473803,31.187527],[121.473782,31.18749],[121.473753,31.18746],[121.473716,31.187435],[121.473664,31.18742],[121.473612,31.187412],[121.473564,31.187407],[121.473519,31.187405],[121.473478,31.187403],[121.473448,31.1874],[121.473418,31.187396],[121.473388,31.18739],[121.47336,31.18738],[121.473334,31.187368],[121.473312,31.187354],[121.473292,31.187339],[121.473294,31.187327],[121.47328,31.187315],[121.47327,31.187305],[121.47328,31.187302],[121.473277,31.187298],[121.473259,31.187292],[121.473259,31.187291],[121.47326,31.18729],[121.473245,31.187287],[121.473245,31.187287],[121.473245,31.187287],[121.473245,31.187287],[121.473245,31.187287],[121.473245,31.187287],[121.473245,31.187287],[121.473245,31.187287],[121.473245,31.187287],[121.473263,31.187296],[121.473263,31.187296],[121.473263,31.187296],[121.473263,31.187296],[121.473263,31.187296],[121.47326,31.187296],[121.473258,31.187298],[121.473257,31.187299],[121.473256,31.187301],[121.473254,31.187302],[121.473238,31.187294],[121.473236,31.187296],[121.473231,31.187298],[121.473221,31.1873],[121.473206,31.187302],[121.473185,31.187303],[121.473159,31.187303],[121.473128,31.187302],[121.473094,31.187301],[121.473058,31.187298],[121.473019,31.187291],[121.472983,31.187279],[121.47295,31.187264],[121.472922,31.187247],[121.472899,31.187232],[121.472896,31.187221],[121.472881,31.187213],[121.472864,31.187209],[121.472843,31.187203],[121.472815,31.187199],[121.472768,31.187194],[121.472732,31.187188],[121.472695,31.18718],[121.472658,31.187172],[121.472619,31.187162],[121.47258,31.187151],[121.47254,31.187144],[121.472498,31.187144],[121.472489,31.187143],[121.472458,31.187156],[121.472439,31.187177],[121.472427,31.187197],[121.472426,31.187213],[121.4724,31.187232],[121.472412,31.187242],[121.472413,31.187239],[121.472441,31.187252],[121.472405,31.187227]]}}]}