{"type":"FeatureCollection","features":[{"type":"Feature","properties":{"id":"2026-04-15_running_30","type":"running","date":"2026-04-15"},"geometry":{"type":"LineString","coordinates":[[121.399573,31.230042],[121.399587,31.229996],[121.399593,31.229983],[121.399605,31.229958],[121.399622,31.229933],[121.399641,31.229908],[121.399661,31.229885],[121.399684,31.229865],[121.399708,31.229846],[121.399733,31.229828],[121.399759,31.229813],[121.399789,31.2298],[121.399819,31.229789],[121.399854,31.22978],[121.399886,31.229774],[121.39992,31.22977],[121.399953,31.229767],[121.399988,31.229767],[121.400023,31.22977],[121.400058,31.229776],[121.400091,31.229785],[121.400129,31.2298],[121.400165,31.229818],[121.4002,31.229838],[121.400226,31.229858],[121.40025,31.229878],[121.40027,31.229899],[121.400289,31.229921],[121.400306,31.229945],[121.400322,31.22997],[121.400334,31.229994],[121.400343,31.230018],[121.400349,31.230041],[121.400352,31.230067],[121.400352,31.230095],[121.40035,31.230124],[121.400345,31.230156],[121.400339,31.230188],[121.400329,31.230224],[121.400319,31.230257],[121.400308,31.23029],[121.400298,31.230319],[121.400289,31.230347],[121.40028,31.230376],[121.400271,31.230404],[121.400262,31.230433],[121.400253,31.230461],[121.400244,31.230491],[121.400235,31.230518],[121.400227,31.230547],[121.400219,31.230574],[121.40021,31.230603],[121.400202,31.230631],[121.400193,31.230659],[121.400185,31.230687],[121.400175,31.23072],[121.400165,31.230752],[121.400156,31.230784],[121.400147,31.230812],[121.400139,31.23084],[121.40013,31.230868],[121.400121,31.230895],[121.400111,31.23092],[121.4001,31.230943],[121.400089,31.230965],[121.400076,31.23099],[121.400062,31.231014],[121.400045,31.231038],[121.400024,31.23106],[121.399999,31.231084],[121.399972,31.231107],[121.399946,31.231128],[121.399914,31.231148],[121.399881,31.231166],[121.399843,31.231181],[121.399809,31.23119],[121.399772,31.231197],[121.399735,31.231201],[121.399699,31.231203],[121.399664,31.231201],[121.399631,31.231198],[121.399598,31.231192],[121.399567,31.231184],[121.399536,31.231173],[121.399505,31.23116],[121.399476,31.231144],[121.399448,31.231126],[121.399423,31.231105],[121.399401,31.231081],[121.399381,31.231052],[121.399363,31.231023],[121.399347,31.230992],[121.399337,31.230967],[121.399329,31.23094],[121.399324,31.230915],[121.399321,31.230887],[121.399321,31.23086],[121.399322,31.230833],[121.399325,31.230804],[121.399328,31.230775],[121.399332,31.230744],[121.399338,31.230715],[121.399345,31.230685],[121.399353,31.230656],[121.399362,31.230627],[121.399371,31.230599],[121.399381,31.230569],[121.399391,31.230539],[121.3994,31.230507],[121.399408,31.230478],[121.399416,31.230446],[121.399424,31.230414],[121.399433,31.230382],[121.399442,31.230353],[121.399452,31.230323],[121.399462,31.230294],[121.399471,31.230266],[121.39948,31.230239],[121.399488,31.230213],[121.399497,31.230185],[121.399505,31.230159],[121.399513,31.230133],[121.39952,31.230107],[121.399527,31.230078],[121.399536,31.230049],[121.399547,31.230021],[121.39956,31.229997],[121.399575,31.229974],[121.399592,31.229951],[121.399612,31.229928],[121.399634,31.229904],[121.399657,31.22988],[121.399681,31.229858],[121.399706,31.229838],[121.399731,31.229822],[121.399759,31.229807],[121.399788,31.229794],[121.399819,31.229783],[121.399853,31.229774],[121.399888,31.229768],[121.399928,31.229763],[121.399966,31.229762],[121.400005,31.229764],[121.400042,31.22977],[121.400079,31.229779],[121.400115,31.229791],[121.400146,31.229804],[121.400175,31.22982],[121.400202,31.229838],[121.400227,31.229858],[121.400251,31.22988],[121.400272,31.229903],[121.400291,31.229928],[121.400307,31.229953],[121.400321,31.229981],[121.400333,31.230009],[121.40034,31.230037],[121.400344,31.23007],[121.400344,31.230105],[121.40034,31.230141],[121.400334,31.230175],[121.400327,31.230207],[121.400319,31.230237],[121.400312,31.230263],[121.400303,31.23029],[121.400294,31.230317],[121.400286,31.230345],[121.400277,31.230371],[121.400269,31.2304],[121.40026,31.230429],[121.400251,31.230459],[121.400242,31.230489],[121.400232,31.230519],[121.400223,31.23055],[121.400212,31.230585],[121.400201,31.230621],[121.40019,31.230655],[121.400182,31.230683],[121.400174,31.230708],[121.400166,31.230737],[121.400157,31.230765],[121.400149,31.230793],[121.40014,31.23082],[121.40013,31.230847],[121.40012,31.230874],[121.40011,31.2309],[121.400099,31.230927],[121.400088,31.230953],[121.400075,31.230979],[121.400061,31.231005],[121.400043,31.23103],[121.400016,31.23106],[121.399985,31.231089],[121.399949,31.231118],[121.399918,31.231139],[121.399886,31.231158],[121.399856,31.231174],[121.399824,31.231187],[121.399793,31.231197],[121.399762,31.231203],[121.399731,31.231206],[121.3997,31.231206],[121.399667,31.231205],[121.399636,31.231201],[121.399604,31.231194],[121.399573,31.231184],[121.399541,31.231172],[121.39951,31.231157],[121.399477,31.231139],[121.399446,31.231118],[121.399419,31.231097],[121.399397,31.231075],[121.399379,31.231052],[121.399361,31.231026],[121.399347,31.231],[121.399335,31.230974],[121.399327,31.230948],[121.399322,31.230921],[121.399319,31.230894],[121.39932,31.230868],[121.399322,31.230838],[121.399325,31.230809],[121.399329,31.230777],[121.399332,31.230743],[121.399337,31.230709],[121.399343,31.230671],[121.399351,31.230636],[121.399359,31.230602],[121.399369,31.230571],[121.399379,31.230541],[121.399388,31.230512],[121.399397,31.230484],[121.399405,31.230457],[121.399414,31.23043],[121.399422,31.230404],[121.39943,31.230379],[121.39944,31.230352],[121.399449,31.230325],[121.399459,31.230296],[121.399469,31.230265],[121.399479,31.230235],[121.399489,31.230205],[121.3995,31.230173],[121.39951,31.230141],[121.399519,31.23011],[121.399528,31.230083],[121.399537,31.230054],[121.399548,31.230027],[121.39956,31.23],[121.399573,31.229975],[121.399588,31.229951],[121.399605,31.229928],[121.399625,31.229905],[121.399647,31.229882],[121.399673,31.22986],[121.399699,31.229841],[121.399729,31.229823],[121.399761,31.229806],[121.399792,31.229792],[121.399827,31.229779],[121.39986,31.229771],[121.399896,31.229764],[121.399928,31.229761],[121.399961,31.22976],[121.399991,31.229762],[121.400023,31.229766],[121.400055,31.229773],[121.400086,31.229781],[121.400116,31.229792],[121.400146,31.229806],[121.400175,31.229822],[121.400203,31.229841],[121.400228,31.229862],[121.400251,31.229886],[121.400271,31.22991],[121.40029,31.229937],[121.400307,31.229969],[121.400322,31.229998],[121.400332,31.230027],[121.400336,31.23005],[121.400338,31.230076],[121.400338,31.230105],[121.400336,31.230134],[121.400332,31.230163],[121.400325,31.230193],[121.400318,31.230222],[121.40031,31.23025],[121.400302,31.230278],[121.400293,31.230307],[121.400286,31.230334],[121.400278,31.230363],[121.400269,31.230392],[121.400261,31.230422],[121.400253,31.23045],[121.400244,31.230477],[121.400236,31.230503],[121.400227,31.230527],[121.400218,31.230554],[121.400208,31.230582],[121.400199,31.230612],[121.400189,31.230643],[121.40018,31.230673],[121.400171,31.230701],[121.400162,31.23073],[121.400153,31.230758],[121.400144,31.230787],[121.400136,31.230814],[121.400125,31.230843],[121.400115,31.230871],[121.400103,31.230899],[121.400091,31.230928],[121.400078,31.230958],[121.400062,31.230987],[121.400047,31.231011],[121.40003,31.231031],[121.400011,31.23105],[121.399987,31.23107],[121.399961,31.23109],[121.399933,31.231109],[121.399906,31.231127],[121.399874,31.231145],[121.399843,31.23116],[121.399809,31.231173],[121.399775,31.231183],[121.399739,31.23119],[121.3997,31.231195],[121.399661,31.231196],[121.399622,31.231192],[121.399582,31.231184],[121.399544,31.231172],[121.399509,31.231158],[121.399482,31.231142],[121.399457,31.231127],[121.399434,31.231109],[121.399413,31.231091],[121.399393,31.23107],[121.399376,31.231049],[121.39936,31.231024],[121.399347,31.230998],[121.399336,31.230971],[121.399328,31.230942],[121.399324,31.230913],[121.399322,31.230882],[121.399323,31.230852],[121.399326,31.230815],[121.399332,31.230774],[121.39934,31.230728],[121.399349,31.23069],[121.399357,31.230659],[121.399365,31.230632],[121.399374,31.230605],[121.399383,31.230576],[121.399392,31.230547],[121.3994,31.230519],[121.399408,31.230491],[121.399414,31.230467],[121.399421,31.230443],[121.399428,31.230418],[121.399435,31.230392],[121.399443,31.230366],[121.399451,31.230338],[121.39946,31.230306],[121.399471,31.23027],[121.399483,31.230233],[121.399494,31.2302],[121.399504,31.230172],[121.399514,31.230144],[121.399524,31.230117],[121.399534,31.23009],[121.399544,31.230064],[121.399554,31.230039],[121.399565,31.230014],[121.399576,31.229993],[121.399587,31.229972],[121.399601,31.22995],[121.399617,31.229926],[121.399641,31.229899],[121.39967,31.229871],[121.399704,31.229846],[121.399742,31.229823],[121.399779,31.229804],[121.399815,31.22979],[121.399847,31.229781],[121.399881,31.229774],[121.399915,31.22977],[121.399949,31.229768],[121.399981,31.229769],[121.400015,31.229772],[121.400048,31.229777],[121.400081,31.229784],[121.400112,31.229793],[121.400141,31.229805],[121.40017,31.22982],[121.4002,31.229839],[121.400227,31.229861],[121.400252,31.229885],[121.400275,31.22991],[121.400296,31.229936],[121.400313,31.229963],[121.400327,31.22999],[121.400336,31.230016],[121.400342,31.230042],[121.400345,31.230068],[121.400346,31.230095],[121.400346,31.230124],[121.400344,31.230151],[121.400339,31.23018],[121.400333,31.23021],[121.400324,31.230239],[121.400314,31.230268],[121.400304,31.230297],[121.400293,31.230326],[121.400282,31.230356],[121.400271,31.230387],[121.400259,31.230423],[121.400248,31.230457],[121.400237,31.230491],[121.400228,31.230522],[121.400219,31.230554],[121.400209,31.230586],[121.400199,31.230617],[121.400188,31.230647],[121.400177,31.230675],[121.400168,31.230702],[121.400159,31.230729],[121.400151,31.230757],[121.400144,31.230785],[121.400138,31.230813],[121.400131,31.230841],[121.400122,31.230872],[121.400112,31.230903],[121.400099,31.230938],[121.400084,31.23097],[121.400066,31.231],[121.400049,31.231023],[121.400029,31.231046],[121.400009,31.231067],[121.399986,31.231088],[121.399962,31.231108],[121.399937,31.231126],[121.399912,31.231141],[121.399884,31.231156],[121.399855,31.231169],[121.399823,31.231181],[121.399791,31.231189],[121.399758,31.231195],[121.399724,31.231197],[121.399689,31.231197],[121.399647,31.231192],[121.399608,31.231185],[121.399569,31.231175],[121.399535,31.231163],[121.399502,31.231148],[121.399472,31.231132],[121.399445,31.231112],[121.39942,31.231092],[121.399398,31.23107],[121.399381,31.231047],[121.399364,31.231021],[121.399351,31.230993],[121.399341,31.230963],[121.399333,31.23093],[121.399329,31.230894],[121.399327,31.230854],[121.399328,31.230809],[121.399333,31.230765],[121.39934,31.230724],[121.399347,31.230693],[121.399355,31.230665],[121.399362,31.230639],[121.39937,31.230611],[121.399378,31.230582],[121.399386,31.230554],[121.399394,31.230526],[121.399402,31.230498],[121.39941,31.230472],[121.399416,31.230449],[121.399423,31.230424],[121.399431,31.230395],[121.39944,31.230366],[121.399448,31.230336],[121.399457,31.230306],[121.399468,31.230269],[121.39948,31.230231],[121.399491,31.230195],[121.399501,31.230166],[121.399511,31.230137],[121.399521,31.230109],[121.399532,31.23008],[121.399542,31.230055],[121.399553,31.230027],[121.399565,31.23],[121.399577,31.229973],[121.39959,31.229948],[121.399605,31.229923],[121.399623,31.229898],[121.399647,31.229872],[121.399677,31.229847],[121.399711,31.229823],[121.399748,31.229805],[121.399783,31.229791],[121.39982,31.229779],[121.399851,31.229772],[121.399883,31.229766],[121.399916,31.229762],[121.399948,31.229761],[121.39998,31.229762],[121.400012,31.229765],[121.400043,31.22977],[121.400075,31.229777],[121.400106,31.229787],[121.400136,31.2298],[121.400166,31.229816],[121.400194,31.229836],[121.400222,31.22986],[121.400249,31.229886],[121.400276,31.229916],[121.4003,31.229946],[121.400321,31.229977],[121.400335,31.230005],[121.400345,31.230034],[121.400351,31.230061],[121.400352,31.230089],[121.40035,31.230117],[121.400346,31.230146],[121.400339,31.230174],[121.400331,31.230202],[121.400322,31.23023],[121.400312,31.230259],[121.400301,31.230288],[121.40029,31.230317],[121.400279,31.230346],[121.400269,31.230376],[121.400258,31.230411],[121.400247,31.230446],[121.400238,31.23048],[121.400231,31.230511],[121.400224,31.230539],[121.400217,31.230567],[121.400208,31.230595],[121.400199,31.230624],[121.400188,31.230656],[121.400178,31.230688],[121.400168,31.230718],[121.400158,31.230748],[121.400147,31.230779],[121.400136,31.23081],[121.400126,31.23084],[121.400116,31.23087],[121.400105,31.2309],[121.400092,31.230934],[121.400078,31.230965],[121.40006,31.230996],[121.400041,31.23102],[121.40002,31.231044],[121.399996,31.231067],[121.399969,31.231091],[121.39994,31.231112],[121.39991,31.231132],[121.399879,31.23115],[121.399847,31.231167],[121.399815,31.231181],[121.399783,31.231192],[121.399751,31.231199],[121.399717,31.231203],[121.399682,31.231203],[121.399645,31.231198],[121.399603,31.231189],[121.399565,31.231177],[121.399529,31.231163],[121.399502,31.23115],[121.399473,31.231133],[121.399446,31.231114],[121.39942,31.231094],[121.399398,31.231073],[121.399378,31.231052],[121.399361,31.231027],[121.399347,31.231002],[121.399336,31.230975],[121.399329,31.230947],[121.399323,31.230917],[121.39932,31.230886],[121.39932,31.230852],[121.399322,31.230816],[121.399327,31.230773],[121.399333,31.230734],[121.39934,31.230696],[121.399346,31.230666],[121.399353,31.230636],[121.399361,31.230606],[121.39937,31.230577],[121.399379,31.230548],[121.399389,31.230521],[121.399398,31.230492],[121.399406,31.230465],[121.399414,31.230436],[121.399422,31.230408],[121.399432,31.230377],[121.399441,31.230346],[121.39945,31.230313],[121.399459,31.230281],[121.399469,31.230243],[121.399479,31.230206],[121.399488,31.23017],[121.399496,31.230141],[121.399504,31.230113],[121.399511,31.230086],[121.399522,31.230058],[121.399533,31.230031],[121.399546,31.230006],[121.399559,31.229981],[121.399574,31.229958],[121.399591,31.229934],[121.399611,31.229909],[121.399633,31.229885],[121.399657,31.229862],[121.399685,31.229841],[121.399716,31.229821],[121.399754,31.229802],[121.399791,31.229786],[121.399829,31.229773],[121.399863,31.229765],[121.399898,31.229759],[121.399933,31.229756],[121.399968,31.229756],[121.400005,31.229759],[121.400038,31.229764],[121.400072,31.229772],[121.400104,31.229783],[121.400135,31.229796],[121.400164,31.229812],[121.40019,31.229829],[121.400215,31.229848],[121.400237,31.229868],[121.400258,31.22989],[121.400278,31.229915],[121.400297,31.229943],[121.400314,31.229971],[121.400327,31.23],[121.400337,31.230028],[121.400343,31.230056],[121.400345,31.230084],[121.400343,31.230112],[121.400339,31.23014],[121.400333,31.230167],[121.400325,31.230196],[121.400316,31.230226],[121.400307,31.230256],[121.400298,31.230285],[121.400288,31.230313],[121.400279,31.230341],[121.40027,31.230368],[121.400261,31.230395],[121.400252,31.230421],[121.400243,31.23045],[121.400235,31.230479],[121.400227,31.230508],[121.40022,31.230533],[121.400212,31.230558],[121.400204,31.230584],[121.400196,31.230612],[121.400188,31.23064],[121.40018,31.230669],[121.400172,31.230699],[121.400165,31.230728],[121.400158,31.230756],[121.40015,31.230784],[121.400141,31.230812],[121.400131,31.230839],[121.400121,31.230866],[121.40011,31.230893],[121.400097,31.230925],[121.400083,31.230955],[121.400067,31.230984],[121.400051,31.231007],[121.400032,31.231029],[121.40001,31.231051],[121.399985,31.231071],[121.399956,31.231092],[121.399925,31.231112],[121.399893,31.231131],[121.399859,31.231148],[121.399822,31.231166],[121.399785,31.231179],[121.399745,31.23119],[121.399709,31.231194],[121.399671,31.231194],[121.399634,31.23119],[121.399591,31.23118],[121.399552,31.231167],[121.399512,31.231151],[121.399483,31.231134],[121.399455,31.231115],[121.399432,31.231095],[121.399409,31.231073],[121.399388,31.23105],[121.39937,31.231026],[121.399355,31.231],[121.399343,31.230973],[121.399333,31.230945],[121.399327,31.230915],[121.399325,31.230884],[121.399324,31.230852],[121.399326,31.230819],[121.39933,31.230783],[121.399334,31.230751],[121.399339,31.230722],[121.399345,31.230698],[121.399352,31.23067],[121.39936,31.230641],[121.399368,31.230612],[121.399376,31.230583],[121.399384,31.230554],[121.399392,31.230525],[121.399401,31.230496],[121.39941,31.230467],[121.399418,31.230438],[121.399427,31.230411],[121.399436,31.230381],[121.399445,31.230352],[121.399455,31.230324],[121.399464,31.230296],[121.399475,31.230264],[121.399487,31.230228],[121.399499,31.230194],[121.399511,31.230161],[121.399521,31.230133],[121.399531,31.230105],[121.399541,31.230078],[121.399551,31.230052],[121.39956,31.230027],[121.39957,31.230005],[121.399581,31.229982],[121.399596,31.229954],[121.399614,31.229924],[121.399637,31.229893],[121.399662,31.229867],[121.399689,31.229845],[121.399719,31.229827],[121.399753,31.22981],[121.399792,31.229794],[121.39983,31.229781],[121.399867,31.229771],[121.3999,31.229766],[121.399936,31.229762],[121.399971,31.229762],[121.400007,31.229765],[121.400041,31.22977],[121.400076,31.229777],[121.400109,31.229787],[121.400141,31.2298],[121.400171,31.229816],[121.400198,31.229833],[121.400223,31.229851],[121.400244,31.22987],[121.400264,31.229891],[121.400282,31.229915],[121.400298,31.229944],[121.400312,31.229975],[121.400324,31.230007],[121.400331,31.230036],[121.400335,31.230067],[121.400337,31.230097],[121.400336,31.230128],[121.400332,31.23016],[121.400325,31.230191],[121.400318,31.230224],[121.400309,31.230258],[121.4003,31.230289],[121.400292,31.230315],[121.400284,31.230337],[121.400276,31.230364],[121.400267,31.230393],[121.400256,31.230426],[121.400245,31.230461],[121.400234,31.230497],[121.400224,31.23053],[121.400215,31.23056],[121.400206,31.23059],[121.400197,31.230619],[121.400188,31.230649],[121.400179,31.230678],[121.40017,31.230707],[121.400161,31.230735],[121.400152,31.230761],[121.400142,31.23079],[121.400132,31.230818],[121.400121,31.230846],[121.400109,31.230875],[121.400097,31.230905],[121.400084,31.230936],[121.400069,31.230968],[121.400054,31.230998],[121.400037,31.231026],[121.400019,31.23105],[121.399995,31.231076],[121.399966,31.231099],[121.399933,31.231122],[121.399902,31.231139],[121.399869,31.231155],[121.399836,31.231168],[121.399803,31.231179],[121.399771,31.231186],[121.399738,31.23119],[121.399704,31.231192],[121.399669,31.231191],[121.399635,31.231186],[121.399598,31.231178],[121.399558,31.231167],[121.39952,31.231152],[121.399487,31.231135],[121.39946,31.231117],[121.399436,31.231096],[121.399412,31.231074],[121.39939,31.23105],[121.39937,31.231024],[121.399353,31.230996],[121.399339,31.230967],[121.399329,31.230935],[121.399323,31.230901],[121.39932,31.230863],[121.399321,31.230831],[121.399325,31.230801],[121.39933,31.230775],[121.399336,31.230747],[121.399344,31.230711],[121.399351,31.230677],[121.399359,31.230644],[121.399366,31.230615],[121.399374,31.230586],[121.399382,31.230556],[121.39939,31.230527],[121.399399,31.230498],[121.399408,31.230468],[121.399417,31.230439],[121.399426,31.230411],[121.399434,31.230382],[121.399443,31.230355],[121.399452,31.230325],[121.399461,31.230296],[121.399471,31.230266],[121.399481,31.230237],[121.399494,31.230202],[121.399507,31.230167],[121.399518,31.230136],[121.399529,31.230109],[121.399539,31.230082],[121.39955,31.230055],[121.399561,31.230029],[121.399572,31.230004],[121.399583,31.229979],[121.399595,31.229957],[121.39961,31.229932],[121.399632,31.229903],[121.399657,31.229876],[121.399687,31.229851],[121.399717,31.229831],[121.399748,31.229814],[121.399781,31.229799],[121.399814,31.229787],[121.399846,31.229777],[121.399878,31.229771],[121.39991,31.229768],[121.399943,31.229765],[121.399977,31.229766],[121.400013,31.229769],[121.400047,31.229775],[121.400082,31.229784],[121.400115,31.229795],[121.400147,31.229809],[121.400177,31.229826],[121.400206,31.229845],[121.400233,31.229868],[121.400257,31.229892],[121.400278,31.229917],[121.400297,31.229948],[121.400313,31.229979],[121.400325,31.230012],[121.400332,31.230042],[121.400337,31.230073],[121.400339,31.230104],[121.400338,31.230134],[121.400334,31.230165],[121.400328,31.230195],[121.400321,31.230226],[121.400312,31.230256],[121.400303,31.230287],[121.400294,31.230316],[121.400283,31.230349],[121.400272,31.230381],[121.400261,31.230416],[121.400249,31.230449],[121.400236,31.230486],[121.400225,31.230523],[121.400214,31.23056],[121.400206,31.230591],[121.400199,31.23062],[121.400192,31.230649],[121.400184,31.230677],[121.400176,31.230707],[121.400168,31.230735],[121.400159,31.230763],[121.400149,31.230791],[121.40014,31.23082],[121.400129,31.23085],[121.400118,31.230879],[121.400106,31.230909],[121.400093,31.23094],[121.400079,31.230969],[121.40006,31.230999],[121.400038,31.231028],[121.400014,31.231056],[121.399988,31.231078],[121.399962,31.231099],[121.399932,31.231119],[121.399903,31.231136],[121.399872,31.231151],[121.399842,31.231163],[121.39981,31.231174],[121.399779,31.231181],[121.399743,31.231185],[121.399709,31.231187],[121.399672,31.231186],[121.399637,31.231182],[121.3996,31.231175],[121.399566,31.231165],[121.399533,31.231152],[121.399501,31.231135],[121.399471,31.231117],[121.399442,31.231098],[121.399415,31.231076],[121.39939,31.231053],[121.399367,31.231028],[121.399348,31.231001],[121.399332,31.230971],[121.399321,31.23094],[121.399315,31.230907],[121.399313,31.230876],[121.399315,31.230843],[121.399319,31.230809],[121.399324,31.230774],[121.399331,31.230741],[121.399338,31.230712],[121.399346,31.230681],[121.399355,31.230649],[121.399365,31.230616],[121.399375,31.230582],[121.399383,31.230551],[121.399392,31.230519],[121.3994,31.230492],[121.399407,31.230466],[121.399414,31.230438],[121.399422,31.230408],[121.39943,31.230378],[121.399438,31.230348],[121.399447,31.230318],[121.399456,31.230288],[121.399465,31.230258],[121.399475,31.230228],[121.399486,31.230199],[121.399496,31.23017],[121.399508,31.230138],[121.399522,31.230103],[121.399536,31.23007],[121.399548,31.230041],[121.399559,31.230013],[121.399571,31.229987],[121.399587,31.229957],[121.399608,31.229928],[121.399635,31.229897],[121.399661,31.229871],[121.399689,31.229848],[121.399717,31.229829],[121.399747,31.229812],[121.399775,31.229798],[121.399805,31.229787],[121.399835,31.229778],[121.399867,31.229772],[121.399902,31.22977],[121.399941,31.22977],[121.39998,31.229772],[121.400018,31.229777],[121.400052,31.229782],[121.400087,31.229791],[121.400121,31.229803],[121.400153,31.229817],[121.400183,31.229834],[121.400211,31.229854],[121.400237,31.229876],[121.400259,31.2299],[121.400279,31.229926],[121.400296,31.229955],[121.400309,31.229983],[121.400319,31.230013],[121.400326,31.230044],[121.40033,31.230079],[121.40033,31.230117],[121.400328,31.230156],[121.400322,31.230191],[121.400315,31.230225],[121.400306,31.230257],[121.400297,31.230289],[121.400288,31.23032],[121.40028,31.230349],[121.400271,31.230379],[121.400262,31.23041],[121.400253,31.230439],[121.400244,31.23047],[121.400236,31.2305],[121.400227,31.230531],[121.400218,31.230563],[121.400208,31.230595],[121.400199,31.23063],[121.400188,31.230667],[121.400177,31.230703],[121.400167,31.230735],[121.400157,31.230766],[121.400146,31.230797],[121.400136,31.230827],[121.400127,31.230855],[121.400117,31.230885],[121.400106,31.230913],[121.400093,31.230941],[121.400079,31.230968],[121.400062,31.230996],[121.400041,31.231024],[121.400021,31.231048],[121.399998,31.231072],[121.399974,31.231093],[121.39994,31.231117],[121.399904,31.231138],[121.399863,31.231158],[121.399825,31.231173],[121.399785,31.231184],[121.399746,31.231192],[121.399709,31.231195],[121.399671,31.231194],[121.399635,31.231189],[121.3996,31.231182],[121.399567,31.231171],[121.399534,31.231158],[121.399503,31.231143],[121.399473,31.231126],[121.399446,31.231106],[121.399421,31.231086],[121.399397,31.231062],[121.399373,31.231034],[121.399351,31.231002],[121.399333,31.230968],[121.39932,31.230935],[121.399314,31.230896],[121.399312,31.230859],[121.399313,31.230823],[121.399318,31.230791],[121.399323,31.230761],[121.39933,31.230731],[121.399338,31.230701],[121.399346,31.23067],[121.399355,31.230639],[121.399364,31.230611],[121.399372,31.230582],[121.39938,31.230554],[121.399389,31.230522],[121.399399,31.230486],[121.399409,31.230448],[121.399419,31.230412],[121.399427,31.230379],[121.399436,31.230347],[121.399445,31.230315],[121.399453,31.230285],[121.399463,31.230255],[121.399472,31.230225],[121.399482,31.230196],[121.399492,31.230167],[121.399502,31.230139],[121.399512,31.230112],[121.399522,31.230086],[121.399532,31.23006],[121.399542,31.230035],[121.399552,31.23001],[121.399568,31.22998],[121.399589,31.229949],[121.399616,31.229916],[121.399644,31.229888],[121.399674,31.229862],[121.399705,31.229839],[121.399738,31.229819],[121.399771,31.229803],[121.399805,31.229789],[121.399839,31.229779],[121.399873,31.229771],[121.399908,31.229767],[121.399941,31.229766],[121.399976,31.229768],[121.40001,31.229771],[121.400046,31.229778],[121.400079,31.229787],[121.400115,31.229801],[121.400148,31.229817],[121.400181,31.229838],[121.400208,31.229858],[121.400232,31.229881],[121.400255,31.229906],[121.400274,31.229932],[121.40029,31.229959],[121.400302,31.229986],[121.400311,31.230012],[121.400317,31.230038],[121.400321,31.230065],[121.400323,31.230095],[121.400323,31.230127],[121.400321,31.230158],[121.400316,31.230189],[121.40031,31.23022],[121.400302,31.230256],[121.400293,31.230292],[121.400284,31.230333],[121.400275,31.230371],[121.400266,31.230409],[121.400256,31.230446],[121.400247,31.23048],[121.400236,31.230513],[121.400225,31.230545],[121.400214,31.230577],[121.400203,31.23061],[121.400194,31.230642],[121.400185,31.230674],[121.400176,31.230705],[121.400166,31.230737],[121.400157,31.230765],[121.400147,31.230794],[121.400137,31.230824],[121.400127,31.230853],[121.400117,31.230883],[121.400106,31.230914],[121.400094,31.230944],[121.400081,31.230973],[121.400065,31.231001],[121.400047,31.231027],[121.400026,31.231052],[121.400004,31.231076],[121.399979,31.231097],[121.399952,31.231118],[121.399923,31.231135],[121.39989,31.231152],[121.399855,31.231166],[121.399818,31.231178],[121.399781,31.231186],[121.399744,31.231192],[121.399702,31.231192],[121.399661,31.231189],[121.399618,31.231182],[121.399581,31.231171],[121.399545,31.231158],[121.399513,31.231145],[121.399482,31.231127],[121.399453,31.231107],[121.399426,31.231085],[121.399401,31.231062],[121.39938,31.231039],[121.39936,31.231015],[121.399342,31.230989],[121.399326,31.23096],[121.399315,31.230932],[121.399307,31.230901],[121.399304,31.23087],[121.399305,31.230834],[121.399308,31.230797],[121.399313,31.230761],[121.399319,31.230728],[121.399327,31.230695],[121.399335,31.230663],[121.399343,31.23063],[121.399351,31.230598],[121.39936,31.230567],[121.399369,31.230538],[121.399379,31.230507],[121.399389,31.230474],[121.399399,31.230439],[121.399409,31.230406],[121.399419,31.230373],[121.399429,31.23034],[121.399439,31.230308],[121.399451,31.230272],[121.399463,31.230236],[121.399477,31.230199],[121.39949,31.230165],[121.399501,31.230133],[121.399513,31.230103],[121.399524,31.230073],[121.399535,31.230046],[121.399548,31.230018],[121.399562,31.229992],[121.399578,31.229966],[121.399596,31.229941],[121.399618,31.229915],[121.399642,31.22989],[121.399671,31.229866],[121.399701,31.229845],[121.399734,31.229826],[121.399771,31.22981],[121.399811,31.229795],[121.399852,31.229784],[121.399891,31.229777],[121.399931,31.229773],[121.399969,31.229773],[121.400007,31.229777],[121.400045,31.229784],[121.400082,31.229794],[121.40012,31.229809],[121.400156,31.229828],[121.40019,31.229849],[121.400219,31.229874],[121.400245,31.2299],[121.400268,31.229929],[121.400287,31.229958],[121.400302,31.229988],[121.400315,31.230022],[121.400324,31.230058],[121.400331,31.230095],[121.400331,31.230128],[121.400328,31.230161],[121.400322,31.230194],[121.400314,31.230227],[121.400305,31.23026],[121.400296,31.230292],[121.400287,31.230323],[121.400279,31.230353],[121.400271,31.230385],[121.400263,31.230418],[121.400254,31.23045],[121.400246,31.230483],[121.400237,31.230514],[121.400227,31.230544],[121.400214,31.230579],[121.400203,31.230612],[121.400192,31.230647],[121.400183,31.230679],[121.400174,31.230714],[121.400164,31.230749],[121.400154,31.230784],[121.400144,31.230818],[121.400134,31.230852],[121.400123,31.230883],[121.400112,31.230914],[121.4001,31.230945],[121.400086,31.230975],[121.40007,31.231003],[121.400051,31.231031],[121.400028,31.231057],[121.400002,31.231081],[121.399969,31.231106],[121.399932,31.231128],[121.399892,31.231149],[121.399853,31.231165],[121.399813,31.231178],[121.399771,31.231187],[121.399731,31.231191],[121.399691,31.231191],[121.399655,31.231187],[121.399617,31.23118],[121.399582,31.23117],[121.399547,31.231157],[121.399516,31.231143],[121.399484,31.231123],[121.399456,31.231102],[121.399428,31.231078],[121.399404,31.231055],[121.399378,31.231024],[121.399356,31.230993],[121.399337,31.230957],[121.399326,31.230926],[121.399318,31.230892],[121.399316,31.230861],[121.399317,31.230826],[121.399321,31.230792],[121.399327,31.230758],[121.399334,31.230724],[121.399342,31.23069],[121.39935,31.230657],[121.399358,31.230624],[121.399367,31.230591],[121.399377,31.230554],[121.399387,31.230519],[121.399398,31.230484],[121.399409,31.230447],[121.399419,31.230411],[121.39943,31.230374],[121.39944,31.230343],[121.399448,31.230313],[121.399456,31.230285],[121.399464,31.230257],[121.399473,31.230227],[121.399482,31.230196],[121.399492,31.230165],[121.3995,31.230134],[121.39951,31.230104],[121.39952,31.230073],[121.399532,31.230043],[121.399547,31.230012],[121.399564,31.229983],[121.399583,31.229954],[121.39961,31.229923],[121.399639,31.229894],[121.399673,31.229867],[121.399703,31.229846],[121.399738,31.229827],[121.399773,31.229811],[121.399809,31.229797],[121.399847,31.229787],[121.399885,31.22978],[121.399922,31.229775],[121.39996,31.229775],[121.399997,31.229778],[121.400035,31.229784],[121.400073,31.229794],[121.400109,31.229808],[121.400144,31.229825],[121.400176,31.229845],[121.400206,31.229868],[121.400232,31.229892],[121.400254,31.229917],[121.400272,31.229943],[121.400288,31.229971],[121.4003,31.23],[121.40031,31.230031],[121.400318,31.230063],[121.400324,31.230095],[121.400327,31.230128],[121.400327,31.230161],[121.400324,31.230194],[121.400317,31.230227],[121.400308,31.230261],[121.400299,31.230293],[121.400289,31.230324],[121.40028,31.230355],[121.400271,31.230388],[121.40026,31.230425],[121.400249,31.230465],[121.400237,31.230504],[121.400226,31.23054],[121.400215,31.230574],[121.400205,31.230609],[121.400195,31.230643],[121.400186,31.230676],[121.400177,31.230711],[121.400168,31.230745],[121.400158,31.230779],[121.400148,31.230811],[121.400137,31.230843],[121.400125,31.230876],[121.400113,31.230908],[121.4001,31.230938],[121.400085,31.230967],[121.400069,31.230994],[121.400049,31.23102],[121.400026,31.231047],[121.399999,31.231072],[121.399968,31.231096],[121.399935,31.231119],[121.3999,31.23114],[121.399864,31.231159],[121.39983,31.231174],[121.399793,31.231185],[121.399756,31.231193],[121.399717,31.231197],[121.399681,31.231198],[121.399646,31.231196],[121.399613,31.23119],[121.399579,31.231181],[121.399545,31.231168],[121.399514,31.231152],[121.399481,31.23113],[121.399449,31.231104],[121.399419,31.231076],[121.399394,31.231048],[121.399373,31.231019],[121.399355,31.230988],[121.39934,31.230956],[121.39933,31.230924],[121.399324,31.230892],[121.399322,31.230859],[121.399322,31.230826],[121.399326,31.230793],[121.399331,31.230761],[121.399339,31.230726],[121.399347,31.230693],[121.399356,31.230659],[121.399364,31.230625],[121.399372,31.230588],[121.399382,31.23055],[121.399393,31.230512],[121.399403,31.230478],[121.399412,31.230445],[121.39942,31.230412],[121.399428,31.230379],[121.399436,31.230346],[121.399444,31.230314],[121.399453,31.230283],[121.399462,31.230251],[121.399472,31.230218],[121.399483,31.230185],[121.399494,31.230152],[121.399507,31.230118],[121.39952,31.230084],[121.399533,31.230052],[121.399551,31.230016],[121.399569,31.229982],[121.399591,31.229949],[121.399614,31.229921],[121.399641,31.229893],[121.39967,31.229869],[121.399701,31.229848],[121.399734,31.229829],[121.399769,31.229814],[121.399802,31.229802],[121.399839,31.229792],[121.399875,31.229786],[121.399912,31.229782],[121.399946,31.229782],[121.399981,31.229784],[121.400017,31.229791],[121.400053,31.229801],[121.40009,31.229813],[121.400125,31.229829],[121.400158,31.229847],[121.40019,31.229868],[121.400217,31.22989],[121.400242,31.229915],[121.400264,31.229941],[121.400282,31.22997],[121.400298,31.230001],[121.400309,31.230033],[121.400318,31.230066],[121.400324,31.230099],[121.400326,31.230132],[121.400326,31.230166],[121.400323,31.230199],[121.400318,31.230233],[121.40031,31.230266],[121.400302,31.230299],[121.400292,31.230331],[121.400282,31.230365],[121.400271,31.230399],[121.400261,31.230433],[121.400252,31.230467],[121.400243,31.230501],[121.400234,31.230535],[121.400225,31.230569],[121.400215,31.230602],[121.400204,31.230634],[121.400194,31.230665],[121.400183,31.230695],[121.400173,31.230724],[121.400162,31.230754],[121.400152,31.230782],[121.400142,31.23081],[121.400131,31.23084],[121.400121,31.230871],[121.400108,31.230907],[121.400093,31.230941],[121.400075,31.230976],[121.400056,31.231006],[121.400032,31.231037],[121.400007,31.231065],[121.399981,31.231091],[121.399952,31.231115],[121.399922,31.231135],[121.39989,31.231153],[121.399856,31.231167],[121.39982,31.231179],[121.399782,31.231188],[121.399745,31.231194],[121.399705,31.231197],[121.399667,31.231197],[121.399629,31.231192],[121.399588,31.23118],[121.399547,31.231164],[121.399506,31.231143],[121.399473,31.231122],[121.399441,31.231098],[121.399414,31.231073],[121.399389,31.231045],[121.399368,31.231016],[121.39935,31.230985],[121.399337,31.230956],[121.399328,31.230926],[121.399322,31.230896],[121.399319,31.230864],[121.399317,31.23083],[121.399318,31.230795],[121.399321,31.230762],[121.399326,31.230729],[121.399334,31.230689],[121.399344,31.230647],[121.399353,31.230606],[121.399364,31.23057],[121.399374,31.230535],[121.399385,31.230501],[121.399396,31.230469],[121.399406,31.230438],[121.399416,31.230407],[121.399425,31.230376],[121.399434,31.230344],[121.399442,31.230313],[121.39945,31.230281],[121.399456,31.230249],[121.399463,31.230219],[121.399471,31.23019],[121.399481,31.230162],[121.399495,31.230127],[121.399511,31.230092],[121.39953,31.230054],[121.399548,31.23002],[121.399568,31.229987],[121.399589,31.229956],[121.399612,31.229927],[121.399637,31.2299],[121.399665,31.229874],[121.399694,31.229853],[121.399726,31.229833],[121.399761,31.229817],[121.399797,31.229804],[121.399831,31.229796],[121.399865,31.22979],[121.3999,31.229787],[121.399937,31.229785],[121.399974,31.229787],[121.400011,31.229792],[121.400048,31.229802],[121.400085,31.229815],[121.400118,31.229829],[121.40015,31.229847],[121.400181,31.229867],[121.400209,31.22989],[121.400234,31.229916],[121.400256,31.229944],[121.400275,31.229974],[121.400291,31.230004],[121.400305,31.230036],[121.400316,31.230068],[121.400323,31.2301],[121.400326,31.230132],[121.400326,31.230163],[121.400323,31.230196],[121.400315,31.230233],[121.400306,31.230271],[121.400297,31.230311],[121.400289,31.230345],[121.400281,31.23038],[121.400271,31.230415],[121.400261,31.230451],[121.400251,31.230487],[121.40024,31.230523],[121.400229,31.230558],[121.400217,31.230592],[121.400207,31.230624],[121.400196,31.230658],[121.400185,31.230692],[121.400175,31.230725],[121.400164,31.230758],[121.400153,31.23079],[121.40014,31.230827],[121.400127,31.230864],[121.400112,31.230904],[121.400097,31.230939],[121.40008,31.230974],[121.400063,31.231005],[121.400041,31.231036],[121.400018,31.231065],[121.399992,31.231093],[121.399964,31.231118],[121.399934,31.23114],[121.399901,31.231159],[121.399865,31.231175],[121.399826,31.231188],[121.399782,31.231198],[121.399739,31.231203],[121.399696,31.231204],[121.399647,31.231198],[121.399598,31.231186],[121.399549,31.23117],[121.399508,31.23115],[121.399471,31.231128],[121.399437,31.231102],[121.399407,31.231075],[121.39938,31.231046],[121.399359,31.231017],[121.399342,31.230986],[121.39933,31.230956],[121.399321,31.230924],[121.399316,31.230892],[121.399313,31.23086],[121.399313,31.230825],[121.399315,31.230792],[121.399318,31.230758],[121.399324,31.23072],[121.399333,31.23068],[121.399345,31.230637],[121.399356,31.230601],[121.399369,31.230566],[121.399381,31.230535],[121.399393,31.230502],[121.399403,31.230469],[121.399413,31.230437],[121.399421,31.230405],[121.399429,31.230372],[121.399437,31.23034],[121.399444,31.230308],[121.399451,31.230276],[121.399458,31.230241],[121.399465,31.230207],[121.399474,31.230173],[121.399487,31.230135],[121.399503,31.230097],[121.399522,31.230058],[121.399541,31.230024],[121.399563,31.229992],[121.399584,31.229963],[121.39961,31.229934],[121.399636,31.229906],[121.399666,31.22988],[121.399697,31.229858],[121.39973,31.229837],[121.399765,31.22982],[121.399801,31.229808],[121.399839,31.229799],[121.399878,31.229793],[121.399918,31.22979],[121.399958,31.22979],[121.399999,31.229795],[121.400038,31.229803],[121.400076,31.229815],[121.400112,31.22983],[121.400145,31.229847],[121.400176,31.229867],[121.400206,31.22989],[121.400232,31.229916],[121.400256,31.229944],[121.400277,31.229974],[121.400296,31.230006],[121.400311,31.230038],[121.40032,31.230071],[121.400325,31.230104],[121.400325,31.230139],[121.400323,31.230171],[121.400318,31.230205],[121.400311,31.230237],[121.400301,31.230278],[121.40029,31.230321],[121.400278,31.230366],[121.400267,31.230405],[121.400256,31.230443],[121.400245,31.230479],[121.400234,31.230514],[121.400223,31.230549],[121.400212,31.230582],[121.400202,31.230616],[121.400193,31.23065],[121.400184,31.230684],[121.400175,31.230718],[121.400164,31.230753],[121.400152,31.230786],[121.40014,31.230819],[121.400128,31.230852],[121.400114,31.230889],[121.400098,31.230927],[121.400081,31.230965],[121.400064,31.230997],[121.400043,31.231029],[121.400021,31.231059],[121.399998,31.231087],[121.399971,31.231112],[121.399942,31.231136],[121.39991,31.231158],[121.399875,31.231178],[121.39984,31.231194],[121.399801,31.231206],[121.399765,31.231214],[121.399726,31.231217],[121.399686,31.231216],[121.399646,31.231211],[121.3996,31.2312],[121.399555,31.231185],[121.399512,31.231166],[121.399478,31.231147],[121.399448,31.231126],[121.399422,31.231102],[121.399397,31.231075],[121.399374,31.231046],[121.399355,31.231015],[121.399338,31.230983],[121.399326,31.23095],[121.399318,31.230918],[121.399316,31.230885],[121.399316,31.230853],[121.399318,31.230819],[121.39932,31.230784],[121.399324,31.230749],[121.399329,31.230712],[121.399336,31.230676],[121.399344,31.23064],[121.399354,31.230606],[121.399365,31.230573],[121.399377,31.230541],[121.399388,31.230508],[121.399399,31.230474],[121.399408,31.230441],[121.399417,31.230407],[121.399425,31.230374],[121.399433,31.230341],[121.399439,31.230307],[121.399445,31.230275],[121.39945,31.230242],[121.399455,31.230208],[121.39946,31.230173],[121.399466,31.230139],[121.399476,31.230098],[121.399489,31.230055],[121.399504,31.230011],[121.399519,31.229973],[121.399535,31.229937],[121.399554,31.229903],[121.399563,31.229887],[121.39957,31.229877]]}}]}