{"type":"FeatureCollection","features":[{"type":"Feature","properties":{"id":"2026-03-23_running_22","type":"running","date":"2026-03-23"},"geometry":{"type":"LineString","coordinates":[[121.399598,31.229968],[121.399634,31.229915],[121.39965,31.229896],[121.399677,31.229864],[121.399704,31.229837],[121.399723,31.229818],[121.399744,31.229801],[121.399767,31.229786],[121.399794,31.229773],[121.399824,31.229763],[121.399857,31.229755],[121.399892,31.229748],[121.399925,31.229744],[121.399962,31.229742],[121.399998,31.229743],[121.400033,31.229747],[121.400066,31.229754],[121.4001,31.229764],[121.400135,31.229776],[121.400173,31.229793],[121.40021,31.229812],[121.400243,31.229831],[121.400268,31.229851],[121.400289,31.229871],[121.40031,31.229894],[121.400327,31.229919],[121.40034,31.229944],[121.40035,31.229971],[121.400357,31.23],[121.400361,31.230029],[121.400362,31.230059],[121.400362,31.23009],[121.400362,31.230123],[121.40036,31.230153],[121.400355,31.230184],[121.400345,31.230215],[121.400329,31.230256],[121.400315,31.230293],[121.400302,31.230326],[121.400293,31.230351],[121.400283,31.230376],[121.400273,31.230403],[121.400264,31.230427],[121.400254,31.230454],[121.400244,31.230482],[121.400235,31.230509],[121.400226,31.230536],[121.400216,31.230563],[121.400207,31.23059],[121.400198,31.230617],[121.400188,31.230643],[121.400178,31.230671],[121.400168,31.2307],[121.400156,31.230733],[121.400144,31.230765],[121.400132,31.230796],[121.400122,31.230823],[121.400111,31.23085],[121.4001,31.230877],[121.400089,31.230904],[121.400077,31.23093],[121.400065,31.230956],[121.400053,31.230981],[121.40004,31.231005],[121.400027,31.231025],[121.400012,31.231048],[121.399995,31.23107],[121.399976,31.231091],[121.399949,31.231112],[121.399918,31.231132],[121.399879,31.231149],[121.399844,31.231158],[121.399806,31.231163],[121.399773,31.231168],[121.399738,31.23117],[121.399706,31.23117],[121.399674,31.231167],[121.399645,31.231161],[121.399615,31.231153],[121.399586,31.231143],[121.399558,31.231132],[121.399532,31.23112],[121.399504,31.231105],[121.399477,31.231089],[121.399451,31.23107],[121.399427,31.231051],[121.399405,31.231029],[121.399382,31.231002],[121.399363,31.230975],[121.399347,31.230947],[121.399337,31.230922],[121.399329,31.230895],[121.399325,31.230868],[121.399324,31.23084],[121.399325,31.230811],[121.399327,31.230783],[121.39933,31.230753],[121.399334,31.230725],[121.39934,31.230694],[121.399346,31.230666],[121.399352,31.230638],[121.399359,31.230612],[121.399367,31.230583],[121.399376,31.230554],[121.399387,31.23052],[121.399397,31.230489],[121.399407,31.230459],[121.399416,31.230434],[121.399425,31.230408],[121.399433,31.230382],[121.399442,31.230355],[121.399452,31.230329],[121.399461,31.230303],[121.399469,31.230278],[121.399478,31.230252],[121.399486,31.230225],[121.399493,31.2302],[121.3995,31.230174],[121.399507,31.230147],[121.399514,31.230118],[121.399523,31.230089],[121.399533,31.230056],[121.399544,31.230024],[121.399556,31.229992],[121.399566,31.229967],[121.399579,31.229941],[121.399591,31.229919],[121.399608,31.229895],[121.399626,31.229873],[121.399646,31.229853],[121.399666,31.229835],[121.399688,31.229817],[121.399711,31.229801],[121.399736,31.229787],[121.399762,31.229774],[121.399791,31.229764],[121.399822,31.229755],[121.399852,31.22975],[121.399888,31.229747],[121.399923,31.229745],[121.399959,31.229745],[121.399992,31.229748],[121.400024,31.229752],[121.400058,31.22976],[121.400092,31.22977],[121.400126,31.229782],[121.400159,31.229798],[121.400189,31.229816],[121.400217,31.229836],[121.40024,31.229857],[121.400262,31.22988],[121.400282,31.229905],[121.400299,31.229931],[121.400314,31.229959],[121.400325,31.229989],[121.400335,31.230023],[121.400342,31.230059],[121.400345,31.230093],[121.400343,31.230126],[121.400339,31.230158],[121.400332,31.230193],[121.400324,31.230221],[121.400314,31.230248],[121.400306,31.23027],[121.400297,31.230295],[121.400288,31.23032],[121.400278,31.230345],[121.400269,31.230372],[121.40026,31.230399],[121.40025,31.230427],[121.400241,31.230456],[121.400231,31.230486],[121.40022,31.23052],[121.400209,31.230553],[121.400199,31.230585],[121.40019,31.230612],[121.400182,31.230637],[121.400172,31.230665],[121.400163,31.230693],[121.400153,31.230722],[121.400143,31.230751],[121.400134,31.230779],[121.400125,31.230806],[121.400116,31.230831],[121.400107,31.230859],[121.400097,31.230886],[121.400087,31.230912],[121.400076,31.230939],[121.400064,31.230966],[121.400049,31.230996],[121.400034,31.231025],[121.400017,31.231052],[121.4,31.231074],[121.399976,31.231096],[121.399948,31.231118],[121.399919,31.231138],[121.399891,31.231151],[121.399861,31.231159],[121.399829,31.231166],[121.399797,31.231173],[121.399766,31.231178],[121.399734,31.23118],[121.3997,31.231179],[121.399666,31.231175],[121.399632,31.231168],[121.3996,31.23116],[121.399568,31.231146],[121.399536,31.231129],[121.399504,31.23111],[121.399474,31.231092],[121.399448,31.231072],[121.399423,31.231051],[121.399401,31.231029],[121.399381,31.231005],[121.399363,31.23098],[121.399348,31.230953],[121.399338,31.230926],[121.39933,31.230897],[121.399326,31.230869],[121.399323,31.230838],[121.399323,31.230808],[121.399324,31.230777],[121.399329,31.230745],[121.399335,31.230712],[121.399342,31.230677],[121.399351,31.230645],[121.399361,31.230612],[121.399371,31.230581],[121.399382,31.230551],[121.399393,31.230522],[121.399402,31.230495],[121.399411,31.230467],[121.39942,31.23044],[121.399428,31.230413],[121.399437,31.230385],[121.399445,31.230357],[121.399453,31.230327],[121.399461,31.230298],[121.399469,31.230267],[121.399477,31.230237],[121.399486,31.230203],[121.399494,31.230171],[121.399503,31.230138],[121.399511,31.230109],[121.399519,31.230079],[121.399527,31.230049],[121.399534,31.23002],[121.399543,31.229991],[121.399552,31.229962],[121.399563,31.229936],[121.399576,31.229912],[121.399591,31.22989],[121.399608,31.229867],[121.399627,31.229845],[121.399647,31.229827],[121.399672,31.229809],[121.3997,31.229793],[121.399734,31.229777],[121.399767,31.229764],[121.399802,31.229754],[121.399834,31.229747],[121.39987,31.229743],[121.399908,31.229741],[121.399947,31.229741],[121.399983,31.229744],[121.40002,31.229749],[121.400056,31.229757],[121.400092,31.229766],[121.400126,31.229777],[121.400159,31.229793],[121.400189,31.229811],[121.400217,31.22983],[121.400242,31.229851],[121.400265,31.229874],[121.400287,31.229901],[121.400305,31.229927],[121.400321,31.229957],[121.400331,31.229985],[121.400339,31.230015],[121.400344,31.230045],[121.400346,31.230074],[121.400347,31.230102],[121.400345,31.230129],[121.40034,31.230158],[121.400335,31.230188],[121.400327,31.230217],[121.400318,31.230246],[121.400308,31.230274],[121.400298,31.230303],[121.400287,31.230332],[121.400275,31.230362],[121.400263,31.230396],[121.400253,31.230428],[121.400242,31.23046],[121.400231,31.230491],[121.40022,31.230523],[121.400209,31.230554],[121.4002,31.230585],[121.400193,31.230613],[121.400186,31.230639],[121.400178,31.230664],[121.400168,31.23069],[121.400158,31.230718],[121.400149,31.230748],[121.40014,31.230776],[121.400131,31.230804],[121.400121,31.230832],[121.40011,31.230861],[121.400098,31.230894],[121.400086,31.230925],[121.400075,31.230955],[121.400063,31.230981],[121.400049,31.231007],[121.400032,31.231032],[121.400013,31.231057],[121.399992,31.23108],[121.399968,31.231101],[121.399941,31.23112],[121.399915,31.231136],[121.399888,31.231149],[121.399861,31.231158],[121.399832,31.231166],[121.3998,31.231173],[121.399767,31.231177],[121.399733,31.231177],[121.399693,31.231174],[121.399654,31.231168],[121.399615,31.23116],[121.399581,31.23115],[121.399548,31.231137],[121.399515,31.23112],[121.399488,31.231103],[121.399463,31.231086],[121.399442,31.231068],[121.39942,31.231047],[121.399398,31.231025],[121.399378,31.231002],[121.399363,31.230978],[121.399349,31.230951],[121.399339,31.230923],[121.399332,31.230894],[121.399328,31.230863],[121.399325,31.230826],[121.399324,31.230789],[121.399326,31.23075],[121.39933,31.230714],[121.399338,31.230673],[121.399346,31.230639],[121.399354,31.230609],[121.399362,31.230587],[121.399371,31.230561],[121.39938,31.230535],[121.399388,31.23051],[121.399396,31.230487],[121.399403,31.230464],[121.399411,31.230439],[121.39942,31.230412],[121.399429,31.230383],[121.399438,31.230354],[121.399449,31.230321],[121.399459,31.230288],[121.399469,31.230256],[121.399478,31.230228],[121.399487,31.2302],[121.399496,31.230172],[121.399504,31.230146],[121.399512,31.230119],[121.39952,31.230093],[121.399528,31.230067],[121.399536,31.230044],[121.399544,31.23002],[121.399553,31.229995],[121.399562,31.22997],[121.399572,31.229946],[121.399583,31.229924],[121.399594,31.229903],[121.39961,31.229877],[121.399626,31.229852],[121.399645,31.229829],[121.399668,31.229809],[121.399696,31.229791],[121.399729,31.229775],[121.399761,31.229764],[121.399795,31.229754],[121.399829,31.229748],[121.399864,31.229744],[121.399899,31.229741],[121.399932,31.229741],[121.399965,31.229742],[121.399997,31.229745],[121.400028,31.22975],[121.40006,31.229759],[121.400092,31.229769],[121.400129,31.229784],[121.400164,31.229801],[121.400196,31.22982],[121.400221,31.229839],[121.400243,31.229859],[121.400264,31.229881],[121.400284,31.229905],[121.400301,31.22993],[121.400316,31.229955],[121.400328,31.229982],[121.400336,31.23001],[121.400342,31.230037],[121.400344,31.230067],[121.400345,31.230096],[121.400343,31.230124],[121.400339,31.230154],[121.400334,31.230183],[121.400325,31.230217],[121.400318,31.230249],[121.400311,31.230279],[121.400303,31.230305],[121.400292,31.230331],[121.400279,31.230359],[121.400268,31.230391],[121.40026,31.230422],[121.400252,31.230452],[121.400244,31.230482],[121.400235,31.23051],[121.400226,31.230538],[121.400217,31.230563],[121.400208,31.23059],[121.400198,31.230617],[121.400189,31.230646],[121.40018,31.230675],[121.400169,31.230707],[121.400158,31.230741],[121.400147,31.230773],[121.400137,31.230803],[121.400127,31.23083],[121.400117,31.230857],[121.400106,31.230882],[121.400097,31.230907],[121.400087,31.23093],[121.400077,31.230952],[121.400064,31.230976],[121.400052,31.230997],[121.400038,31.231019],[121.400022,31.231041],[121.400002,31.231063],[121.399978,31.231084],[121.399949,31.231104],[121.399915,31.231123],[121.39988,31.231138],[121.399844,31.231151],[121.39981,31.231159],[121.399775,31.231165],[121.399738,31.231169],[121.399701,31.231168],[121.399663,31.231165],[121.399629,31.231159],[121.399596,31.231151],[121.399566,31.231141],[121.399536,31.231129],[121.399509,31.231115],[121.399485,31.2311],[121.399463,31.231083],[121.399444,31.231066],[121.399424,31.231045],[121.399403,31.231021],[121.399383,31.230995],[121.399367,31.230969],[121.399354,31.230944],[121.399344,31.230917],[121.399336,31.230888],[121.399329,31.23086],[121.399326,31.23083],[121.399324,31.2308],[121.399326,31.23077],[121.399329,31.230741],[121.399333,31.230711],[121.399338,31.23068],[121.399344,31.230648],[121.399352,31.230617],[121.39936,31.230588],[121.399369,31.230559],[121.399379,31.230529],[121.399389,31.230499],[121.3994,31.230468],[121.399409,31.230441],[121.39942,31.230414],[121.39943,31.230386],[121.399441,31.230359],[121.399452,31.230331],[121.399462,31.230303],[121.399472,31.230275],[121.399482,31.230249],[121.39949,31.230226],[121.399498,31.230203],[121.399507,31.230176],[121.399515,31.230152],[121.399525,31.230124],[121.399534,31.230099],[121.399547,31.230064],[121.399559,31.230034],[121.39957,31.230004],[121.39958,31.229978],[121.399591,31.229954],[121.399601,31.229932],[121.399611,31.229914],[121.399622,31.229895],[121.399636,31.229871],[121.399652,31.229849],[121.399674,31.229826],[121.3997,31.229807],[121.39973,31.229789],[121.399759,31.229776],[121.39979,31.229765],[121.399821,31.229757],[121.399853,31.22975],[121.399887,31.229745],[121.399921,31.229743],[121.399955,31.229742],[121.399986,31.229745],[121.400017,31.229748],[121.40005,31.229753],[121.400081,31.229759],[121.400111,31.229768],[121.400139,31.229779],[121.400168,31.229793],[121.400195,31.229809],[121.400218,31.229826],[121.400238,31.229843],[121.400256,31.229862],[121.400274,31.229883],[121.400291,31.229909],[121.400308,31.229937],[121.400324,31.229971],[121.400336,31.230006],[121.400346,31.230041],[121.400352,31.230073],[121.400355,31.230104],[121.400356,31.230134],[121.400353,31.230163],[121.400347,31.230192],[121.400338,31.230221],[121.400328,31.23025],[121.400321,31.230276],[121.400312,31.230302],[121.400301,31.230327],[121.400287,31.230356],[121.400275,31.230387],[121.400265,31.230418],[121.400256,31.230449],[121.400245,31.230481],[121.400234,31.230513],[121.400224,31.230544],[121.400216,31.230571],[121.400207,31.230598],[121.400197,31.230626],[121.400188,31.230655],[121.40018,31.230684],[121.40017,31.230713],[121.400159,31.230743],[121.400148,31.230772],[121.400137,31.230801],[121.400126,31.230829],[121.400117,31.230856],[121.400108,31.230883],[121.4001,31.230909],[121.400089,31.230932],[121.400073,31.230961],[121.400056,31.23099],[121.400037,31.23102],[121.400017,31.231044],[121.399993,31.231069],[121.399968,31.231091],[121.39994,31.231111],[121.39991,31.231128],[121.399879,31.231143],[121.399848,31.231155],[121.399816,31.231165],[121.399784,31.231172],[121.399751,31.231176],[121.399721,31.231177],[121.399689,31.231176],[121.399658,31.231173],[121.399626,31.231167],[121.399592,31.231155],[121.399559,31.231141],[121.399525,31.231125],[121.399498,31.231109],[121.399472,31.231091],[121.399448,31.231071],[121.399426,31.231048],[121.399405,31.231025],[121.399387,31.231001],[121.399371,31.230978],[121.399358,31.230954],[121.399348,31.23093],[121.39934,31.230905],[121.399336,31.230881],[121.399333,31.230853],[121.399332,31.230823],[121.399333,31.230791],[121.399336,31.230755],[121.399341,31.230721],[121.399347,31.230685],[121.399353,31.230656],[121.39936,31.230627],[121.399368,31.230598],[121.399376,31.230569],[121.399385,31.230539],[121.399394,31.230512],[121.399404,31.230484],[121.399414,31.230457],[121.399424,31.230429],[121.399434,31.2304],[121.399443,31.230371],[121.399452,31.23034],[121.399463,31.230308],[121.399473,31.230276],[121.399484,31.230241],[121.399494,31.230208],[121.399506,31.230175],[121.399516,31.230145],[121.399527,31.230113],[121.399537,31.230084],[121.399548,31.230057],[121.399558,31.23003],[121.39957,31.230004],[121.399581,31.229978],[121.399594,31.229952],[121.399607,31.229928],[121.399621,31.229904],[121.399635,31.229883],[121.399653,31.229858],[121.399674,31.229835],[121.399698,31.229813],[121.399729,31.229793],[121.399763,31.229776],[121.3998,31.229762],[121.399833,31.229753],[121.399868,31.229746],[121.399903,31.229743],[121.399937,31.229742],[121.399973,31.229744],[121.400007,31.229749],[121.400041,31.229755],[121.400074,31.229763],[121.400107,31.229774],[121.400138,31.229786],[121.400168,31.229802],[121.400197,31.229821],[121.400225,31.229842],[121.400248,31.229864],[121.400272,31.229893],[121.400294,31.229922],[121.400314,31.229955],[121.400328,31.229985],[121.400341,31.230017],[121.400349,31.230048],[121.400354,31.230078],[121.400354,31.230107],[121.400355,31.230136],[121.400353,31.230165],[121.400349,31.230192],[121.400342,31.230216],[121.400331,31.230241],[121.40032,31.230269],[121.400309,31.230298],[121.400301,31.230328],[121.400291,31.230358],[121.40028,31.230391],[121.40027,31.230423],[121.40026,31.230455],[121.400251,31.230483],[121.400243,31.230512],[121.400234,31.230541],[121.400225,31.230569],[121.400215,31.230596],[121.400205,31.230623],[121.400195,31.23065],[121.400184,31.230677],[121.400173,31.230705],[121.400161,31.230734],[121.400151,31.230762],[121.400141,31.230793],[121.400133,31.230823],[121.400123,31.230853],[121.400111,31.230881],[121.400098,31.23091],[121.400086,31.230937],[121.400071,31.230964],[121.400057,31.230991],[121.40004,31.231015],[121.40002,31.231039],[121.399997,31.231061],[121.399973,31.231082],[121.399948,31.231101],[121.399922,31.231118],[121.399896,31.231132],[121.399868,31.231144],[121.399838,31.231154],[121.399806,31.231161],[121.39977,31.231166],[121.399733,31.231169],[121.39969,31.231169],[121.399652,31.231166],[121.399615,31.231159],[121.399585,31.231149],[121.399553,31.231137],[121.399523,31.231121],[121.399495,31.231104],[121.399469,31.231085],[121.399447,31.231066],[121.399424,31.231044],[121.399405,31.231021],[121.399388,31.230997],[121.399374,31.230973],[121.399363,31.230947],[121.399354,31.230919],[121.399347,31.230889],[121.399343,31.230858],[121.39934,31.23082],[121.39934,31.230786],[121.399342,31.230751],[121.399345,31.230721],[121.399349,31.230689],[121.399355,31.230657],[121.399363,31.230624],[121.399371,31.230591],[121.399379,31.230561],[121.399388,31.230532],[121.399397,31.230508],[121.399406,31.230482],[121.399416,31.230455],[121.399426,31.230428],[121.399436,31.2304],[121.399446,31.230371],[121.399456,31.230341],[121.399468,31.230306],[121.399478,31.230276],[121.399489,31.230245],[121.399497,31.230221],[121.399506,31.230193],[121.399516,31.230165],[121.399526,31.230138],[121.399537,31.230108],[121.399547,31.230082],[121.399557,31.230057],[121.399568,31.230031],[121.39958,31.230006],[121.399592,31.229981],[121.399605,31.229957],[121.399619,31.229932],[121.399634,31.229907],[121.399652,31.22988],[121.399671,31.229854],[121.399692,31.22983],[121.399713,31.229809],[121.399743,31.229788],[121.399778,31.22977],[121.399814,31.229757],[121.399844,31.229749],[121.399874,31.229743],[121.399904,31.229741],[121.399939,31.22974],[121.399974,31.229742],[121.400008,31.229747],[121.400043,31.229754],[121.400076,31.229764],[121.400108,31.229775],[121.400139,31.229789],[121.40017,31.229806],[121.400203,31.229828],[121.400231,31.22985],[121.400258,31.229874],[121.400278,31.229896],[121.400296,31.229921],[121.400311,31.229946],[121.400323,31.229974],[121.400332,31.23],[121.400338,31.230026],[121.400342,31.230054],[121.400346,31.230083],[121.400347,31.230114],[121.400347,31.230145],[121.400346,31.230174],[121.40034,31.230202],[121.400329,31.23023],[121.400315,31.23026],[121.400302,31.230296],[121.400293,31.23033],[121.400284,31.230362],[121.400276,31.23039],[121.400267,31.23042],[121.40026,31.23045],[121.400254,31.23048],[121.400246,31.230507],[121.400236,31.230534],[121.400226,31.23056],[121.400216,31.230586],[121.400206,31.230614],[121.400196,31.230642],[121.400185,31.230671],[121.400176,31.230699],[121.400164,31.230731],[121.400153,31.230763],[121.400141,31.230796],[121.400131,31.230824],[121.400121,31.230853],[121.400111,31.23088],[121.400099,31.230908],[121.400088,31.230935],[121.400074,31.230964],[121.400059,31.230991],[121.40004,31.231017],[121.40002,31.23104],[121.399997,31.231064],[121.399971,31.231086],[121.399945,31.231105],[121.399918,31.231124],[121.399893,31.231141],[121.399863,31.231154],[121.399832,31.231163],[121.399796,31.231169],[121.39976,31.231173],[121.399725,31.231175],[121.399688,31.231174],[121.399656,31.23117],[121.399623,31.231163],[121.399595,31.231154],[121.399566,31.231142],[121.39954,31.231129],[121.399513,31.231115],[121.399488,31.231099],[121.399464,31.231081],[121.39944,31.231062],[121.399417,31.23104],[121.399396,31.231016],[121.399377,31.230987],[121.399361,31.230958],[121.399348,31.230927],[121.39934,31.2309],[121.399334,31.230873],[121.399331,31.230846],[121.399331,31.230817],[121.399332,31.230788],[121.399334,31.230758],[121.399339,31.230728],[121.399345,31.230697],[121.399352,31.230666],[121.399359,31.230635],[121.399367,31.230605],[121.399375,31.230576],[121.399383,31.230549],[121.399393,31.230519],[121.399404,31.230488],[121.399414,31.230457],[121.399425,31.230427],[121.399435,31.230397],[121.399444,31.230369],[121.399453,31.230341],[121.399461,31.230313],[121.399469,31.230285],[121.399477,31.230258],[121.399484,31.230232],[121.399494,31.230205],[121.399503,31.230178],[121.399513,31.230151],[121.399523,31.230124],[121.399532,31.230096],[121.399541,31.230071],[121.399551,31.230045],[121.399563,31.230015],[121.399576,31.229983],[121.39959,31.229952],[121.399605,31.229923],[121.399621,31.229897],[121.399638,31.229872],[121.399654,31.22985],[121.399673,31.229828],[121.399695,31.229809],[121.399721,31.229792],[121.39975,31.229777],[121.39978,31.229765],[121.39981,31.229755],[121.39984,31.229749],[121.399873,31.229744],[121.399906,31.229742],[121.39994,31.229742],[121.399979,31.229746],[121.400021,31.229753],[121.400062,31.229762],[121.4001,31.229774],[121.400137,31.229789],[121.400172,31.229806],[121.400204,31.229825],[121.400233,31.229847],[121.400258,31.229869],[121.400281,31.229893],[121.4003,31.229919],[121.400315,31.229945],[121.400328,31.229972],[121.400337,31.23],[121.400344,31.230029],[121.400349,31.23006],[121.400354,31.230091],[121.400357,31.230122],[121.400355,31.230153],[121.400346,31.230182],[121.400333,31.230212],[121.400322,31.230242],[121.400311,31.230271],[121.400301,31.230301],[121.400292,31.230329],[121.400284,31.230358],[121.400277,31.230385],[121.400272,31.230412],[121.400267,31.230438],[121.400261,31.230465],[121.400254,31.230491],[121.400245,31.230519],[121.400234,31.230549],[121.400225,31.230578],[121.400213,31.230611],[121.400201,31.230642],[121.400188,31.230676],[121.400177,31.230705],[121.400165,31.230734],[121.400154,31.23076],[121.400143,31.230788],[121.400132,31.230815],[121.400122,31.230843],[121.400112,31.230872],[121.4001,31.2309],[121.400088,31.230929],[121.400074,31.230956],[121.400058,31.230982],[121.400041,31.231007],[121.400021,31.231033],[121.4,31.231058],[121.399973,31.231081],[121.399946,31.231101],[121.399913,31.231118],[121.399883,31.231133],[121.399852,31.231145],[121.399822,31.231154],[121.39979,31.231161],[121.399758,31.231165],[121.399726,31.231167],[121.399694,31.231166],[121.399662,31.231163],[121.39963,31.231158],[121.399599,31.231149],[121.399569,31.231138],[121.399539,31.231125],[121.39951,31.231109],[121.399482,31.231091],[121.399453,31.231068],[121.399425,31.231042],[121.3994,31.231013],[121.39938,31.230987],[121.399363,31.230957],[121.39935,31.23093],[121.39934,31.230901],[121.399334,31.230876],[121.399331,31.230849],[121.399331,31.230822],[121.399333,31.230794],[121.399337,31.230763],[121.399342,31.230733],[121.399348,31.230702],[121.399357,31.230666],[121.399364,31.230634],[121.399373,31.230602],[121.399381,31.230575],[121.399392,31.230542],[121.399402,31.23051],[121.399413,31.230478],[121.399422,31.230449],[121.39943,31.230422],[121.399438,31.230397],[121.399445,31.230372],[121.399453,31.230345],[121.399461,31.230317],[121.399469,31.230288],[121.399478,31.23026],[121.399486,31.230231],[121.399494,31.230202],[121.399503,31.230173],[121.39951,31.230147],[121.399519,31.230119],[121.399529,31.230091],[121.399538,31.230063],[121.399548,31.230036],[121.39956,31.230006],[121.399573,31.229977],[121.399586,31.22995],[121.399597,31.229926],[121.39961,31.229902],[121.399623,31.229879],[121.399636,31.229857],[121.399654,31.229835],[121.399678,31.229814],[121.399708,31.229794],[121.399739,31.229779],[121.39977,31.229766],[121.399803,31.229757],[121.399834,31.229749],[121.399869,31.229744],[121.399906,31.229742],[121.399947,31.229742],[121.399986,31.229745],[121.400025,31.22975],[121.400061,31.229758],[121.400097,31.229768],[121.400131,31.22978],[121.400164,31.229794],[121.400194,31.22981],[121.40022,31.229828],[121.400243,31.229848],[121.400264,31.229869],[121.400284,31.229893],[121.400301,31.22992],[121.400316,31.229949],[121.400328,31.229976],[121.400338,31.230007],[121.400344,31.23004],[121.40035,31.230075],[121.400355,31.230107],[121.400356,31.230135],[121.400351,31.230162],[121.400342,31.230189],[121.400332,31.230219],[121.400322,31.230248],[121.400313,31.230277],[121.400304,31.230306],[121.400295,31.230335],[121.400288,31.230363],[121.40028,31.230391],[121.400271,31.23042],[121.400262,31.230451],[121.400253,31.230482],[121.400243,31.230512],[121.400231,31.230546],[121.400219,31.230577],[121.400206,31.23061],[121.400195,31.23064],[121.400185,31.23067],[121.400175,31.230699],[121.400165,31.230728],[121.400156,31.230756],[121.400147,31.230784],[121.400138,31.230812],[121.400129,31.230839],[121.400119,31.230868],[121.400108,31.230896],[121.400097,31.230924],[121.400086,31.230951],[121.400074,31.230977],[121.400059,31.231003],[121.40004,31.23103],[121.400018,31.231053],[121.399993,31.231075],[121.399968,31.231093],[121.399942,31.23111],[121.399915,31.231124],[121.399886,31.231138],[121.399857,31.231149],[121.399826,31.231158],[121.399793,31.231165],[121.39976,31.23117],[121.399729,31.231171],[121.399698,31.23117],[121.399669,31.231167],[121.399641,31.231161],[121.399612,31.231153],[121.399583,31.231142],[121.399551,31.231127],[121.39952,31.231111],[121.399488,31.231091],[121.399461,31.231072],[121.399436,31.231051],[121.399414,31.231029],[121.399394,31.231006],[121.399377,31.23098],[121.399363,31.230956],[121.399352,31.230928],[121.399344,31.2309],[121.399339,31.230871],[121.399337,31.23084],[121.399336,31.230807],[121.399338,31.230772],[121.399341,31.230736],[121.399346,31.230703],[121.399355,31.230668],[121.399363,31.230636],[121.399374,31.230601],[121.399383,31.230572],[121.399392,31.230543],[121.3994,31.230516],[121.399409,31.230488],[121.399418,31.230461],[121.399426,31.230434],[121.399435,31.230406],[121.399444,31.230379],[121.399452,31.230355],[121.39946,31.230328],[121.399468,31.230301],[121.399477,31.230271],[121.399485,31.230243],[121.399493,31.230215],[121.399502,31.230183],[121.399511,31.230151],[121.399521,31.230114],[121.39953,31.230085],[121.39954,31.230055],[121.399549,31.230027],[121.399559,31.23],[121.39957,31.229974],[121.399581,31.229948],[121.399592,31.229924],[121.399604,31.2299],[121.399616,31.229878],[121.399632,31.229855],[121.399654,31.229832],[121.399682,31.229811],[121.399714,31.229791],[121.399747,31.229775],[121.399786,31.229761],[121.399823,31.229751],[121.399863,31.229744],[121.399896,31.22974],[121.399929,31.229738],[121.399962,31.22974],[121.399995,31.229743],[121.400029,31.229749],[121.400062,31.229757],[121.400095,31.229767],[121.400127,31.22978],[121.400158,31.229794],[121.400186,31.22981],[121.400213,31.229828],[121.400236,31.229848],[121.400257,31.22987],[121.400277,31.229894],[121.400295,31.229922],[121.400311,31.229952],[121.400325,31.229985],[121.400335,31.230016],[121.400341,31.230047],[121.400345,31.230078],[121.400349,31.230106],[121.40035,31.230132],[121.400343,31.230157],[121.400333,31.230184],[121.400322,31.230214],[121.400313,31.230245],[121.400305,31.230276],[121.400297,31.230305],[121.400289,31.230334],[121.400281,31.230363],[121.400273,31.230392],[121.400265,31.230425],[121.400256,31.230458],[121.400246,31.230491],[121.400236,31.230521],[121.400227,31.23055],[121.400217,31.230578],[121.400208,31.230606],[121.400198,31.230635],[121.400188,31.230663],[121.400177,31.230692],[121.400167,31.230721],[121.400156,31.23075],[121.400147,31.230776],[121.400137,31.230805],[121.400127,31.230832],[121.400118,31.230862],[121.400111,31.23089],[121.400102,31.230921],[121.400091,31.230949],[121.400074,31.230978],[121.400056,31.231004],[121.400036,31.231029],[121.400012,31.231052],[121.399984,31.231074],[121.399955,31.231094],[121.399924,31.231112],[121.399893,31.231128],[121.399863,31.231142],[121.399832,31.231152],[121.399801,31.23116],[121.399769,31.231166],[121.39974,31.231169],[121.399712,31.23117],[121.399684,31.231169],[121.399651,31.231163],[121.399618,31.231154],[121.399581,31.231143],[121.39955,31.23113],[121.399519,31.231115],[121.399491,31.231098],[121.399465,31.23108],[121.399441,31.231059],[121.399417,31.231037],[121.399396,31.231013],[121.399378,31.230988],[121.399364,31.230962],[121.399354,31.230935],[121.399346,31.230907],[121.39934,31.230878],[121.399336,31.230848],[121.399335,31.230817],[121.399335,31.230781],[121.399339,31.230743],[121.399344,31.230705],[121.399351,31.230672],[121.39936,31.230641],[121.399369,31.230612],[121.399379,31.230583],[121.399388,31.230555],[121.399397,31.230527],[121.399406,31.2305],[121.399414,31.230473],[121.399424,31.230444],[121.399433,31.230418],[121.399443,31.230391],[121.399452,31.230365],[121.399461,31.230338],[121.399468,31.230311],[121.399476,31.230279],[121.399484,31.230246],[121.399492,31.23021],[121.3995,31.230179],[121.399509,31.230146],[121.399518,31.230116],[121.399527,31.230087],[121.399537,31.230059],[121.399546,31.230031],[121.399555,31.230005],[121.399564,31.22998],[121.399574,31.229957],[121.399586,31.229934],[121.399599,31.229911],[121.399616,31.229887],[121.399635,31.229863],[121.399658,31.22984],[121.399687,31.229818],[121.39972,31.229798],[121.399756,31.22978],[121.399791,31.229766],[121.399824,31.229757],[121.399858,31.22975],[121.39989,31.229745],[121.399924,31.229744],[121.399958,31.229744],[121.399992,31.229746],[121.400026,31.229751],[121.40006,31.229759],[121.400094,31.229768],[121.400127,31.22978],[121.400157,31.229793],[121.400185,31.229809],[121.40021,31.229827],[121.400235,31.22985],[121.400258,31.229877],[121.400279,31.229905],[121.400296,31.229933],[121.40031,31.229963],[121.400321,31.229993],[121.400329,31.230024],[121.400335,31.230057],[121.400341,31.23009],[121.400342,31.230119],[121.400338,31.230148],[121.400329,31.230179],[121.40032,31.230217],[121.400311,31.230253],[121.400302,31.230287],[121.400295,31.230313],[121.400288,31.230337],[121.400279,31.230368],[121.400268,31.230403],[121.400257,31.230441],[121.400247,31.230473],[121.400239,31.230501],[121.400231,31.23053],[121.400222,31.230559],[121.400212,31.230593],[121.400202,31.230623],[121.400192,31.230653],[121.400182,31.230683],[121.400172,31.230711],[121.400163,31.230739],[121.400153,31.230767],[121.400144,31.230794],[121.400135,31.230821],[121.400125,31.230847],[121.400113,31.230877],[121.400101,31.230907],[121.400089,31.230935],[121.400077,31.23096],[121.400065,31.230984],[121.400053,31.231008],[121.400038,31.231028],[121.400018,31.231047],[121.399991,31.231066],[121.399963,31.231083],[121.399933,31.2311],[121.399901,31.231115],[121.399869,31.231129],[121.399836,31.231141],[121.399803,31.23115],[121.399768,31.231157],[121.399733,31.231161],[121.399696,31.231163],[121.399657,31.23116],[121.399618,31.231154],[121.399584,31.231145],[121.399555,31.231135],[121.399526,31.231121],[121.399498,31.231105],[121.399471,31.231086],[121.399445,31.231066],[121.399421,31.231044],[121.399399,31.23102],[121.399381,31.230995],[121.399367,31.230968],[121.399355,31.230938],[121.399346,31.230908],[121.399339,31.230876],[121.399334,31.230845],[121.399333,31.23081],[121.399334,31.230773],[121.399338,31.230735],[121.399344,31.230701],[121.399351,31.230668],[121.39936,31.230637],[121.399369,31.230608],[121.399379,31.23058],[121.399389,31.230552],[121.399398,31.230524],[121.399407,31.230499],[121.399417,31.230471],[121.399427,31.230443],[121.399437,31.230413],[121.399448,31.230383],[121.399457,31.230352],[121.399465,31.230321],[121.399473,31.230287],[121.39948,31.23025],[121.399489,31.230212],[121.399498,31.23018],[121.399508,31.230147],[121.399519,31.230116],[121.39953,31.230085],[121.39954,31.230057],[121.39955,31.230029],[121.399561,31.230001],[121.399574,31.229973],[121.399588,31.229946],[121.399603,31.22992],[121.39962,31.229895],[121.399638,31.229871],[121.399659,31.229849],[121.399683,31.229828],[121.399714,31.229808],[121.399749,31.22979],[121.399783,31.229774],[121.399815,31.229763],[121.399848,31.229754],[121.399881,31.229748],[121.399917,31.229744],[121.399954,31.229744],[121.399989,31.229746],[121.400024,31.229751],[121.400058,31.229759],[121.400091,31.229769],[121.400123,31.229781],[121.400153,31.229795],[121.400181,31.229811],[121.400208,31.229829],[121.400233,31.22985],[121.400257,31.229877],[121.40028,31.229907],[121.400299,31.229937],[121.400312,31.229967],[121.400321,31.229996],[121.400327,31.230027],[121.400332,31.230059],[121.400336,31.230091],[121.400336,31.230122],[121.400329,31.230156],[121.40032,31.230191],[121.400312,31.230225],[121.400303,31.230254],[121.400295,31.230283],[121.400286,31.230311],[121.400278,31.230339],[121.400269,31.230367],[121.400259,31.230401],[121.400249,31.230433],[121.400238,31.230469],[121.400229,31.2305],[121.40022,31.230531],[121.400211,31.230561],[121.400201,31.230591],[121.400192,31.230621],[121.400183,31.230651],[121.400174,31.23068],[121.400165,31.23071],[121.400157,31.230736],[121.40015,31.230761],[121.400141,31.230788],[121.400132,31.230815],[121.400123,31.230843],[121.400113,31.23087],[121.4001,31.230899],[121.400087,31.230927],[121.400073,31.230954],[121.400061,31.230978],[121.400043,31.231003],[121.40002,31.231025],[121.399989,31.231049],[121.399956,31.23107],[121.399922,31.23109],[121.399887,31.231108],[121.39985,31.231124],[121.399812,31.231137],[121.399772,31.231147],[121.399733,31.231154],[121.399694,31.231157],[121.399656,31.231156],[121.399619,31.231152],[121.399579,31.231142],[121.399542,31.231129],[121.399505,31.231111],[121.399474,31.231092],[121.399447,31.231071],[121.399424,31.231049],[121.399404,31.231025],[121.399386,31.230999],[121.399372,31.230972],[121.399361,31.230944],[121.399353,31.230917],[121.399347,31.230889],[121.399343,31.230859],[121.399339,31.230829],[121.399338,31.230797],[121.399339,31.230762],[121.399341,31.230729],[121.399349,31.230693],[121.399358,31.230658],[121.399369,31.230622],[121.399379,31.230592],[121.399389,31.230562],[121.399399,31.230533],[121.399409,31.230503],[121.399419,31.230474],[121.399429,31.230444],[121.399439,31.230414],[121.399449,31.230383],[121.399459,31.230352],[121.399468,31.230321],[121.399477,31.23029],[121.399486,31.230259],[121.399495,31.230228],[121.399505,31.230198],[121.399516,31.230163],[121.399528,31.230129],[121.39954,31.230097],[121.399552,31.230067],[121.399565,31.230039],[121.399577,31.230012],[121.39959,31.229986],[121.399604,31.22996],[121.399618,31.229935],[121.399631,31.22991],[121.399645,31.229887],[121.399664,31.229862],[121.39969,31.229839],[121.399723,31.229816],[121.399758,31.229797],[121.399794,31.229782],[121.39983,31.229771],[121.399871,31.229763],[121.399912,31.229758],[121.399956,31.229757],[121.399994,31.229758],[121.40003,31.229762],[121.400064,31.229769],[121.400097,31.22978],[121.400128,31.229792],[121.400156,31.229807],[121.400183,31.229824],[121.400208,31.229844],[121.400231,31.229866],[121.400253,31.229891],[121.400273,31.229918],[121.400291,31.229947],[121.400306,31.229977],[121.400318,31.230008],[121.400325,31.230046],[121.400328,31.230084],[121.400329,31.230124],[121.400324,31.230159],[121.400316,31.230195],[121.400305,31.230231],[121.400296,31.230266],[121.400289,31.230298],[121.400282,31.230328],[121.400271,31.230356],[121.400258,31.230385],[121.400248,31.230415],[121.400238,31.230445],[121.40023,31.230475],[121.400221,31.230506],[121.400212,31.230537],[121.400204,31.230568],[121.400194,31.230603],[121.400182,31.230638],[121.400171,31.230673],[121.400161,31.230703],[121.400152,31.230731],[121.400144,31.230761],[121.400137,31.230792],[121.400129,31.230823],[121.400122,31.230854],[121.400114,31.230883],[121.400103,31.230912],[121.400089,31.230939],[121.400074,31.230965],[121.400055,31.230989],[121.400034,31.231012],[121.40001,31.231034],[121.399984,31.231054],[121.39995,31.231077],[121.399914,31.231098],[121.399877,31.231116],[121.399843,31.231128],[121.399807,31.231137],[121.399769,31.231144],[121.399731,31.231148],[121.399692,31.23115],[121.399654,31.23115],[121.399617,31.231147],[121.399581,31.231139],[121.399546,31.231127],[121.399514,31.231112],[121.399484,31.231094],[121.399456,31.231074],[121.399431,31.231053],[121.399407,31.23103],[121.399382,31.231001],[121.399362,31.230972],[121.399345,31.230939],[121.399335,31.23091],[121.399328,31.23088],[121.399324,31.230851],[121.399323,31.230821],[121.399324,31.230791],[121.399328,31.23076],[121.399334,31.230728],[121.399342,31.230694],[121.399351,31.230661],[121.399362,31.230628],[121.399373,31.230596],[121.399384,31.230564],[121.399395,31.230533],[121.399407,31.230501],[121.39942,31.230465],[121.399434,31.230427],[121.399447,31.230388],[121.399458,31.230353],[121.399467,31.23032],[121.399477,31.230288],[121.399486,31.230256],[121.399496,31.230224],[121.399507,31.230192],[121.399517,31.230163],[121.399527,31.230133],[121.399537,31.230103],[121.399542,31.230088],[121.399546,31.230078]]}}]}