{"type":"FeatureCollection","features":[{"type":"Feature","properties":{"id":"2026-04-07_running_27","type":"running","date":"2026-04-07"},"geometry":{"type":"LineString","coordinates":[[121.399573,31.229965],[121.399596,31.229925],[121.399602,31.229913],[121.399618,31.229888],[121.399631,31.229868],[121.399649,31.229847],[121.399667,31.22983],[121.399691,31.229812],[121.399717,31.229795],[121.399743,31.229779],[121.39977,31.229765],[121.399801,31.229754],[121.39983,31.229746],[121.399866,31.22974],[121.399902,31.229737],[121.399939,31.229736],[121.399972,31.229738],[121.400004,31.229742],[121.400035,31.229747],[121.400065,31.229753],[121.400093,31.229762],[121.400123,31.229774],[121.400154,31.229789],[121.400183,31.229806],[121.400208,31.229823],[121.400231,31.229842],[121.40025,31.229862],[121.400268,31.229884],[121.400283,31.229908],[121.400298,31.229935],[121.400311,31.229967],[121.400321,31.230001],[121.400328,31.230032],[121.40033,31.230059],[121.40033,31.230086],[121.400328,31.230113],[121.400324,31.230141],[121.400319,31.230169],[121.400312,31.230197],[121.400305,31.230226],[121.400296,31.230255],[121.400288,31.230283],[121.40028,31.230309],[121.400272,31.230334],[121.400265,31.230359],[121.400256,31.230387],[121.400248,31.230413],[121.400239,31.230444],[121.400229,31.230475],[121.400219,31.230507],[121.400211,31.230536],[121.400203,31.230565],[121.400194,31.230592],[121.400186,31.23062],[121.400177,31.230649],[121.400168,31.230677],[121.400159,31.230705],[121.40015,31.230732],[121.40014,31.230762],[121.40013,31.23079],[121.40012,31.230819],[121.40011,31.230846],[121.4001,31.230872],[121.40009,31.230899],[121.400079,31.230928],[121.400067,31.230955],[121.400053,31.230982],[121.400039,31.231004],[121.400022,31.231026],[121.400002,31.231048],[121.399981,31.231069],[121.399956,31.23109],[121.39993,31.231109],[121.399902,31.231125],[121.399872,31.231139],[121.39984,31.231151],[121.399806,31.23116],[121.399772,31.231167],[121.399739,31.23117],[121.399706,31.23117],[121.399673,31.231168],[121.399634,31.231162],[121.399595,31.231154],[121.399558,31.231145],[121.399528,31.231134],[121.399499,31.231122],[121.399471,31.231105],[121.399447,31.231088],[121.399424,31.231069],[121.399404,31.231048],[121.399385,31.231026],[121.399367,31.231003],[121.399352,31.230979],[121.39934,31.230954],[121.399329,31.230928],[121.399322,31.230901],[121.399317,31.230873],[121.399314,31.230843],[121.399314,31.230809],[121.399316,31.230776],[121.399322,31.230742],[121.399328,31.230714],[121.399336,31.230684],[121.399342,31.230653],[121.399349,31.230624],[121.399357,31.230595],[121.399365,31.230571],[121.399373,31.230546],[121.399382,31.23052],[121.39939,31.230494],[121.399399,31.230468],[121.399408,31.230441],[121.399416,31.230414],[121.399425,31.230386],[121.399434,31.23036],[121.399445,31.230327],[121.399456,31.230295],[121.399468,31.230262],[121.399478,31.230235],[121.399487,31.230208],[121.399496,31.230181],[121.399506,31.230154],[121.399516,31.230125],[121.399526,31.230098],[121.399534,31.230071],[121.399544,31.230048],[121.399553,31.230026],[121.399565,31.230001],[121.399577,31.229975],[121.399589,31.22995],[121.399603,31.229925],[121.399618,31.2299],[121.399638,31.22987],[121.399658,31.229845],[121.399685,31.229819],[121.399715,31.2298],[121.399747,31.229782],[121.399777,31.229769],[121.399809,31.229759],[121.39984,31.229751],[121.399872,31.229745],[121.399905,31.229742],[121.399938,31.229741],[121.399971,31.229741],[121.400003,31.229744],[121.400034,31.229749],[121.400065,31.229756],[121.400096,31.229766],[121.400125,31.229779],[121.400159,31.229796],[121.400189,31.229816],[121.400217,31.229838],[121.400239,31.22986],[121.400261,31.229887],[121.40028,31.229914],[121.400297,31.229943],[121.400309,31.229971],[121.400318,31.230001],[121.400323,31.23003],[121.400326,31.230059],[121.400327,31.230087],[121.400326,31.230116],[121.400323,31.230148],[121.400316,31.230178],[121.400308,31.230211],[121.400299,31.230245],[121.400288,31.230279],[121.400277,31.230313],[121.400267,31.230342],[121.400259,31.230368],[121.40025,31.230394],[121.400241,31.230421],[121.400232,31.230448],[121.400224,31.230473],[121.400214,31.2305],[121.400205,31.230528],[121.400196,31.230556],[121.400186,31.230583],[121.400177,31.230611],[121.400167,31.230641],[121.400157,31.230669],[121.400147,31.230697],[121.400138,31.230724],[121.400126,31.230757],[121.400115,31.230789],[121.400103,31.230823],[121.400093,31.23085],[121.400082,31.230877],[121.400072,31.230901],[121.400061,31.230928],[121.400048,31.230954],[121.400035,31.23098],[121.400021,31.231004],[121.400005,31.231028],[121.399987,31.23105],[121.399967,31.231072],[121.399938,31.231095],[121.399907,31.231116],[121.399868,31.231134],[121.399833,31.231148],[121.399789,31.23116],[121.399749,31.231166],[121.39971,31.23117],[121.399675,31.231169],[121.399638,31.231166],[121.399603,31.23116],[121.39957,31.231152],[121.39954,31.231143],[121.399511,31.231131],[121.399487,31.231119],[121.399463,31.231103],[121.39944,31.231086],[121.399416,31.231065],[121.399395,31.231045],[121.399377,31.231022],[121.39936,31.230996],[121.399346,31.230967],[121.399332,31.230934],[121.399322,31.2309],[121.399315,31.230867],[121.399312,31.230836],[121.399312,31.230806],[121.399314,31.230776],[121.399319,31.230747],[121.399326,31.230718],[121.399334,31.23069],[121.399343,31.230661],[121.399351,31.230634],[121.399359,31.230607],[121.399367,31.230581],[121.399375,31.230556],[121.399384,31.230527],[121.399393,31.230498],[121.399402,31.230466],[121.399411,31.230434],[121.399421,31.230402],[121.39943,31.230372],[121.399439,31.230344],[121.399448,31.230317],[121.399457,31.230288],[121.399467,31.230259],[121.399476,31.230232],[121.399486,31.230205],[121.399495,31.230177],[121.399503,31.230149],[121.399512,31.230121],[121.399521,31.230094],[121.399531,31.230066],[121.399541,31.23004],[121.399552,31.230012],[121.399564,31.229984],[121.399581,31.229952],[121.399599,31.229922],[121.399619,31.229892],[121.399639,31.229867],[121.399661,31.229843],[121.399688,31.229821],[121.399717,31.2298],[121.399749,31.229782],[121.39978,31.229769],[121.399813,31.229758],[121.399845,31.229749],[121.399878,31.229743],[121.399913,31.22974],[121.399948,31.22974],[121.399983,31.229741],[121.400018,31.229745],[121.400051,31.229751],[121.400089,31.229762],[121.400125,31.229776],[121.40016,31.229793],[121.400187,31.229811],[121.400212,31.22983],[121.400233,31.229851],[121.400251,31.229873],[121.400267,31.229896],[121.400282,31.229921],[121.400295,31.229948],[121.400306,31.229975],[121.400314,31.230004],[121.40032,31.230032],[121.400322,31.230062],[121.400322,31.230093],[121.400319,31.230127],[121.400314,31.230159],[121.400305,31.230198],[121.400295,31.230235],[121.400284,31.230274],[121.400273,31.23031],[121.400264,31.230341],[121.400255,31.230368],[121.400248,31.230391],[121.40024,31.230417],[121.400231,31.230443],[121.400223,31.23047],[121.400214,31.230497],[121.400206,31.230525],[121.400197,31.230553],[121.400188,31.230581],[121.400179,31.230609],[121.400169,31.230639],[121.40016,31.230666],[121.400151,31.230693],[121.400141,31.230719],[121.400132,31.230746],[121.400122,31.230773],[121.400112,31.2308],[121.400103,31.230826],[121.400093,31.230852],[121.400082,31.230878],[121.400071,31.230903],[121.40006,31.230929],[121.400049,31.230952],[121.400035,31.230978],[121.400021,31.231002],[121.400006,31.231026],[121.399989,31.231047],[121.399968,31.231069],[121.399938,31.231094],[121.399902,31.231117],[121.399856,31.231139],[121.399815,31.231153],[121.399775,31.231163],[121.399739,31.231168],[121.399704,31.231169],[121.399668,31.231167],[121.399634,31.231164],[121.3996,31.231158],[121.399567,31.231151],[121.399535,31.23114],[121.399505,31.231128],[121.399478,31.231113],[121.399453,31.231097],[121.399429,31.231079],[121.399406,31.231059],[121.399384,31.231036],[121.399366,31.231013],[121.399348,31.230985],[121.399335,31.230958],[121.399322,31.230928],[121.399315,31.2309],[121.39931,31.23087],[121.399309,31.230839],[121.39931,31.230808],[121.399313,31.230777],[121.399319,31.230747],[121.399327,31.230716],[121.399338,31.230683],[121.399348,31.230653],[121.399357,31.230626],[121.399366,31.230601],[121.399374,31.230575],[121.399383,31.230548],[121.399392,31.230519],[121.399402,31.230487],[121.399413,31.230454],[121.399422,31.230424],[121.39943,31.230398],[121.399437,31.230374],[121.399445,31.230346],[121.399453,31.230319],[121.399462,31.230292],[121.39947,31.230264],[121.399478,31.230237],[121.399487,31.230209],[121.399496,31.230181],[121.399505,31.230153],[121.399514,31.230125],[121.399524,31.230097],[121.399535,31.230069],[121.399546,31.23004],[121.399559,31.230008],[121.399572,31.229977],[121.399587,31.229946],[121.399599,31.229922],[121.399613,31.229899],[121.399626,31.229879],[121.399643,31.229857],[121.399661,31.229836],[121.399686,31.229815],[121.399717,31.229796],[121.399751,31.229779],[121.399785,31.229765],[121.399819,31.229754],[121.399852,31.229746],[121.399887,31.229741],[121.399924,31.229739],[121.399959,31.229739],[121.399999,31.229743],[121.400035,31.229749],[121.400071,31.229756],[121.400103,31.229767],[121.400135,31.22978],[121.400165,31.229795],[121.400191,31.229812],[121.400216,31.229832],[121.400238,31.229853],[121.400258,31.229876],[121.400276,31.2299],[121.400291,31.229926],[121.400303,31.229952],[121.400312,31.22998],[121.400319,31.23001],[121.400323,31.23004],[121.400323,31.230071],[121.400321,31.230106],[121.400317,31.230143],[121.40031,31.230178],[121.400301,31.230211],[121.400291,31.230247],[121.400282,31.23028],[121.400272,31.230309],[121.400264,31.230333],[121.400254,31.230359],[121.400245,31.230386],[121.400236,31.230414],[121.400227,31.230439],[121.400218,31.230465],[121.400208,31.230495],[121.400198,31.230524],[121.400188,31.230554],[121.400178,31.230582],[121.400167,31.230617],[121.400155,31.23065],[121.400143,31.230684],[121.400134,31.230711],[121.400124,31.230738],[121.400114,31.230765],[121.400105,31.230791],[121.400095,31.230818],[121.400086,31.230841],[121.400075,31.230868],[121.400064,31.230894],[121.400051,31.230923],[121.400039,31.230948],[121.400026,31.230973],[121.400011,31.230997],[121.399995,31.231022],[121.399976,31.231047],[121.399948,31.231075],[121.399916,31.231101],[121.399878,31.231126],[121.399843,31.231141],[121.399809,31.231153],[121.399776,31.231161],[121.399741,31.231165],[121.399706,31.231167],[121.399671,31.231166],[121.399636,31.231162],[121.399602,31.231157],[121.399566,31.231149],[121.399534,31.231138],[121.399502,31.231125],[121.399474,31.23111],[121.399445,31.231091],[121.399418,31.231071],[121.39939,31.231045],[121.399366,31.231019],[121.399344,31.230991],[121.399328,31.230964],[121.399316,31.230936],[121.399307,31.230909],[121.399301,31.230882],[121.399298,31.230855],[121.399297,31.230828],[121.399299,31.2308],[121.399304,31.230773],[121.39931,31.230744],[121.399318,31.230716],[121.399327,31.230685],[121.399337,31.230654],[121.399347,31.230623],[121.399358,31.230592],[121.399368,31.23056],[121.399379,31.230528],[121.399388,31.230501],[121.399397,31.230476],[121.399406,31.230451],[121.399414,31.230425],[121.399423,31.230399],[121.399433,31.230372],[121.399442,31.230345],[121.399452,31.230315],[121.399461,31.230289],[121.39947,31.230262],[121.399478,31.230235],[121.399487,31.230208],[121.399496,31.230181],[121.399505,31.230152],[121.399515,31.230124],[121.399526,31.230091],[121.399537,31.230059],[121.399549,31.230029],[121.39956,31.230003],[121.399572,31.229976],[121.399584,31.229951],[121.399598,31.229926],[121.399612,31.229902],[121.399628,31.229879],[121.399644,31.229857],[121.399662,31.229836],[121.399683,31.229816],[121.399706,31.229797],[121.399737,31.22978],[121.399774,31.229765],[121.399815,31.229752],[121.399853,31.229745],[121.399894,31.22974],[121.399934,31.229738],[121.399973,31.229739],[121.400009,31.229742],[121.400045,31.229749],[121.40008,31.229757],[121.400113,31.229769],[121.400142,31.229783],[121.40017,31.229799],[121.400195,31.229818],[121.400218,31.229838],[121.400239,31.229859],[121.400258,31.229882],[121.400275,31.229906],[121.400289,31.22993],[121.400301,31.229958],[121.400309,31.229986],[121.400315,31.230019],[121.400317,31.230051],[121.400316,31.230083],[121.400314,31.230114],[121.400309,31.230146],[121.400303,31.230178],[121.400295,31.230208],[121.400287,31.230239],[121.400278,31.230268],[121.400269,31.230297],[121.40026,31.230324],[121.400251,31.230352],[121.400241,31.23038],[121.400231,31.230408],[121.400222,31.230436],[121.400212,31.230466],[121.400203,31.230498],[121.400192,31.230536],[121.400181,31.230573],[121.40017,31.230609],[121.400159,31.230642],[121.400147,31.230673],[121.400137,31.230702],[121.400127,31.230731],[121.400118,31.230757],[121.400108,31.230785],[121.400098,31.230813],[121.400088,31.23084],[121.400077,31.230868],[121.400065,31.230896],[121.400053,31.230924],[121.40004,31.23095],[121.400025,31.230977],[121.400009,31.231003],[121.399987,31.231034],[121.399963,31.231061],[121.399935,31.231088],[121.399907,31.231108],[121.399875,31.231126],[121.399841,31.231141],[121.399808,31.231151],[121.399775,31.231159],[121.399742,31.231164],[121.399706,31.231167],[121.39967,31.231166],[121.399633,31.231164],[121.399596,31.231158],[121.399561,31.23115],[121.399527,31.231139],[121.399494,31.231125],[121.399463,31.231107],[121.399431,31.231085],[121.399403,31.231062],[121.399379,31.231037],[121.399361,31.231013],[121.399344,31.230987],[121.399328,31.230959],[121.399317,31.230932],[121.399307,31.230904],[121.399301,31.230877],[121.399297,31.230849],[121.399296,31.230821],[121.399297,31.230793],[121.399301,31.230765],[121.399306,31.230738],[121.399314,31.230708],[121.399323,31.230677],[121.399334,31.230645],[121.399347,31.23061],[121.399359,31.230576],[121.399372,31.230542],[121.399382,31.230515],[121.399391,31.230487],[121.399401,31.230461],[121.39941,31.230434],[121.39942,31.230406],[121.399431,31.230379],[121.39944,31.230352],[121.39945,31.230324],[121.399459,31.230296],[121.399468,31.230267],[121.399476,31.23024],[121.399485,31.230211],[121.399493,31.230183],[121.399502,31.230154],[121.399512,31.230126],[121.399522,31.230096],[121.399533,31.230068],[121.399543,31.230041],[121.399551,31.230015],[121.39956,31.22999],[121.39957,31.229963],[121.399583,31.229937],[121.399599,31.22991],[121.399618,31.229885],[121.399639,31.22986],[121.399662,31.229836],[121.399687,31.229814],[121.399715,31.229795],[121.399745,31.229778],[121.399778,31.229764],[121.399813,31.229752],[121.399848,31.229743],[121.399888,31.229737],[121.399925,31.229733],[121.399963,31.229733],[121.399995,31.229735],[121.400027,31.22974],[121.400059,31.229747],[121.40009,31.229757],[121.40012,31.22977],[121.400147,31.229784],[121.400173,31.2298],[121.400197,31.229819],[121.40022,31.22984],[121.40024,31.229863],[121.400257,31.229887],[121.400273,31.229913],[121.400286,31.229941],[121.400297,31.229972],[121.400306,31.230008],[121.400313,31.230045],[121.400316,31.230082],[121.400314,31.230115],[121.40031,31.230148],[121.400303,31.230181],[121.400295,31.230215],[121.400285,31.230246],[121.400277,31.230274],[121.400268,31.230299],[121.400259,31.230326],[121.400251,31.230353],[121.400242,31.230381],[121.400233,31.230408],[121.400224,31.230437],[121.400215,31.230465],[121.400206,31.230494],[121.400197,31.230524],[121.400188,31.230553],[121.400179,31.230581],[121.400169,31.23061],[121.400161,31.230636],[121.400151,31.230666],[121.400142,31.230694],[121.400132,31.230723],[121.400123,31.230749],[121.400114,31.230776],[121.400103,31.230805],[121.400093,31.230833],[121.400082,31.230861],[121.400071,31.230888],[121.400059,31.230915],[121.400046,31.230942],[121.400032,31.23097],[121.400016,31.230998],[121.399996,31.23103],[121.399975,31.231058],[121.399953,31.231083],[121.399924,31.231105],[121.39989,31.231126],[121.399853,31.231144],[121.399819,31.231155],[121.399786,31.231163],[121.399754,31.231168],[121.39972,31.23117],[121.399686,31.23117],[121.399653,31.231168],[121.399621,31.231163],[121.399588,31.231157],[121.399554,31.231148],[121.399519,31.231136],[121.399484,31.231121],[121.399449,31.231101],[121.399418,31.231078],[121.399391,31.231053],[121.399371,31.23103],[121.399354,31.231005],[121.399338,31.230979],[121.399325,31.230951],[121.399315,31.230923],[121.399309,31.230895],[121.399305,31.230866],[121.399303,31.230836],[121.399302,31.230805],[121.399304,31.230773],[121.399309,31.23074],[121.399317,31.230705],[121.399327,31.23067],[121.399339,31.230635],[121.399351,31.2306],[121.399362,31.230567],[121.399371,31.230537],[121.39938,31.230511],[121.399388,31.230484],[121.399396,31.230457],[121.399405,31.23043],[121.399413,31.230403],[121.399422,31.230376],[121.399431,31.230349],[121.39944,31.230321],[121.399449,31.230294],[121.399459,31.230266],[121.399469,31.230238],[121.399479,31.23021],[121.399489,31.230181],[121.399499,31.230151],[121.39951,31.230117],[121.399521,31.230085],[121.399532,31.230053],[121.399541,31.230027],[121.399551,31.23],[121.39956,31.229977],[121.399571,31.229953],[121.399583,31.229928],[121.399597,31.229904],[121.399613,31.22988],[121.39963,31.229857],[121.39965,31.229836],[121.399679,31.229813],[121.399712,31.229794],[121.399749,31.229777],[121.399785,31.229763],[121.399819,31.229754],[121.399859,31.229746],[121.399897,31.229741],[121.399936,31.229738],[121.399968,31.229738],[121.400002,31.22974],[121.400035,31.229745],[121.400069,31.229752],[121.400102,31.229763],[121.400133,31.229778],[121.400163,31.229795],[121.40019,31.229814],[121.400214,31.229835],[121.400235,31.229858],[121.400255,31.22988],[121.400272,31.229906],[121.400287,31.229936],[121.400301,31.229969],[121.400312,31.230005],[121.400318,31.230035],[121.400321,31.230066],[121.400321,31.230093],[121.400319,31.230122],[121.400315,31.23015],[121.400308,31.230179],[121.4003,31.230208],[121.400291,31.230236],[121.400281,31.230264],[121.400271,31.230292],[121.400262,31.23032],[121.400254,31.230348],[121.400246,31.230376],[121.400238,31.230404],[121.400229,31.230436],[121.40022,31.230468],[121.40021,31.230502],[121.4002,31.230532],[121.400189,31.230565],[121.400179,31.230597],[121.400168,31.230629],[121.400158,31.230661],[121.400148,31.230691],[121.400139,31.230719],[121.40013,31.230747],[121.40012,31.230775],[121.40011,31.230804],[121.4001,31.230832],[121.40009,31.230861],[121.40008,31.230889],[121.40007,31.230917],[121.400056,31.230948],[121.40004,31.230979],[121.40002,31.231011],[121.4,31.231038],[121.399976,31.231065],[121.399949,31.231088],[121.399919,31.231108],[121.399888,31.231125],[121.399857,31.23114],[121.399824,31.231151],[121.399792,31.231158],[121.399758,31.231163],[121.399725,31.231166],[121.399691,31.231166],[121.399657,31.231163],[121.399623,31.231158],[121.399589,31.231151],[121.399552,31.23114],[121.399514,31.231126],[121.399477,31.231108],[121.399445,31.231089],[121.399415,31.231068],[121.39939,31.231046],[121.399368,31.231023],[121.39935,31.230998],[121.399334,31.230972],[121.399322,31.230944],[121.399313,31.230916],[121.399307,31.230887],[121.399302,31.230857],[121.3993,31.230827],[121.399301,31.230796],[121.399304,31.230766],[121.399311,31.230736],[121.39932,31.230704],[121.399332,31.23067],[121.399342,31.230637],[121.399352,31.230605],[121.399361,31.230575],[121.39937,31.230546],[121.39938,31.230516],[121.399389,31.230486],[121.399398,31.230458],[121.399406,31.230429],[121.399415,31.230401],[121.399424,31.230373],[121.399433,31.230344],[121.399443,31.230316],[121.399454,31.230285],[121.399465,31.230254],[121.399476,31.230223],[121.399489,31.230187],[121.3995,31.230152],[121.399512,31.230116],[121.399521,31.230085],[121.39953,31.230055],[121.399538,31.230027],[121.399548,31.23],[121.399558,31.229973],[121.39957,31.229945],[121.399584,31.229919],[121.3996,31.229894],[121.399618,31.229871],[121.399638,31.22985],[121.399661,31.229829],[121.399688,31.22981],[121.399718,31.229793],[121.39975,31.229777],[121.39979,31.229763],[121.399831,31.229753],[121.399877,31.229744],[121.399918,31.229739],[121.399959,31.229737],[121.399999,31.229738],[121.400036,31.229742],[121.400071,31.22975],[121.400104,31.229762],[121.400136,31.229777],[121.400165,31.229794],[121.400192,31.229814],[121.400216,31.229835],[121.400239,31.229857],[121.400259,31.229881],[121.400276,31.229907],[121.400292,31.229936],[121.400304,31.22997],[121.400314,31.230007],[121.400321,31.230047],[121.400323,31.230081],[121.400323,31.230114],[121.400319,31.230144],[121.400313,31.230174],[121.400305,31.230204],[121.400295,31.230234],[121.400285,31.230263],[121.400274,31.230293],[121.400263,31.230322],[121.400253,31.230351],[121.400243,31.23038],[121.400233,31.23041],[121.400224,31.230441],[121.400215,31.230471],[121.400205,31.230506],[121.400194,31.23054],[121.400183,31.230575],[121.400173,31.230607],[121.400163,31.23064],[121.400154,31.230672],[121.400143,31.230705],[121.400133,31.230737],[121.400124,31.230768],[121.400114,31.230799],[121.400104,31.230829],[121.400094,31.230859],[121.400084,31.230888],[121.400073,31.230916],[121.400061,31.230945],[121.400046,31.230974],[121.400029,31.231002],[121.400007,31.231031],[121.399981,31.231058],[121.399951,31.231083],[121.399922,31.231103],[121.399891,31.231121],[121.399858,31.231135],[121.399824,31.231147],[121.39979,31.231156],[121.399755,31.231162],[121.399719,31.231165],[121.399685,31.231166],[121.39965,31.231163],[121.399616,31.231157],[121.399581,31.231149],[121.399545,31.231138],[121.399509,31.231125],[121.399475,31.231109],[121.399443,31.231089],[121.399413,31.231066],[121.399385,31.231039],[121.399363,31.231014],[121.399346,31.230988],[121.399332,31.230962],[121.399321,31.230934],[121.399313,31.230908],[121.399308,31.230879],[121.399305,31.23085],[121.399305,31.230819],[121.399307,31.230788],[121.399311,31.230757],[121.399317,31.230725],[121.399325,31.230694],[121.399334,31.230663],[121.399343,31.230632],[121.399355,31.230598],[121.399368,31.230564],[121.399381,31.230528],[121.399394,31.230496],[121.399405,31.230466],[121.399416,31.230436],[121.399424,31.230408],[121.399432,31.230379],[121.39944,31.230351],[121.399448,31.230323],[121.399456,31.230295],[121.399465,31.230267],[121.399473,31.23024],[121.399482,31.230212],[121.399491,31.230182],[121.399501,31.230152],[121.399511,31.230121],[121.39952,31.230089],[121.39953,31.230057],[121.39954,31.230023],[121.39955,31.229995],[121.39956,31.229968],[121.399574,31.229941],[121.39959,31.229915],[121.399608,31.229889],[121.399629,31.229864],[121.399652,31.229841],[121.39968,31.229818],[121.399709,31.229799],[121.399741,31.229781],[121.399771,31.229767],[121.399804,31.229755],[121.399839,31.229746],[121.399876,31.229738],[121.399918,31.229733],[121.39996,31.229732],[121.400003,31.229733],[121.40004,31.229739],[121.400075,31.229749],[121.400108,31.229762],[121.400139,31.229778],[121.400168,31.229796],[121.400196,31.229816],[121.400221,31.229837],[121.400244,31.229859],[121.400264,31.229881],[121.400281,31.229905],[121.400296,31.229931],[121.400309,31.229957],[121.400318,31.229985],[121.400325,31.230014],[121.400327,31.23005],[121.400327,31.230086],[121.400323,31.230124],[121.400317,31.230159],[121.400308,31.230193],[121.400299,31.230227],[121.400288,31.23026],[121.400277,31.230293],[121.400266,31.230324],[121.400254,31.230355],[121.400243,31.230386],[121.400232,31.230416],[121.400222,31.230447],[121.400212,31.230478],[121.400202,31.230511],[121.400193,31.230542],[121.400183,31.230574],[121.400173,31.230609],[121.400162,31.230645],[121.400152,31.23068],[121.400142,31.230712],[121.400132,31.230745],[121.400121,31.230777],[121.400111,31.230807],[121.400101,31.230837],[121.40009,31.230865],[121.40008,31.230894],[121.400068,31.230921],[121.400056,31.230948],[121.400042,31.230975],[121.400024,31.231001],[121.400004,31.231027],[121.399982,31.231052],[121.399957,31.231075],[121.399926,31.231098],[121.399893,31.231119],[121.399858,31.231136],[121.399826,31.231148],[121.399791,31.231158],[121.399755,31.231164],[121.399719,31.231168],[121.399684,31.231168],[121.399651,31.231165],[121.399617,31.23116],[121.399583,31.231152],[121.399549,31.231142],[121.399518,31.23113],[121.399488,31.231116],[121.39946,31.2311],[121.399432,31.231082],[121.399406,31.231061],[121.399381,31.231034],[121.399357,31.231004],[121.399337,31.230972],[121.399322,31.230942],[121.399311,31.230911],[121.399304,31.230881],[121.3993,31.230851],[121.399299,31.230819],[121.399302,31.230786],[121.399307,31.230753],[121.399315,31.230717],[121.399324,31.230682],[121.399333,31.23065],[121.399342,31.230622],[121.399351,31.230595],[121.39936,31.230568],[121.399369,31.230541],[121.399381,31.230507],[121.399392,31.230474],[121.399403,31.23044],[121.399411,31.230413],[121.399421,31.230384],[121.39943,31.230355],[121.399439,31.230327],[121.399448,31.230298],[121.399457,31.230269],[121.399467,31.23024],[121.399477,31.230211],[121.399486,31.230182],[121.399496,31.230154],[121.399506,31.230125],[121.399515,31.230099],[121.399524,31.230074],[121.399533,31.23005],[121.399546,31.230021],[121.399559,31.229992],[121.399576,31.229959],[121.399592,31.229931],[121.399609,31.229903],[121.399626,31.229878],[121.399642,31.229855],[121.399666,31.22983],[121.399696,31.229808],[121.399734,31.229787],[121.399768,31.22977],[121.399804,31.229756],[121.399838,31.229747],[121.399875,31.229739],[121.399913,31.229735],[121.399951,31.229734],[121.399989,31.229736],[121.400027,31.229743],[121.400066,31.229755],[121.400104,31.22977],[121.400137,31.229786],[121.400167,31.229805],[121.400196,31.229825],[121.400223,31.229848],[121.400246,31.229872],[121.400267,31.2299],[121.400284,31.229929],[121.400298,31.229959],[121.400309,31.22999],[121.400316,31.23002],[121.400321,31.230053],[121.400322,31.230086],[121.400321,31.23012],[121.400316,31.230154],[121.400309,31.23019],[121.400298,31.230227],[121.400286,31.230265],[121.400275,31.230299],[121.400264,31.230332],[121.400253,31.230365],[121.400241,31.230396],[121.400231,31.230427],[121.400221,31.230457],[121.400212,31.230488],[121.400202,31.230519],[121.400192,31.230552],[121.400182,31.230585],[121.400172,31.230619],[121.400162,31.23065],[121.400152,31.230681],[121.400143,31.230712],[121.400131,31.230747],[121.400119,31.230783],[121.400106,31.230821],[121.400094,31.230855],[121.400082,31.230887],[121.400069,31.230918],[121.400055,31.230946],[121.40004,31.230974],[121.400023,31.231002],[121.400003,31.231028],[121.399981,31.231053],[121.399957,31.231075],[121.39993,31.231096],[121.399901,31.231114],[121.399869,31.231129],[121.399834,31.231142],[121.399798,31.231153],[121.399754,31.23116],[121.399711,31.231164],[121.399664,31.231163],[121.399623,31.231159],[121.399582,31.231151],[121.399544,31.231142],[121.399509,31.23113],[121.399476,31.231114],[121.399446,31.231097],[121.399418,31.231077],[121.399394,31.231054],[121.399371,31.231028],[121.39935,31.231001],[121.399333,31.230974],[121.399319,31.230947],[121.399308,31.230917],[121.399301,31.230888],[121.399299,31.230852],[121.399301,31.230816],[121.399306,31.230779],[121.399313,31.230746],[121.399321,31.230712],[121.39933,31.230678],[121.399339,31.230644],[121.399348,31.230614],[121.399357,31.230581],[121.399365,31.230551],[121.399374,31.230519],[121.399383,31.230487],[121.399393,31.230455],[121.399404,31.230423],[121.399413,31.230393],[121.399423,31.230363],[121.399432,31.230334],[121.399442,31.230302],[121.399453,31.230268],[121.399465,31.230233],[121.399476,31.2302],[121.399488,31.230167],[121.399499,31.230135],[121.399509,31.230103],[121.399519,31.230072],[121.399528,31.230041],[121.399538,31.23001],[121.399551,31.22998],[121.399567,31.229951],[121.399585,31.229921],[121.399605,31.229894],[121.399628,31.229868],[121.399651,31.229845],[121.399678,31.229822],[121.399712,31.2298],[121.399753,31.229779],[121.399795,31.229762],[121.399833,31.229749],[121.399872,31.229742],[121.39991,31.229737],[121.399948,31.229736],[121.399985,31.229739],[121.400021,31.229746],[121.400057,31.229756],[121.400091,31.229769],[121.400124,31.229785],[121.400156,31.229803],[121.400185,31.229825],[121.400212,31.229849],[121.400237,31.229876],[121.400259,31.229903],[121.400278,31.229936],[121.400294,31.22997],[121.400307,31.230007],[121.400316,31.230041],[121.40032,31.230077],[121.40032,31.230111],[121.400318,31.230144],[121.400313,31.230176],[121.400305,31.230208],[121.400294,31.230241],[121.400283,31.230274],[121.400272,31.230307],[121.40026,31.23034],[121.400247,31.230374],[121.400235,31.230407],[121.400223,31.230441],[121.400212,31.230474],[121.400201,31.23051],[121.400189,31.230547],[121.400178,31.230584],[121.400168,31.230617],[121.400158,31.23065],[121.40015,31.230683],[121.400141,31.230715],[121.400132,31.230748],[121.400122,31.23078],[121.400112,31.230813],[121.400101,31.230845],[121.400089,31.230877],[121.400075,31.230909],[121.40006,31.23094],[121.400044,31.230969],[121.400025,31.230998],[121.400006,31.231025],[121.39998,31.231054],[121.39995,31.231081],[121.399916,31.231106],[121.399883,31.231126],[121.399848,31.231141],[121.399814,31.231153],[121.399779,31.231162],[121.399741,31.231167],[121.399702,31.23117],[121.399662,31.231169],[121.399623,31.231165],[121.399584,31.231157],[121.399545,31.231147],[121.399508,31.231134],[121.399473,31.231118],[121.399439,31.231099],[121.399412,31.231079],[121.399384,31.231052],[121.39936,31.231022],[121.399338,31.230989],[121.399322,31.230956],[121.39931,31.230923],[121.399303,31.230889],[121.3993,31.230857],[121.399301,31.230822],[121.399304,31.230788],[121.39931,31.230755],[121.399318,31.230721],[121.399327,31.230688],[121.399336,31.230654],[121.399347,31.23062],[121.399357,31.230587],[121.399366,31.230555],[121.399376,31.230524],[121.399388,31.230489],[121.399399,31.230454],[121.399411,31.230419],[121.399422,31.230387],[121.399432,31.230355],[121.399441,31.230323],[121.399449,31.23029],[121.399456,31.230258],[121.399465,31.230224],[121.399475,31.230192],[121.399486,31.230159],[121.399498,31.230126],[121.399509,31.230094],[121.399521,31.230062],[121.399533,31.230029],[121.399546,31.229996],[121.399561,31.229963],[121.39958,31.229931],[121.399604,31.229898],[121.39963,31.229869],[121.399657,31.229842],[121.399685,31.22982],[121.399717,31.229798],[121.399752,31.22978],[121.399789,31.229764],[121.399827,31.229751],[121.399865,31.229742],[121.399903,31.229737],[121.39994,31.229734],[121.399976,31.229736],[121.400012,31.229741],[121.400049,31.229751],[121.400084,31.229763],[121.400117,31.229778],[121.400151,31.229799],[121.400183,31.229824],[121.400213,31.229853],[121.400238,31.229881],[121.400259,31.229909],[121.400278,31.229939],[121.400293,31.229971],[121.400304,31.230003],[121.400312,31.230036],[121.400316,31.23007],[121.400316,31.230103],[121.400312,31.230136],[121.400306,31.23017],[121.400297,31.230208],[121.400287,31.230246],[121.400276,31.230282],[121.400267,31.230312],[121.400255,31.230347],[121.400244,31.230382],[121.400232,31.230418],[121.400222,31.230451],[121.400211,31.230484],[121.400201,31.230516],[121.400191,31.230548],[121.40018,31.23058],[121.40017,31.230612],[121.40016,31.230644],[121.40015,31.230676],[121.40014,31.230707],[121.40013,31.230736],[121.400119,31.230767],[121.400108,31.230797],[121.400096,31.230827],[121.400084,31.230857],[121.400069,31.23089],[121.400051,31.230925],[121.400033,31.230959],[121.400016,31.230989],[121.399998,31.231017],[121.399981,31.231043],[121.399963,31.231068],[121.399939,31.231093],[121.399907,31.231116],[121.399867,31.231137],[121.399829,31.231153],[121.399789,31.231164],[121.39975,31.231171],[121.399711,31.231174],[121.399672,31.231174],[121.399634,31.23117],[121.399594,31.231163],[121.399553,31.231151],[121.399511,31.231135],[121.39947,31.231116],[121.399436,31.231095],[121.399405,31.231072],[121.399378,31.231045],[121.399355,31.231017],[121.399336,31.230987],[121.399321,31.230957],[121.39931,31.230926],[121.399303,31.230895],[121.399299,31.230863],[121.399298,31.230829],[121.3993,31.230796],[121.399304,31.230764],[121.399311,31.230732],[121.399318,31.230701],[121.399329,31.230665],[121.399342,31.230626],[121.399354,31.230587],[121.399364,31.230553],[121.399374,31.23052],[121.399384,31.230487],[121.399395,31.230454],[121.399406,31.230421],[121.399416,31.230388],[121.399427,31.230355],[121.399436,31.230322],[121.399447,31.230289],[121.399458,31.230255],[121.399469,31.230221],[121.399481,31.230188],[121.399492,31.230155],[121.399503,31.230119],[121.399517,31.230074],[121.399533,31.23003],[121.399551,31.229988],[121.399566,31.229958],[121.399584,31.229928],[121.399605,31.2299],[121.399628,31.229873],[121.399654,31.229847],[121.399681,31.229824],[121.39971,31.229803],[121.399741,31.229785],[121.399775,31.229768],[121.399811,31.229754],[121.39985,31.229743],[121.399888,31.229736],[121.399927,31.229732],[121.399964,31.229731],[121.400005,31.229736],[121.400046,31.229745],[121.400087,31.229759],[121.400123,31.229775],[121.400157,31.229795],[121.400187,31.229818],[121.400214,31.229844],[121.400237,31.229872],[121.400256,31.229902],[121.400274,31.229932],[121.400289,31.229964],[121.400301,31.229998],[121.400309,31.230032],[121.400314,31.230067],[121.400314,31.2301],[121.400311,31.230135],[121.400304,31.230171],[121.400293,31.230213],[121.400282,31.230255],[121.40027,31.230296],[121.40026,31.230333],[121.40025,31.230369],[121.40024,31.230404],[121.400228,31.230439],[121.400217,31.230473],[121.400204,31.230508],[121.400192,31.230542],[121.40018,31.230576],[121.400168,31.23061],[121.400157,31.230643],[121.400146,31.230675],[121.400134,31.230709],[121.400124,31.230742],[121.400113,31.230776],[121.4001,31.230816],[121.400088,31.230855],[121.400074,31.230896],[121.40006,31.230931],[121.400044,31.230965],[121.400027,31.230996],[121.400007,31.231025],[121.399984,31.231052],[121.399959,31.231077],[121.399929,31.2311],[121.399896,31.231121],[121.39986,31.231139],[121.399822,31.231153],[121.399782,31.231163],[121.399741,31.23117],[121.399698,31.231173],[121.399656,31.231172],[121.399607,31.231164],[121.39956,31.231151],[121.399512,31.231133],[121.399472,31.231115],[121.399437,31.231093],[121.399406,31.23107],[121.39938,31.231045],[121.399357,31.231018],[121.399338,31.230989],[121.399323,31.23096],[121.399311,31.230929],[121.399304,31.230897],[121.3993,31.230865],[121.399298,31.230831],[121.3993,31.230796],[121.399304,31.230759],[121.399312,31.230722],[121.399322,31.230679],[121.399332,31.230636],[121.399343,31.23059],[121.399352,31.230553],[121.39936,31.230517],[121.399369,31.230483],[121.399378,31.23045],[121.399389,31.230416],[121.399399,31.230385],[121.39941,31.230352],[121.399421,31.230319],[121.399432,31.230284],[121.399444,31.23025],[121.399455,31.230215],[121.399467,31.23018],[121.399477,31.230145],[121.399486,31.23011],[121.399493,31.230067],[121.3995,31.230022],[121.399508,31.229974],[121.399519,31.229938],[121.399532,31.229905],[121.399545,31.229884],[121.399561,31.229862],[121.399569,31.229854],[121.399575,31.229845]]}}]}