{"type":"FeatureCollection","features":[{"type":"Feature","properties":{"id":"2026-04-21_running_32","type":"running","date":"2026-04-21"},"geometry":{"type":"LineString","coordinates":[[121.399573,31.230123],[121.399574,31.230103],[121.399569,31.23007],[121.399567,31.230039],[121.399566,31.230004],[121.399568,31.229969],[121.399577,31.229934],[121.399591,31.229901],[121.399613,31.229873],[121.39964,31.229848],[121.399672,31.229826],[121.399705,31.229808],[121.39974,31.229792],[121.399776,31.229778],[121.399812,31.229766],[121.399848,31.229755],[121.399886,31.229746],[121.399924,31.22974],[121.399961,31.229737],[121.399999,31.229739],[121.400035,31.229745],[121.40007,31.229754],[121.400103,31.229767],[121.400134,31.229782],[121.400164,31.229799],[121.400191,31.229818],[121.400217,31.22984],[121.400242,31.229862],[121.400264,31.229887],[121.400285,31.229913],[121.400304,31.229941],[121.400321,31.229969],[121.400334,31.229999],[121.400345,31.230029],[121.400351,31.23006],[121.400353,31.230092],[121.400352,31.230124],[121.400348,31.230156],[121.400341,31.230189],[121.400332,31.230221],[121.400322,31.230253],[121.400312,31.230285],[121.400301,31.230316],[121.400289,31.230347],[121.400277,31.230376],[121.400266,31.230406],[121.400255,31.230435],[121.400245,31.230464],[121.400235,31.230493],[121.400226,31.230523],[121.400218,31.230552],[121.400209,31.230581],[121.4002,31.23061],[121.40019,31.230639],[121.40018,31.230667],[121.40017,31.230697],[121.400159,31.230727],[121.40015,31.230756],[121.40014,31.230785],[121.400132,31.230815],[121.400123,31.230844],[121.400115,31.230873],[121.400105,31.230902],[121.400095,31.230931],[121.400084,31.230959],[121.400071,31.230986],[121.400057,31.231012],[121.400043,31.231038],[121.400026,31.231062],[121.400006,31.231085],[121.399983,31.231106],[121.399958,31.231125],[121.399929,31.231141],[121.399899,31.231156],[121.399868,31.231169],[121.399835,31.23118],[121.399802,31.231188],[121.399768,31.231192],[121.399735,31.231193],[121.399703,31.231191],[121.399671,31.231186],[121.399639,31.231178],[121.399609,31.231169],[121.399579,31.231157],[121.39955,31.231144],[121.399523,31.231129],[121.399498,31.231113],[121.399473,31.231096],[121.39945,31.231078],[121.399428,31.231059],[121.399407,31.231039],[121.399387,31.231017],[121.39937,31.230994],[121.399356,31.230969],[121.399345,31.230943],[121.399336,31.230916],[121.399331,31.230888],[121.399328,31.23086],[121.399328,31.230832],[121.39933,31.230803],[121.399335,31.230773],[121.39934,31.230743],[121.399346,31.230712],[121.399353,31.230681],[121.399359,31.23065],[121.399365,31.23062],[121.399371,31.230591],[121.399377,31.230562],[121.399384,31.230534],[121.399392,31.230506],[121.3994,31.230477],[121.399409,31.230449],[121.399418,31.230421],[121.399427,31.230393],[121.399436,31.230365],[121.399444,31.230336],[121.39945,31.230308],[121.399457,31.230279],[121.399464,31.230251],[121.399472,31.230223],[121.399482,31.230194],[121.399492,31.230165],[121.399503,31.230135],[121.399513,31.230105],[121.399522,31.230074],[121.399532,31.230043],[121.399541,31.230011],[121.399551,31.22998],[121.399562,31.22995],[121.399575,31.22992],[121.399591,31.229893],[121.39961,31.229868],[121.399631,31.229845],[121.399655,31.229824],[121.39968,31.229806],[121.399706,31.22979],[121.399734,31.229777],[121.399763,31.229765],[121.399793,31.229757],[121.399825,31.22975],[121.399858,31.229747],[121.399891,31.229745],[121.399924,31.229746],[121.399957,31.229748],[121.39999,31.229752],[121.400023,31.229758],[121.400055,31.229766],[121.400087,31.229776],[121.400118,31.229789],[121.400147,31.229805],[121.400174,31.229822],[121.400198,31.229841],[121.400221,31.229862],[121.400242,31.229883],[121.40026,31.229906],[121.400278,31.22993],[121.400293,31.229956],[121.400306,31.229982],[121.400317,31.230008],[121.400325,31.230037],[121.40033,31.230065],[121.400333,31.230096],[121.400332,31.230127],[121.400329,31.230159],[121.400323,31.23019],[121.400315,31.230222],[121.400306,31.230252],[121.400297,31.230281],[121.400287,31.23031],[121.400277,31.230338],[121.400268,31.230365],[121.400259,31.230393],[121.400251,31.23042],[121.400243,31.230447],[121.400236,31.230475],[121.40023,31.230502],[121.400224,31.230528],[121.400218,31.230555],[121.400211,31.230583],[121.400203,31.23061],[121.400195,31.230637],[121.400185,31.230665],[121.400177,31.230692],[121.400168,31.23072],[121.40016,31.230748],[121.400152,31.230776],[121.400144,31.230803],[121.400135,31.23083],[121.400126,31.230856],[121.400116,31.230883],[121.400105,31.23091],[121.400095,31.230937],[121.400085,31.230964],[121.400074,31.230993],[121.400062,31.23102],[121.400046,31.231046],[121.400027,31.231071],[121.400005,31.231093],[121.399979,31.231113],[121.399951,31.23113],[121.399921,31.231145],[121.399891,31.231157],[121.399859,31.231167],[121.399827,31.231175],[121.399794,31.231181],[121.399761,31.231185],[121.399727,31.231186],[121.399693,31.231186],[121.399661,31.231183],[121.399629,31.231178],[121.399598,31.231172],[121.399568,31.231164],[121.399541,31.231153],[121.399514,31.231139],[121.39949,31.231123],[121.399467,31.231104],[121.399445,31.231083],[121.399424,31.23106],[121.399405,31.231037],[121.399387,31.231013],[121.399371,31.230988],[121.399358,31.230962],[121.399346,31.230935],[121.399337,31.230907],[121.39933,31.23088],[121.399324,31.230852],[121.39932,31.230824],[121.399318,31.230795],[121.399317,31.230767],[121.399318,31.230739],[121.399321,31.230711],[121.399327,31.230684],[121.399333,31.230656],[121.399342,31.230628],[121.399351,31.2306],[121.39936,31.230572],[121.39937,31.230545],[121.39938,31.230518],[121.399389,31.230491],[121.399399,31.230464],[121.399408,31.230438],[121.399416,31.230412],[121.399423,31.230386],[121.399429,31.23036],[121.399434,31.230333],[121.39944,31.230307],[121.399445,31.230281],[121.399452,31.230254],[121.399459,31.230228],[121.399467,31.230201],[121.399477,31.230174],[121.399487,31.230147],[121.399498,31.230119],[121.399508,31.230091],[121.399517,31.230064],[121.399527,31.230036],[121.399536,31.230009],[121.399546,31.229983],[121.399558,31.229957],[121.399573,31.229932],[121.399589,31.229908],[121.399608,31.229885],[121.399627,31.229863],[121.399648,31.229843],[121.399669,31.229824],[121.39969,31.229806],[121.399712,31.229791],[121.399735,31.229778],[121.399759,31.229767],[121.399786,31.229759],[121.399815,31.229753],[121.399845,31.229749],[121.399877,31.229747],[121.39991,31.229746],[121.399942,31.229747],[121.399976,31.22975],[121.400009,31.229756],[121.400042,31.229764],[121.400075,31.229773],[121.400108,31.229783],[121.400139,31.229796],[121.400169,31.22981],[121.400197,31.229826],[121.400222,31.229845],[121.400244,31.229865],[121.400264,31.229888],[121.400281,31.229913],[121.400295,31.229938],[121.400307,31.229965],[121.400316,31.229993],[121.400323,31.230022],[121.400327,31.230052],[121.400329,31.230082],[121.400329,31.230112],[121.400326,31.230143],[121.400322,31.230174],[121.400316,31.230204],[121.400309,31.230233],[121.400301,31.230262],[121.400293,31.230291],[121.400285,31.230319],[121.400276,31.230347],[121.400266,31.230376],[121.400256,31.230406],[121.400246,31.230436],[121.400235,31.230466],[121.400224,31.230497],[121.400212,31.230527],[121.4002,31.230557],[121.400189,31.230586],[121.400178,31.230615],[121.400168,31.230645],[121.400158,31.230675],[121.40015,31.230705],[121.400141,31.230734],[121.400133,31.230764],[121.400124,31.230792],[121.400116,31.230821],[121.400108,31.230849],[121.400101,31.230878],[121.400092,31.230905],[121.400082,31.230933],[121.400071,31.23096],[121.400058,31.230986],[121.400042,31.231012],[121.400025,31.231037],[121.400007,31.231061],[121.399986,31.231083],[121.399963,31.231104],[121.399938,31.231123],[121.399911,31.231141],[121.399882,31.231157],[121.399852,31.23117],[121.39982,31.231181],[121.399787,31.231189],[121.399754,31.231193],[121.399721,31.231193],[121.399688,31.231191],[121.399655,31.231185],[121.399624,31.231177],[121.399592,31.231168],[121.399562,31.231158],[121.399533,31.231146],[121.399505,31.231132],[121.39948,31.231117],[121.399456,31.2311],[121.399434,31.23108],[121.399416,31.231059],[121.399401,31.231037],[121.399387,31.231013],[121.399377,31.230989],[121.399368,31.230964],[121.399359,31.230938],[121.399352,31.230912],[121.399346,31.230885],[121.39934,31.230858],[121.399336,31.23083],[121.399334,31.230802],[121.399335,31.230774],[121.399338,31.230745],[121.399345,31.230717],[121.399353,31.230688],[121.399362,31.23066],[121.39937,31.230632],[121.399378,31.230604],[121.399384,31.230576],[121.399389,31.230549],[121.399394,31.230522],[121.399398,31.230494],[121.399404,31.230467],[121.399409,31.23044],[121.399415,31.230412],[121.399421,31.230385],[121.399428,31.230357],[121.399436,31.23033],[121.399445,31.230303],[121.399455,31.230276],[121.399465,31.23025],[121.399475,31.230224],[121.399484,31.230197],[121.399493,31.23017],[121.399502,31.230144],[121.39951,31.230118],[121.399518,31.230092],[121.399527,31.230066],[121.399536,31.230041],[121.399548,31.230015],[121.39956,31.229989],[121.399574,31.229964],[121.399591,31.22994],[121.399609,31.229917],[121.39963,31.229896],[121.399653,31.229876],[121.399678,31.229858],[121.399705,31.22984],[121.399732,31.229824],[121.399761,31.229809],[121.39979,31.229795],[121.399821,31.229784],[121.399851,31.229775],[121.399882,31.229768],[121.399914,31.229764],[121.399945,31.229762],[121.399976,31.229762],[121.400007,31.229765],[121.400038,31.22977],[121.400068,31.229778],[121.400097,31.229787],[121.400126,31.229799],[121.400153,31.229811],[121.400179,31.229825],[121.400203,31.229841],[121.400224,31.229858],[121.400244,31.229877],[121.400262,31.229898],[121.40028,31.22992],[121.400296,31.229943],[121.40031,31.229968],[121.400321,31.229993],[121.400329,31.230019],[121.400334,31.230046],[121.400336,31.230074],[121.400335,31.230102],[121.400333,31.23013],[121.400329,31.230158],[121.400324,31.230185],[121.400317,31.230213],[121.400309,31.23024],[121.4003,31.230267],[121.400291,31.230293],[121.400281,31.23032],[121.40027,31.230347],[121.40026,31.230375],[121.400251,31.230404],[121.400241,31.230434],[121.400232,31.230465],[121.400224,31.230496],[121.400217,31.230528],[121.400209,31.23056],[121.400201,31.230591],[121.400193,31.230622],[121.400183,31.230652],[121.400174,31.230681],[121.400164,31.23071],[121.400154,31.23074],[121.400144,31.230769],[121.400134,31.230798],[121.400124,31.230828],[121.400112,31.230857],[121.4001,31.230888],[121.400088,31.230918],[121.400075,31.230947],[121.40006,31.230975],[121.400045,31.231003],[121.400028,31.231029],[121.400009,31.231053],[121.399988,31.231076],[121.399964,31.231098],[121.399938,31.231117],[121.39991,31.231134],[121.39988,31.231148],[121.39985,31.231161],[121.399818,31.231171],[121.399787,31.23118],[121.399754,31.231186],[121.39972,31.23119],[121.399685,31.23119],[121.39965,31.231187],[121.399616,31.231181],[121.399583,31.231171],[121.399551,31.231159],[121.399523,31.231145],[121.399496,31.231128],[121.399472,31.23111],[121.399451,31.231091],[121.39943,31.23107],[121.399412,31.231047],[121.399395,31.231024],[121.399379,31.231],[121.399365,31.230974],[121.399354,31.230948],[121.399345,31.230921],[121.399339,31.230893],[121.399336,31.230866],[121.399335,31.230837],[121.399336,31.230809],[121.39934,31.230782],[121.399345,31.230755],[121.399353,31.230729],[121.399361,31.230702],[121.399369,31.230675],[121.399377,31.230647],[121.399385,31.23062],[121.399392,31.230591],[121.399399,31.230564],[121.399406,31.230536],[121.399413,31.230509],[121.39942,31.230482],[121.399428,31.230456],[121.399436,31.23043],[121.399445,31.230404],[121.399454,31.230378],[121.399464,31.230352],[121.399473,31.230325],[121.399483,31.230299],[121.399491,31.230272],[121.3995,31.230245],[121.399509,31.230218],[121.399517,31.230191],[121.399525,31.230164],[121.399534,31.230136],[121.399542,31.230107],[121.399551,31.230078],[121.39956,31.23005],[121.39957,31.230023],[121.39958,31.229997],[121.399592,31.229971],[121.399604,31.229946],[121.399617,31.229921],[121.399632,31.229896],[121.399647,31.229871],[121.399664,31.229849],[121.399684,31.229828],[121.399706,31.229808],[121.399731,31.229791],[121.399758,31.229777],[121.399786,31.229764],[121.399816,31.229754],[121.399846,31.229747],[121.399878,31.229743],[121.39991,31.229742],[121.399943,31.229743],[121.399975,31.229747],[121.400006,31.229754],[121.400036,31.229763],[121.400066,31.229773],[121.400094,31.229787],[121.400121,31.229803],[121.400147,31.229822],[121.400172,31.229842],[121.400196,31.229865],[121.400218,31.229889],[121.400238,31.229913],[121.400256,31.229939],[121.40027,31.229965],[121.400282,31.229992],[121.400291,31.230019],[121.400297,31.230046],[121.400302,31.230072],[121.400303,31.230099],[121.400303,31.230125],[121.4003,31.230152],[121.400295,31.230179],[121.400289,31.230207],[121.400283,31.230234],[121.400276,31.230262],[121.40027,31.230289],[121.400263,31.230317],[121.400256,31.230346],[121.400249,31.230374],[121.400242,31.230403],[121.400235,31.230431],[121.400229,31.23046],[121.400224,31.230489],[121.400219,31.230518],[121.400213,31.230548],[121.400206,31.230579],[121.400198,31.230609],[121.400189,31.23064],[121.400179,31.23067],[121.40017,31.230701],[121.40016,31.230731],[121.400151,31.230761],[121.400142,31.230791],[121.400133,31.23082],[121.400123,31.230849],[121.400113,31.230878],[121.400101,31.230908],[121.400088,31.230937],[121.400074,31.230967],[121.400059,31.230996],[121.400042,31.231024],[121.400022,31.23105],[121.4,31.231074],[121.399975,31.231095],[121.399948,31.231114],[121.399918,31.231131],[121.399887,31.231145],[121.399855,31.231157],[121.399823,31.231167],[121.39979,31.231175],[121.399758,31.23118],[121.399725,31.231182],[121.399693,31.231181],[121.399661,31.231177],[121.39963,31.231171],[121.399599,31.231163],[121.399567,31.231154],[121.399536,31.231142],[121.399506,31.231129],[121.399478,31.231113],[121.399451,31.231094],[121.399426,31.231074],[121.399403,31.231051],[121.399382,31.231027],[121.399363,31.231002],[121.399347,31.230976],[121.399333,31.230948],[121.399323,31.23092],[121.399316,31.230892],[121.399313,31.230863],[121.399313,31.230835],[121.399317,31.230807],[121.399323,31.230779],[121.399331,31.230751],[121.39934,31.230722],[121.399349,31.230694],[121.399358,31.230666],[121.399367,31.230637],[121.399374,31.230608],[121.399379,31.23058],[121.399384,31.230551],[121.39939,31.230522],[121.399395,31.230494],[121.399401,31.230466],[121.399408,31.230438],[121.399414,31.23041],[121.399422,31.230381],[121.39943,31.230353],[121.399439,31.230324],[121.399449,31.230296],[121.399459,31.230267],[121.399469,31.23024],[121.39948,31.230213],[121.399491,31.230186],[121.399501,31.230158],[121.399512,31.230131],[121.399521,31.230104],[121.39953,31.230077],[121.399539,31.230052],[121.399548,31.230026],[121.399557,31.230001],[121.399569,31.229976],[121.399582,31.229951],[121.399597,31.229928],[121.399614,31.229906],[121.399633,31.229887],[121.399653,31.229869],[121.399674,31.229852],[121.399696,31.229836],[121.39972,31.22982],[121.399745,31.229806],[121.399772,31.229793],[121.3998,31.229783],[121.39983,31.229775],[121.39986,31.229769],[121.39989,31.229765],[121.399921,31.229764],[121.399953,31.229765],[121.399984,31.229768],[121.400016,31.229774],[121.400048,31.229782],[121.400079,31.229793],[121.400111,31.229805],[121.400141,31.22982],[121.400171,31.229836],[121.400198,31.229855],[121.400223,31.229875],[121.400246,31.229897],[121.400265,31.22992],[121.400282,31.229945],[121.400297,31.229971],[121.400308,31.229998],[121.400317,31.230026],[121.400324,31.230054],[121.400328,31.230083],[121.400329,31.230111],[121.400328,31.230139],[121.400325,31.230166],[121.400321,31.230193],[121.400316,31.23022],[121.400309,31.230247],[121.400302,31.230274],[121.400293,31.2303],[121.400282,31.230325],[121.400271,31.23035],[121.400259,31.230374],[121.400247,31.230398],[121.400236,31.230423],[121.400224,31.230448],[121.400212,31.230473],[121.400202,31.2305],[121.400192,31.230528],[121.400184,31.230556],[121.400177,31.230585],[121.400172,31.230615],[121.400167,31.230645],[121.400161,31.230674],[121.400153,31.230705],[121.400144,31.230735],[121.400134,31.230766],[121.400123,31.230796],[121.400113,31.230826],[121.400102,31.230855],[121.40009,31.230883],[121.400077,31.23091],[121.400063,31.230937],[121.400047,31.230963],[121.40003,31.230989],[121.400012,31.231014],[121.399992,31.231038],[121.399971,31.231062],[121.399948,31.231085],[121.399924,31.231107],[121.399898,31.231129],[121.399869,31.231148],[121.399839,31.231166],[121.399807,31.23118],[121.399773,31.23119],[121.399739,31.231196],[121.399704,31.231198],[121.399669,31.231197],[121.399635,31.231191],[121.399601,31.231184],[121.399567,31.231173],[121.399535,31.23116],[121.399504,31.231145],[121.399474,31.231128],[121.399446,31.231108],[121.399421,31.231086],[121.399398,31.231063],[121.399377,31.231037],[121.399359,31.231011],[121.399344,31.230983],[121.399331,31.230954],[121.39932,31.230924],[121.399311,31.230894],[121.399305,31.230863],[121.399302,31.230831],[121.399301,31.2308],[121.399305,31.230768],[121.399311,31.230737],[121.399319,31.230706],[121.399327,31.230676],[121.399336,31.230646],[121.399344,31.230618],[121.399351,31.23059],[121.399359,31.230563],[121.399367,31.230535],[121.399376,31.230508],[121.399386,31.230481],[121.399397,31.230454],[121.399408,31.230426],[121.399419,31.230398],[121.39943,31.23037],[121.39944,31.230343],[121.399449,31.230316],[121.399459,31.230289],[121.39947,31.230262],[121.399481,31.230235],[121.399491,31.230208],[121.399501,31.23018],[121.39951,31.230152],[121.399518,31.230123],[121.399526,31.230094],[121.399533,31.230065],[121.399542,31.230037],[121.399551,31.230009],[121.399562,31.229982],[121.399575,31.229956],[121.39959,31.22993],[121.399608,31.229905],[121.399628,31.229882],[121.399651,31.22986],[121.399675,31.22984],[121.399702,31.229822],[121.39973,31.229806],[121.399758,31.229792],[121.399787,31.22978],[121.399817,31.229771],[121.399848,31.229764],[121.399878,31.229759],[121.399909,31.229757],[121.399941,31.229757],[121.399972,31.229758],[121.400003,31.229761],[121.400034,31.229766],[121.400065,31.229772],[121.400094,31.22978],[121.400121,31.22979],[121.400147,31.229803],[121.400171,31.22982],[121.400194,31.229839],[121.400215,31.22986],[121.400234,31.229883],[121.400252,31.229906],[121.400268,31.229929],[121.400283,31.229953],[121.400296,31.229979],[121.400307,31.230006],[121.400316,31.230035],[121.400322,31.230065],[121.400326,31.230096],[121.400326,31.230127],[121.400325,31.230158],[121.40032,31.230188],[121.400313,31.230218],[121.400305,31.230248],[121.400295,31.230278],[121.400284,31.230308],[121.400273,31.230338],[121.400262,31.230367],[121.400252,31.230397],[121.400244,31.230427],[121.400236,31.230456],[121.400229,31.230485],[121.400221,31.230513],[121.400213,31.230541],[121.400204,31.230569],[121.400194,31.230596],[121.400184,31.230624],[121.400174,31.230652],[121.400165,31.230681],[121.400156,31.230709],[121.400148,31.230738],[121.400139,31.230766],[121.400131,31.230794],[121.400122,31.230822],[121.400112,31.230849],[121.400102,31.230877],[121.400091,31.230905],[121.400078,31.230933],[121.400063,31.23096],[121.400046,31.230985],[121.400025,31.23101],[121.400002,31.231033],[121.399978,31.231055],[121.399952,31.231077],[121.399926,31.231098],[121.3999,31.231119],[121.399873,31.231137],[121.399845,31.231153],[121.399814,31.231166],[121.399781,31.231175],[121.399746,31.231181],[121.399709,31.231184],[121.399673,31.231182],[121.399637,31.231178],[121.399602,31.231169],[121.399568,31.231159],[121.399534,31.231146],[121.399502,31.231131],[121.39947,31.231115],[121.39944,31.231098],[121.399411,31.231079],[121.399386,31.231059],[121.399363,31.231036],[121.399344,31.231012],[121.399329,31.230986],[121.399318,31.230958],[121.399312,31.23093],[121.399309,31.230901],[121.39931,31.23087],[121.399313,31.230838],[121.399317,31.230805],[121.399323,31.230772],[121.39933,31.230739],[121.399338,31.230706],[121.399347,31.230673],[121.399358,31.230641],[121.399368,31.230609],[121.399376,31.230578],[121.399383,31.230547],[121.399389,31.230515],[121.399393,31.230484],[121.399397,31.230453],[121.399402,31.230421],[121.399409,31.23039],[121.399419,31.230358],[121.399431,31.230327],[121.399444,31.230295],[121.399459,31.230264],[121.399474,31.230233],[121.399488,31.230201],[121.399502,31.23017],[121.399515,31.23014],[121.399527,31.230109],[121.399538,31.230079],[121.399549,31.23005],[121.39956,31.230022],[121.399573,31.229994],[121.399586,31.229966],[121.399601,31.229939],[121.399617,31.229913],[121.399635,31.229887],[121.399654,31.229863],[121.399675,31.229841],[121.3997,31.22982],[121.399726,31.229802],[121.399756,31.229785],[121.399788,31.229772],[121.399822,31.229761],[121.399856,31.229754],[121.399892,31.229749],[121.399928,31.229747],[121.399964,31.229748],[121.4,31.229751],[121.400036,31.229757],[121.400071,31.229766],[121.400104,31.229778],[121.400137,31.229793],[121.400168,31.22981],[121.400196,31.229829],[121.400223,31.22985],[121.400249,31.229872],[121.400272,31.229897],[121.400293,31.229923],[121.400312,31.229951],[121.400326,31.229981],[121.400336,31.230011],[121.400342,31.230042],[121.400345,31.230074],[121.400344,31.230106],[121.40034,31.230138],[121.400336,31.230169],[121.40033,31.230201],[121.400324,31.230232],[121.400316,31.230262],[121.400308,31.230291],[121.400299,31.23032],[121.400289,31.230349],[121.400279,31.230376],[121.400269,31.230403],[121.400259,31.230429],[121.40025,31.230455],[121.400241,31.230482],[121.400233,31.230509],[121.400224,31.230538],[121.400216,31.230567],[121.400208,31.230596],[121.400199,31.230626],[121.40019,31.230655],[121.400182,31.230685],[121.400174,31.230714],[121.400165,31.230743],[121.400156,31.230773],[121.400146,31.230803],[121.400136,31.230834],[121.400125,31.230864],[121.400114,31.230894],[121.400102,31.230923],[121.400088,31.230953],[121.400071,31.230982],[121.400052,31.23101],[121.400029,31.231038],[121.400005,31.231066],[121.399979,31.231091],[121.399951,31.231115],[121.399921,31.231135],[121.399891,31.231152],[121.399859,31.231165],[121.399827,31.231175],[121.399794,31.231181],[121.399761,31.231185],[121.399728,31.231187],[121.399696,31.231187],[121.399663,31.231187],[121.399634,31.231183],[121.399587,31.231183],[121.399562,31.231177],[121.399532,31.231164],[121.399504,31.23115],[121.399476,31.231133],[121.399449,31.231112],[121.399424,31.231088],[121.399402,31.231061],[121.399383,31.231034],[121.399367,31.231005],[121.399355,31.230976],[121.399346,31.230946],[121.399338,31.230916],[121.399333,31.230885],[121.39933,31.230854],[121.399329,31.230823],[121.399329,31.230792],[121.39933,31.23076],[121.399332,31.230728],[121.399336,31.230697],[121.399342,31.230666],[121.39935,31.230635],[121.399359,31.230605],[121.399369,31.230576],[121.399381,31.230547],[121.399392,31.230519],[121.399402,31.230491],[121.399411,31.230463],[121.39942,31.230435],[121.399428,31.230407],[121.399436,31.230379],[121.399445,31.230351],[121.399454,31.230323],[121.399463,31.230294],[121.399473,31.230266],[121.399482,31.230237],[121.399491,31.230208],[121.3995,31.230178],[121.399509,31.230149],[121.399518,31.230119],[121.399527,31.23009],[121.399538,31.23006],[121.39955,31.230032],[121.399564,31.230004],[121.399579,31.229977],[121.399598,31.22995],[121.399619,31.229925],[121.399641,31.229899],[121.399665,31.229875],[121.399691,31.229853],[121.399719,31.229832],[121.399748,31.229814],[121.39978,31.229798],[121.399814,31.229784],[121.399849,31.229772],[121.399885,31.229765],[121.399921,31.229761],[121.399958,31.22976],[121.399995,31.229763],[121.400031,31.229768],[121.400066,31.229775],[121.400101,31.229783],[121.400134,31.229794],[121.400166,31.229808],[121.400197,31.229824],[121.400225,31.229843],[121.400251,31.229865],[121.400273,31.229889],[121.400291,31.229915],[121.400305,31.229942],[121.400316,31.229971],[121.400325,31.229999],[121.40033,31.230028],[121.400333,31.230058],[121.400334,31.230088],[121.400333,31.230119],[121.400329,31.23015],[121.400324,31.230183],[121.400318,31.230216],[121.400311,31.23025],[121.400303,31.230283],[121.400294,31.230317],[121.400284,31.230349],[121.400274,31.230381],[121.400263,31.230412],[121.400251,31.230443],[121.400239,31.230474],[121.400227,31.230503],[121.400215,31.230533],[121.400203,31.230563],[121.400192,31.230594],[121.400181,31.230625],[121.40017,31.230659],[121.40016,31.230693],[121.40015,31.230728],[121.40014,31.230762],[121.400132,31.230795],[121.400123,31.230827],[121.400115,31.230859],[121.400106,31.230891],[121.400096,31.230922],[121.400084,31.230953],[121.40007,31.230983],[121.400054,31.231011],[121.400035,31.231037],[121.400014,31.231061],[121.399991,31.231082],[121.399967,31.231102],[121.399941,31.23112],[121.399915,31.231136],[121.399886,31.23115],[121.399856,31.231163],[121.399824,31.231174],[121.399791,31.231182],[121.399757,31.231187],[121.399721,31.23119],[121.399686,31.231189],[121.399651,31.231186],[121.399615,31.23118],[121.399579,31.231171],[121.399545,31.231159],[121.399511,31.231144],[121.399479,31.231127],[121.399449,31.231107],[121.399422,31.231084],[121.399398,31.231059],[121.399378,31.231031],[121.399361,31.231002],[121.399347,31.230971],[121.399337,31.230938],[121.39933,31.230905],[121.399326,31.230872],[121.399325,31.230838],[121.399326,31.230806],[121.399328,31.230774],[121.399331,31.230743],[121.399336,31.230711],[121.399341,31.23068],[121.399347,31.230649],[121.399355,31.230618],[121.399363,31.230587],[121.399371,31.230558],[121.399379,31.230528],[121.399387,31.230499],[121.399394,31.23047],[121.399401,31.23044],[121.399409,31.230411],[121.399417,31.230382],[121.399427,31.230353],[121.399437,31.230324],[121.399448,31.230296],[121.39946,31.230268],[121.399471,31.230239],[121.399483,31.23021],[121.399493,31.23018],[121.399503,31.23015],[121.399513,31.23012],[121.399523,31.230089],[121.399534,31.230059],[121.399545,31.230029],[121.399558,31.229999],[121.399572,31.229971],[121.399589,31.229944],[121.399609,31.229918],[121.399632,31.229893],[121.399658,31.229871],[121.399686,31.229851],[121.399715,31.229832],[121.399746,31.229816],[121.399778,31.229802],[121.39981,31.229791],[121.399844,31.229782],[121.39988,31.229776],[121.399916,31.229772],[121.399955,31.22977],[121.399994,31.229772],[121.400032,31.229776],[121.40007,31.229784],[121.400107,31.229796],[121.400142,31.22981],[121.400174,31.229828],[121.400203,31.229847],[121.400229,31.229869],[121.400252,31.229893],[121.400272,31.229918],[121.40029,31.229945],[121.400304,31.229973],[121.400316,31.230002],[121.400325,31.230031],[121.400331,31.230061],[121.400333,31.230092],[121.400333,31.230122],[121.40033,31.230154],[121.400325,31.230186],[121.400317,31.230217],[121.400308,31.230249],[121.400296,31.230282],[121.400284,31.230315],[121.400271,31.230347],[121.400259,31.230381],[121.400247,31.230415],[121.400235,31.230448],[121.400224,31.230482],[121.400214,31.230514],[121.400205,31.230546],[121.400196,31.230577],[121.400188,31.230608],[121.400179,31.230639],[121.400169,31.230669],[121.400158,31.230699],[121.400147,31.230728],[121.400135,31.230756],[121.400124,31.230783],[121.400114,31.23081],[121.400104,31.230838],[121.400094,31.230865],[121.400082,31.230893],[121.40007,31.230921],[121.400057,31.23095],[121.400042,31.230977],[121.400025,31.231006],[121.400007,31.231033],[121.399986,31.231059],[121.399962,31.231084],[121.399936,31.231107],[121.399907,31.231126],[121.399876,31.231142],[121.399843,31.231155],[121.399809,31.231164],[121.399774,31.23117],[121.399739,31.231173],[121.399703,31.231174],[121.399669,31.231172],[121.399634,31.231168],[121.399601,31.231161],[121.399567,31.231152],[121.399534,31.231141],[121.399502,31.231127],[121.399471,31.231111],[121.399441,31.231093],[121.399415,31.231073],[121.399391,31.231051],[121.399371,31.231026],[121.399354,31.231001],[121.399341,31.230974],[121.399331,31.230945],[121.399324,31.230916],[121.39932,31.230887],[121.399319,31.230857],[121.399321,31.230828],[121.399324,31.2308],[121.399328,31.230771],[121.399333,31.230743],[121.399339,31.230715],[121.399346,31.230687],[121.399355,31.230658],[121.399366,31.230628],[121.399377,31.230598],[121.399388,31.230567],[121.3994,31.230536],[121.39941,31.230504],[121.399421,31.230473],[121.39943,31.230441],[121.39944,31.230408],[121.399449,31.230377],[121.399459,31.230345],[121.399469,31.230313],[121.399478,31.230282],[121.399488,31.23025],[121.399498,31.230219],[121.399508,31.230188],[121.399517,31.230157],[121.399527,31.230126],[121.399537,31.230095],[121.399547,31.230065],[121.399557,31.230034],[121.399569,31.230004],[121.399581,31.229975],[121.399595,31.229946],[121.399612,31.229917],[121.399632,31.229891],[121.399653,31.229866],[121.399677,31.229844],[121.399702,31.229825],[121.39973,31.229808],[121.39976,31.229795],[121.399791,31.229784],[121.399825,31.229776],[121.399859,31.22977],[121.399893,31.229767],[121.399927,31.229767],[121.399962,31.229769],[121.399997,31.229773],[121.400032,31.22978],[121.400066,31.229789],[121.400099,31.229801],[121.40013,31.229815],[121.400159,31.229832],[121.400187,31.229849],[121.400213,31.229868],[121.400237,31.229888],[121.400258,31.229909],[121.400277,31.229932],[121.400293,31.229957],[121.400305,31.229984],[121.400313,31.230013],[121.400317,31.230043],[121.400318,31.230073],[121.400316,31.230103],[121.40031,31.230134],[121.400302,31.230165],[121.400292,31.230196],[121.400281,31.230226],[121.40027,31.230257],[121.400258,31.230288],[121.400246,31.230319],[121.400235,31.230349],[121.400223,31.230381],[121.400212,31.230412],[121.400201,31.230443],[121.400191,31.230475],[121.400183,31.230507],[121.400175,31.230539],[121.400168,31.230573],[121.400161,31.230607],[121.400154,31.230641],[121.400147,31.230676],[121.40014,31.23071],[121.400132,31.230743],[121.400125,31.230776],[121.400118,31.23081],[121.40011,31.230843],[121.400101,31.230876],[121.400091,31.230909],[121.40008,31.230941],[121.400067,31.230972],[121.400053,31.231003],[121.400036,31.231031],[121.400017,31.231058],[121.399995,31.231083],[121.39997,31.231106],[121.399943,31.231126],[121.399914,31.231145],[121.399882,31.231162],[121.39985,31.231176],[121.399816,31.231187],[121.399781,31.231195],[121.399746,31.231198],[121.399712,31.231198],[121.399677,31.231194],[121.399644,31.231186],[121.399611,31.231175],[121.399579,31.231162],[121.399547,31.231147],[121.399517,31.231129],[121.399489,31.231109],[121.399463,31.231086],[121.399439,31.231062],[121.399417,31.231035],[121.399398,31.231006],[121.399381,31.230976],[121.399366,31.230944],[121.399354,31.230912],[121.399345,31.230879],[121.39934,31.230845],[121.399339,31.230813],[121.399341,31.23078],[121.399347,31.230748],[121.399355,31.230716],[121.399365,31.230685],[121.399376,31.230655],[121.399388,31.230625],[121.3994,31.230595],[121.39941,31.230566],[121.39942,31.230536],[121.399427,31.230506],[121.399435,31.230477],[121.399441,31.230448],[121.399449,31.230419],[121.399457,31.230391],[121.399465,31.230363],[121.399475,31.230334],[121.399485,31.230305],[121.399496,31.230275],[121.399507,31.230245],[121.399517,31.230214],[121.399526,31.230183],[121.399534,31.230152],[121.399542,31.230121],[121.39955,31.23009],[121.399559,31.230059],[121.399569,31.230029],[121.399581,31.23],[121.399594,31.229971],[121.399608,31.229942],[121.399626,31.229914],[121.399646,31.229886],[121.39967,31.229859],[121.399696,31.229835],[121.399726,31.229814],[121.399759,31.229796],[121.399793,31.229781],[121.399829,31.22977],[121.399866,31.229762],[121.399903,31.229757],[121.399941,31.229756],[121.399978,31.229759],[121.400016,31.229765],[121.400052,31.229774],[121.400088,31.229787],[121.400122,31.229802],[121.400154,31.22982],[121.400185,31.229839],[121.400214,31.22986],[121.40024,31.229884],[121.400264,31.22991],[121.400285,31.229938],[121.400301,31.229969],[121.400313,31.230001],[121.400322,31.230033],[121.400327,31.230064],[121.400327,31.230095],[121.400325,31.230126],[121.40032,31.230156],[121.400314,31.230187],[121.400306,31.230218],[121.400297,31.230249],[121.400288,31.230281],[121.400278,31.230312],[121.400268,31.230342],[121.400258,31.230372],[121.400248,31.230399],[121.400238,31.230426],[121.400227,31.230453],[121.400217,31.23048],[121.400207,31.230508],[121.400198,31.230537],[121.40019,31.230567],[121.400183,31.230596],[121.400176,31.230626],[121.400168,31.230655],[121.400161,31.230685],[121.400155,31.230714],[121.400148,31.230743],[121.400142,31.230774],[121.400135,31.230804],[121.400128,31.230835],[121.400119,31.230865],[121.400107,31.230896],[121.400092,31.230925],[121.400075,31.230955],[121.400055,31.230984],[121.400033,31.231013],[121.40001,31.231041],[121.399984,31.231067],[121.399957,31.231092],[121.399928,31.231115],[121.399896,31.231135],[121.399862,31.231152],[121.399827,31.231166],[121.39979,31.231176],[121.399753,31.231182],[121.399717,31.231184],[121.399681,31.231184],[121.399645,31.23118],[121.399612,31.231174],[121.39958,31.231167],[121.399549,31.231156],[121.39952,31.231143],[121.399494,31.231128],[121.399469,31.231111],[121.399446,31.231091],[121.399425,31.231069],[121.399406,31.231045],[121.399389,31.23102],[121.399375,31.230994],[121.399364,31.230966],[121.399356,31.230938],[121.39935,31.230908],[121.399347,31.230878],[121.399345,31.230847],[121.399344,31.230816],[121.399344,31.230784],[121.399345,31.230751],[121.399348,31.230719],[121.399351,31.230686],[121.399357,31.230653],[121.399364,31.23062],[121.399373,31.230587],[121.399382,31.230554],[121.399392,31.23052],[121.399403,31.230487],[121.399413,31.230453],[121.399424,31.230419],[121.399435,31.230385],[121.399446,31.230352],[121.399457,31.230318],[121.399468,31.230284],[121.399479,31.230251],[121.39949,31.230218],[121.399501,31.230184],[121.399511,31.230152],[121.399521,31.230119],[121.399531,31.230086],[121.39954,31.230054],[121.399551,31.230021],[121.399563,31.229988],[121.399577,31.229956],[121.399594,31.229926],[121.399614,31.229898],[121.399637,31.229872],[121.399662,31.229849],[121.399689,31.229829],[121.399718,31.229811],[121.399749,31.229796],[121.399781,31.229784],[121.399815,31.229775],[121.39985,31.229769],[121.399886,31.229766],[121.399922,31.229764],[121.399959,31.229764],[121.399995,31.229766],[121.400031,31.22977],[121.400066,31.229776],[121.4001,31.229785],[121.400133,31.229798],[121.400164,31.229813],[121.400194,31.229832],[121.400222,31.229853],[121.400247,31.229878],[121.400268,31.229904],[121.400287,31.229931],[121.400302,31.229959],[121.400314,31.229988],[121.400322,31.230018],[121.400328,31.230048],[121.400331,31.23008],[121.400332,31.230114],[121.400332,31.230149],[121.400329,31.230184],[121.400323,31.230219],[121.400316,31.230254],[121.400306,31.230288],[121.400296,31.23032],[121.400286,31.230353],[121.400276,31.230385],[121.400266,31.230417],[121.400257,31.230449],[121.400247,31.230481],[121.400236,31.230513],[121.400224,31.230545],[121.400212,31.230577],[121.4002,31.23061],[121.400189,31.230643],[121.400179,31.230677],[121.400168,31.230711],[121.400158,31.230745],[121.400147,31.23078],[121.400136,31.230815],[121.400124,31.230848],[121.400112,31.230882],[121.400099,31.230914],[121.400085,31.230945],[121.400069,31.230976],[121.400051,31.231005],[121.40003,31.231034],[121.400006,31.231061],[121.399979,31.231085],[121.39995,31.231108],[121.399919,31.231128],[121.399887,31.231146],[121.399853,31.231161],[121.399817,31.231173],[121.399781,31.231182],[121.399744,31.231188],[121.399707,31.23119],[121.399671,31.231188],[121.399635,31.231182],[121.3996,31.231173],[121.399567,31.23116],[121.399535,31.231145],[121.399505,31.231127],[121.399477,31.231106],[121.399451,31.231084],[121.399426,31.23106],[121.399404,31.231035],[121.399383,31.231007],[121.399365,31.230979],[121.399348,31.230948],[121.399334,31.230917],[121.399324,31.230885],[121.399317,31.230852],[121.399313,31.230818],[121.399313,31.230785],[121.399316,31.230752],[121.39932,31.23072],[121.399327,31.230689],[121.399335,31.230658],[121.399344,31.230627],[121.399356,31.230596],[121.399369,31.230565],[121.399382,31.230533],[121.399396,31.230502],[121.399408,31.230471],[121.39942,31.23044],[121.39943,31.230408],[121.39944,31.230375],[121.399449,31.230342],[121.399459,31.23031],[121.39947,31.230277],[121.399483,31.230244],[121.399496,31.230213],[121.399509,31.23018],[121.399522,31.230148],[121.399534,31.230114],[121.399546,31.230081],[121.399558,31.230048],[121.39957,31.230016],[121.399584,31.229985],[121.399599,31.229956],[121.399617,31.229928],[121.399637,31.229903],[121.399658,31.22988],[121.399682,31.229859],[121.399708,31.229841],[121.399736,31.229826],[121.399766,31.229813],[121.399797,31.229803],[121.399829,31.229795],[121.399863,31.22979],[121.399897,31.229787],[121.399933,31.229787],[121.399969,31.229789],[121.400006,31.229793],[121.400043,31.2298],[121.400079,31.229809],[121.400115,31.22982],[121.400149,31.229834],[121.400182,31.22985],[121.400212,31.229869],[121.40024,31.22989],[121.400265,31.229913],[121.400285,31.229938],[121.400302,31.229965],[121.400314,31.229992],[121.400323,31.23002],[121.400329,31.230048],[121.400333,31.230077],[121.400335,31.230107],[121.400333,31.230137],[121.40033,31.230167],[121.400323,31.230199],[121.400315,31.23023],[121.400307,31.230262],[121.400298,31.230294],[121.400289,31.230327],[121.40028,31.23036],[121.400271,31.230392],[121.400261,31.230425],[121.40025,31.230458],[121.400239,31.23049],[121.400227,31.230522],[121.400214,31.230554],[121.400202,31.230587],[121.40019,31.230619],[121.400179,31.230651],[121.400168,31.230685],[121.400158,31.230718],[121.400148,31.230752],[121.400138,31.230787],[121.400128,31.230821],[121.400117,31.230855],[121.400106,31.230888],[121.400094,31.230922],[121.400081,31.230955],[121.400066,31.230988],[121.400049,31.23102],[121.400029,31.231051],[121.400006,31.23108],[121.399979,31.231107],[121.399948,31.231131],[121.399914,31.231153],[121.399877,31.231171],[121.399837,31.231184],[121.399795,31.231194],[121.399753,31.231198],[121.399711,31.231198],[121.399669,31.231194],[121.399628,31.231186],[121.399588,31.231175],[121.399549,31.23116],[121.399513,31.231143],[121.399479,31.231123],[121.399447,31.2311],[121.399418,31.231075],[121.399393,31.231048],[121.399372,31.231019],[121.399354,31.230988],[121.399341,31.230957],[121.399331,31.230924],[121.399324,31.230891],[121.39932,31.230858],[121.399318,31.230824],[121.399319,31.23079],[121.399321,31.230755],[121.399326,31.230719],[121.399333,31.230683],[121.399342,31.230647],[121.399352,31.230611],[121.399362,31.230576],[121.399372,31.230541],[121.399383,31.230506],[121.399393,31.230471],[121.399403,31.230436],[121.399413,31.230401],[121.399422,31.230367],[121.399431,31.230333],[121.39944,31.230299],[121.399449,31.230267],[121.399457,31.230235],[121.399465,31.230202],[121.399474,31.23017],[121.399482,31.230138],[121.399492,31.230105],[121.399503,31.230072],[121.399516,31.230041],[121.39953,31.23001],[121.399544,31.229981],[121.39956,31.229953],[121.399575,31.229925],[121.399591,31.229898],[121.399607,31.229871],[121.399623,31.229843],[121.399638,31.229816]]}}]}