{"type":"FeatureCollection","features":[{"type":"Feature","properties":{"id":"2026-05-15_running_38","type":"running","date":"2026-05-15"},"geometry":{"type":"LineString","coordinates":[[121.399535,31.229966],[121.399556,31.229934],[121.399577,31.229906],[121.399595,31.229883],[121.399614,31.229862],[121.399634,31.229843],[121.399657,31.229825],[121.399684,31.229808],[121.399715,31.229792],[121.399748,31.229777],[121.399778,31.229766],[121.399811,31.229756],[121.399844,31.229749],[121.399874,31.229744],[121.399905,31.229742],[121.399939,31.229742],[121.399973,31.229743],[121.400003,31.229746],[121.400038,31.229753],[121.400072,31.229761],[121.400103,31.229772],[121.400137,31.229788],[121.400169,31.229805],[121.400197,31.229825],[121.400224,31.229846],[121.400246,31.229867],[121.400267,31.229888],[121.400286,31.229913],[121.400302,31.229939],[121.400315,31.229964],[121.400327,31.229993],[121.400335,31.230024],[121.400337,31.230053],[121.400335,31.230082],[121.400331,31.230115],[121.400324,31.230149],[121.400314,31.230183],[121.400304,31.230216],[121.400295,31.23024],[121.400288,31.23026],[121.40028,31.230282],[121.400272,31.230305],[121.400263,31.230329],[121.400253,31.230358],[121.400244,31.230386],[121.400236,31.230411],[121.400227,31.23044],[121.400219,31.230468],[121.400212,31.230493],[121.400204,31.230522],[121.400196,31.23055],[121.400189,31.230574],[121.400181,31.230604],[121.400173,31.230634],[121.400165,31.230662],[121.400154,31.230703],[121.400143,31.23074],[121.400133,31.23077],[121.400123,31.230798],[121.400114,31.230822],[121.400104,31.23085],[121.400094,31.230877],[121.400086,31.230899],[121.400076,31.230926],[121.400067,31.230951],[121.400059,31.230971],[121.400049,31.230991],[121.400036,31.231017],[121.400015,31.231046],[121.399992,31.231071],[121.399969,31.231093],[121.399947,31.231111],[121.399927,31.231126],[121.399901,31.23114],[121.399875,31.231152],[121.399848,31.231162],[121.399815,31.231171],[121.39978,31.231178],[121.399749,31.23118],[121.399715,31.23118],[121.399682,31.231179],[121.399652,31.231175],[121.399618,31.23117],[121.399585,31.231164],[121.399555,31.231155],[121.399527,31.231144],[121.399498,31.23113],[121.399472,31.231113],[121.39945,31.231095],[121.399428,31.231074],[121.399405,31.231048],[121.399386,31.231022],[121.399372,31.231],[121.399362,31.230978],[121.399351,31.23095],[121.399343,31.230922],[121.399337,31.230897],[121.399332,31.230868],[121.399328,31.230839],[121.399327,31.230812],[121.399328,31.230781],[121.399332,31.230751],[121.399338,31.230724],[121.399345,31.230692],[121.399354,31.230663],[121.399364,31.230639],[121.399374,31.230614],[121.399383,31.230587],[121.399389,31.230561],[121.399394,31.230536],[121.3994,31.23051],[121.399407,31.230484],[121.399415,31.230455],[121.399423,31.230428],[121.399429,31.230403],[121.399435,31.230376],[121.399441,31.230347],[121.399449,31.230319],[121.399456,31.230293],[121.399465,31.230263],[121.399474,31.230235],[121.399482,31.23021],[121.399491,31.230182],[121.399499,31.230155],[121.399507,31.230129],[121.399516,31.2301],[121.399525,31.230072],[121.399534,31.230048],[121.399544,31.23002],[121.399553,31.229992],[121.399561,31.229965],[121.39957,31.229939],[121.39958,31.229918],[121.399593,31.229893],[121.39961,31.22987],[121.399629,31.229852],[121.399652,31.229834],[121.39968,31.229816],[121.399707,31.2298],[121.399731,31.229789],[121.399757,31.229778],[121.399783,31.229769],[121.399807,31.229762],[121.399836,31.229756],[121.399867,31.229751],[121.399897,31.229749],[121.399932,31.229748],[121.399966,31.22975],[121.399998,31.229752],[121.400032,31.229757],[121.400063,31.229765],[121.40009,31.229774],[121.400116,31.229785],[121.400142,31.229799],[121.400167,31.229814],[121.40019,31.229829],[121.400215,31.229849],[121.400237,31.22987],[121.400256,31.229891],[121.400275,31.229916],[121.400291,31.229941],[121.400302,31.229967],[121.400311,31.229995],[121.400317,31.230024],[121.40032,31.230051],[121.400321,31.230077],[121.40032,31.230108],[121.400317,31.230138],[121.400313,31.230166],[121.400305,31.230196],[121.400298,31.230223],[121.40029,31.230247],[121.400282,31.230274],[121.400273,31.2303],[121.400267,31.230324],[121.400259,31.230351],[121.400252,31.230379],[121.400244,31.230406],[121.400236,31.230439],[121.400225,31.230476],[121.400215,31.230511],[121.400205,31.230541],[121.400195,31.23057],[121.400185,31.230602],[121.400175,31.230633],[121.400165,31.230661],[121.400156,31.230691],[121.400148,31.230719],[121.40014,31.230744],[121.400133,31.230772],[121.400124,31.2308],[121.400116,31.230826],[121.400107,31.230854],[121.400098,31.23088],[121.400089,31.230905],[121.400076,31.230937],[121.40006,31.230973],[121.400042,31.231005],[121.400023,31.231035],[121.400002,31.231064],[121.39998,31.231088],[121.399955,31.231111],[121.399929,31.23113],[121.399904,31.231144],[121.399877,31.231156],[121.399849,31.231166],[121.399816,31.231173],[121.399784,31.231178],[121.399753,31.23118],[121.399718,31.23118],[121.399684,31.231179],[121.399651,31.231177],[121.399612,31.23117],[121.399569,31.23116],[121.399531,31.231146],[121.3995,31.231132],[121.399472,31.231117],[121.399446,31.231098],[121.399424,31.231078],[121.399407,31.231057],[121.399389,31.231033],[121.399373,31.231008],[121.39936,31.230982],[121.399348,31.230955],[121.399339,31.230929],[121.399334,31.230902],[121.399331,31.230873],[121.39933,31.230846],[121.399331,31.23082],[121.399334,31.230788],[121.399339,31.230754],[121.399346,31.230723],[121.399356,31.230689],[121.399367,31.230658],[121.399376,31.23063],[121.399384,31.2306],[121.39939,31.230571],[121.399394,31.230545],[121.399399,31.230516],[121.399406,31.230489],[121.399414,31.230462],[121.399422,31.230434],[121.399429,31.230409],[121.399437,31.23038],[121.399447,31.230352],[121.399457,31.230327],[121.399466,31.2303],[121.399476,31.23027],[121.399485,31.230241],[121.399492,31.230215],[121.3995,31.230187],[121.399509,31.230161],[121.39952,31.230136],[121.399531,31.230108],[121.399542,31.230079],[121.399551,31.230053],[121.399561,31.230024],[121.39957,31.229997],[121.399581,31.229969],[121.399591,31.229942],[121.399602,31.229918],[121.399618,31.229893],[121.399638,31.229869],[121.399661,31.229848],[121.399689,31.229829],[121.399717,31.229811],[121.399742,31.229797],[121.399769,31.229785],[121.399801,31.229774],[121.399834,31.229765],[121.399865,31.229759],[121.399897,31.229755],[121.39993,31.229753],[121.399962,31.229754],[121.399997,31.229756],[121.400033,31.229759],[121.400064,31.229766],[121.400098,31.229776],[121.400129,31.229788],[121.400158,31.229803],[121.400188,31.229821],[121.400215,31.22984],[121.400237,31.229858],[121.400259,31.22988],[121.400277,31.229904],[121.400291,31.229927],[121.400302,31.22995],[121.400311,31.229977],[121.400317,31.230003],[121.400321,31.230027],[121.400322,31.230053],[121.400322,31.230078],[121.40032,31.230105],[121.400317,31.230135],[121.400311,31.230164],[121.400303,31.230193],[121.400296,31.230223],[121.400288,31.23025],[121.400278,31.230281],[121.400268,31.230311],[121.400257,31.23034],[121.400247,31.230372],[121.400238,31.230403],[121.400231,31.23043],[121.400222,31.230462],[121.400214,31.230491],[121.400207,31.230517],[121.400201,31.230542],[121.400194,31.230571],[121.400187,31.2306],[121.40018,31.230629],[121.400171,31.23066],[121.400163,31.23069],[121.400154,31.23072],[121.400144,31.23075],[121.400134,31.230778],[121.400123,31.23081],[121.400113,31.230841],[121.400105,31.230871],[121.400096,31.230904],[121.400086,31.230935],[121.400075,31.230963],[121.400062,31.23099],[121.400048,31.231015],[121.40003,31.231036],[121.400008,31.23106],[121.399985,31.231082],[121.399962,31.231102],[121.399934,31.231122],[121.399907,31.231139],[121.399878,31.231154],[121.399848,31.231166],[121.399819,31.231176],[121.399786,31.231182],[121.39975,31.231185],[121.399714,31.231185],[121.39968,31.231184],[121.399641,31.23118],[121.399596,31.231171],[121.399555,31.231159],[121.399522,31.231145],[121.399495,31.23113],[121.399469,31.231113],[121.399446,31.231094],[121.399427,31.231075],[121.399407,31.231053],[121.399389,31.231029],[121.399373,31.231004],[121.399358,31.230977],[121.399347,31.23095],[121.399339,31.230922],[121.399335,31.230891],[121.399334,31.230858],[121.399336,31.230828],[121.399341,31.230793],[121.399349,31.230752],[121.399358,31.230713],[121.399366,31.230679],[121.399374,31.230648],[121.399382,31.230616],[121.399389,31.230585],[121.399396,31.230556],[121.399404,31.230524],[121.399412,31.230496],[121.39942,31.23047],[121.399428,31.230442],[121.399436,31.230416],[121.399443,31.230386],[121.39945,31.230356],[121.399456,31.230329],[121.399462,31.2303],[121.39947,31.230266],[121.399481,31.230227],[121.399492,31.230191],[121.399503,31.230159],[121.399515,31.230129],[121.399528,31.230098],[121.399539,31.230068],[121.399549,31.23004],[121.399559,31.230009],[121.39957,31.229978],[121.399583,31.229949],[121.399597,31.229923],[121.399614,31.2299],[121.399636,31.229875],[121.39966,31.229853],[121.399684,31.229834],[121.399712,31.229815],[121.399739,31.229799],[121.399764,31.229786],[121.399793,31.229776],[121.399826,31.229767],[121.399859,31.22976],[121.39989,31.229756],[121.399925,31.229753],[121.399959,31.229753],[121.399991,31.229756],[121.400026,31.229762],[121.400059,31.229769],[121.40009,31.229779],[121.400122,31.229791],[121.400151,31.229804],[121.400179,31.22982],[121.400205,31.229841],[121.400228,31.229861],[121.400247,31.229882],[121.400266,31.229908],[121.400281,31.229933],[121.400293,31.229958],[121.400304,31.229986],[121.400313,31.230015],[121.400318,31.230043],[121.400321,31.230072],[121.400321,31.230103],[121.400319,31.230133],[121.400315,31.230162],[121.400308,31.230193],[121.400301,31.230223],[121.400292,31.230253],[121.400282,31.230282],[121.400273,31.230309],[121.400263,31.230339],[121.400254,31.230369],[121.400248,31.230397],[121.400242,31.230426],[121.400236,31.230455],[121.400229,31.230483],[121.400221,31.230514],[121.400213,31.230545],[121.400205,31.230573],[121.400196,31.230603],[121.400187,31.230635],[121.400177,31.230664],[121.400169,31.230691],[121.40016,31.23072],[121.400151,31.230747],[121.400141,31.230775],[121.40013,31.230805],[121.400121,31.230834],[121.400112,31.230866],[121.400102,31.230897],[121.400091,31.230926],[121.400079,31.230954],[121.400065,31.230982],[121.40005,31.231008],[121.400034,31.231031],[121.400014,31.231055],[121.399993,31.231077],[121.399971,31.231097],[121.399945,31.231117],[121.399917,31.231134],[121.39989,31.231148],[121.399859,31.231161],[121.399827,31.231171],[121.399792,31.231177],[121.399755,31.231181],[121.399719,31.231182],[121.39968,31.231182],[121.39964,31.231179],[121.399603,31.231173],[121.399571,31.231165],[121.39954,31.231155],[121.399513,31.231143],[121.39949,31.23113],[121.399465,31.231112],[121.39944,31.231093],[121.399419,31.231073],[121.399397,31.231048],[121.399379,31.231023],[121.399364,31.230999],[121.39935,31.230972],[121.399339,31.230944],[121.399331,31.230914],[121.399324,31.230882],[121.399321,31.230852],[121.399322,31.23082],[121.399326,31.230785],[121.399333,31.230748],[121.399342,31.230711],[121.399353,31.230671],[121.399363,31.230636],[121.399373,31.230604],[121.399383,31.230571],[121.399391,31.23054],[121.399401,31.230507],[121.399411,31.230475],[121.399419,31.230449],[121.399428,31.23042],[121.399435,31.230392],[121.399443,31.230363],[121.399451,31.230334],[121.399458,31.230308],[121.399467,31.230281],[121.399476,31.23025],[121.399486,31.230219],[121.399495,31.23019],[121.399505,31.230158],[121.399515,31.230127],[121.399524,31.230099],[121.399536,31.230068],[121.399546,31.230039],[121.399557,31.230012],[121.399569,31.229981],[121.399581,31.229952],[121.399594,31.229926],[121.399611,31.229899],[121.399632,31.229874],[121.399657,31.22985],[121.399683,31.229829],[121.399709,31.229811],[121.399736,31.229796],[121.399762,31.229783],[121.399792,31.229773],[121.399825,31.229765],[121.399858,31.229759],[121.399895,31.229755],[121.399932,31.229753],[121.399966,31.229754],[121.400004,31.229758],[121.400042,31.229764],[121.400077,31.229774],[121.400114,31.229786],[121.400149,31.2298],[121.400176,31.229815],[121.400202,31.229833],[121.400225,31.229852],[121.400247,31.229875],[121.400266,31.229899],[121.400282,31.229923],[121.400297,31.22995],[121.40031,31.229979],[121.400318,31.230008],[121.400325,31.230041],[121.400328,31.230075],[121.400326,31.230105],[121.400322,31.230137],[121.400315,31.230169],[121.400309,31.230197],[121.400301,31.230225],[121.400291,31.230256],[121.400282,31.230287],[121.400273,31.230315],[121.400265,31.230346],[121.400257,31.230378],[121.40025,31.230412],[121.400243,31.230445],[121.400237,31.230474],[121.400229,31.230506],[121.400222,31.230538],[121.400212,31.230569],[121.400199,31.23061],[121.400186,31.230647],[121.400175,31.230677],[121.400164,31.230707],[121.400155,31.230736],[121.400144,31.23077],[121.400133,31.230802],[121.400124,31.23083],[121.400114,31.230861],[121.400105,31.230891],[121.400094,31.230921],[121.400081,31.230949],[121.400069,31.230974],[121.400053,31.231001],[121.400037,31.231026],[121.40002,31.23105],[121.399999,31.231074],[121.399978,31.231098],[121.399955,31.231119],[121.399927,31.231139],[121.399898,31.231156],[121.39987,31.231169],[121.399837,31.231179],[121.399803,31.231186],[121.399772,31.231189],[121.399736,31.231192],[121.399701,31.231192],[121.399666,31.231188],[121.399629,31.23118],[121.399595,31.231171],[121.399562,31.23116],[121.399529,31.231146],[121.399499,31.231132],[121.399472,31.231115],[121.399445,31.231095],[121.399422,31.231073],[121.399401,31.231051],[121.399381,31.231024],[121.399366,31.230998],[121.399357,31.230974],[121.399348,31.230947],[121.399339,31.230916],[121.399332,31.230885],[121.399328,31.230855],[121.399326,31.230823],[121.399328,31.230791],[121.399332,31.230761],[121.399338,31.230733],[121.399345,31.230707],[121.399355,31.230675],[121.399364,31.230645],[121.399372,31.230618],[121.399381,31.230589],[121.399388,31.230561],[121.399395,31.230534],[121.399403,31.230504],[121.399412,31.230475],[121.399421,31.230449],[121.399431,31.230421],[121.399439,31.230392],[121.399445,31.230363],[121.399452,31.230334],[121.399461,31.230304],[121.399471,31.230273],[121.39948,31.230241],[121.399489,31.230211],[121.399497,31.230182],[121.399507,31.23015],[121.399517,31.230119],[121.399527,31.230092],[121.399537,31.230062],[121.399548,31.230033],[121.399558,31.230007],[121.39957,31.229977],[121.399583,31.229947],[121.399597,31.229921],[121.399615,31.229894],[121.399635,31.229868],[121.399656,31.229846],[121.399682,31.229825],[121.399709,31.229806],[121.399734,31.229793],[121.399761,31.229781],[121.399792,31.229771],[121.399828,31.229763],[121.399863,31.229757],[121.399899,31.229753],[121.399939,31.229751],[121.399978,31.229752],[121.400012,31.229756],[121.400048,31.229763],[121.400084,31.229772],[121.400116,31.229783],[121.40015,31.229797],[121.400182,31.229812],[121.400209,31.229827],[121.400235,31.229846],[121.400258,31.229867],[121.400276,31.22989],[121.400293,31.229917],[121.400307,31.229943],[121.400318,31.229969],[121.400327,31.229994],[121.400333,31.230018],[121.400337,31.230043],[121.400337,31.230073],[121.400334,31.230103],[121.400328,31.230132],[121.400321,31.230164],[121.400313,31.230196],[121.400305,31.230225],[121.400294,31.230256],[121.400283,31.230286],[121.400274,31.230315],[121.400265,31.230347],[121.400257,31.230379],[121.400249,31.23041],[121.40024,31.230442],[121.400231,31.230471],[121.400223,31.2305],[121.400214,31.23053],[121.400207,31.230557],[121.400198,31.230588],[121.40019,31.230617],[121.400184,31.230643],[121.400176,31.230672],[121.400167,31.230701],[121.400159,31.230725],[121.400149,31.230753],[121.400138,31.23078],[121.400129,31.230806],[121.40012,31.230835],[121.400111,31.230864],[121.400102,31.230891],[121.400091,31.230921],[121.400079,31.230949],[121.400068,31.230973],[121.400055,31.230997],[121.400039,31.231022],[121.40002,31.231046],[121.4,31.231068],[121.399975,31.231092],[121.399949,31.231114],[121.399921,31.231131],[121.399892,31.231147],[121.399862,31.231161],[121.399832,31.231171],[121.3998,31.231178],[121.399767,31.231182],[121.399731,31.231184],[121.399696,31.231184],[121.399664,31.231181],[121.39963,31.231174],[121.399595,31.231165],[121.399563,31.231154],[121.399533,31.231141],[121.399508,31.231128],[121.399485,31.231113],[121.399459,31.231095],[121.399438,31.231075],[121.399415,31.231051],[121.399389,31.231023],[121.399376,31.230999],[121.39937,31.230977],[121.39936,31.230949],[121.39935,31.230918],[121.399342,31.230886],[121.399335,31.230851],[121.399332,31.230817],[121.399333,31.230786],[121.399338,31.230756],[121.399343,31.230725],[121.39935,31.230698],[121.399359,31.23067],[121.399369,31.23064],[121.399377,31.230612],[121.399384,31.230584],[121.39939,31.230557],[121.399398,31.230528],[121.399405,31.230499],[121.399412,31.230472],[121.39942,31.230445],[121.399428,31.230418],[121.399436,31.23039],[121.399443,31.23036],[121.399451,31.23033],[121.399459,31.230302],[121.399469,31.23027],[121.399479,31.230239],[121.399487,31.23021],[121.399493,31.230183],[121.399501,31.230156],[121.399511,31.230125],[121.39952,31.230094],[121.39953,31.230067],[121.39954,31.230037],[121.399551,31.230009],[121.399562,31.229985],[121.399573,31.229962],[121.399586,31.229936],[121.399602,31.229911],[121.39962,31.229888],[121.399641,31.229864],[121.399666,31.229839],[121.399694,31.229816],[121.399722,31.229797],[121.399755,31.229779],[121.399789,31.229765],[121.399819,31.229756],[121.39985,31.229751],[121.399885,31.229748],[121.399916,31.229746],[121.399945,31.229747],[121.39998,31.229749],[121.400014,31.229753],[121.400047,31.22976],[121.400083,31.229769],[121.400117,31.22978],[121.400147,31.229794],[121.400178,31.229811],[121.400208,31.229831],[121.400232,31.22985],[121.400255,31.229873],[121.400277,31.229898],[121.400296,31.229926],[121.400314,31.229954],[121.400325,31.229981],[121.40033,31.23001],[121.400333,31.230041],[121.400333,31.230075],[121.400331,31.230105],[121.400326,31.230135],[121.40032,31.230164],[121.400311,31.230195],[121.4003,31.230228],[121.40029,31.230259],[121.400279,31.230291],[121.400269,31.230324],[121.400261,31.230354],[121.400252,31.230386],[121.400243,31.230418],[121.400236,31.230446],[121.400228,31.230473],[121.400221,31.230502],[121.400212,31.230533],[121.400204,31.230565],[121.400194,31.230596],[121.400184,31.230626],[121.400174,31.230654],[121.400164,31.230684],[121.400152,31.230716],[121.400141,31.230745],[121.400131,31.230774],[121.400121,31.230804],[121.400113,31.230834],[121.400104,31.230864],[121.400095,31.230896],[121.400085,31.230926],[121.400073,31.230955],[121.400058,31.230988],[121.40004,31.23102],[121.400022,31.231047],[121.400001,31.231072],[121.399977,31.231094],[121.399953,31.231112],[121.399924,31.231128],[121.399893,31.231144],[121.399865,31.231158],[121.399832,31.231168],[121.399797,31.231176],[121.399764,31.231182],[121.399731,31.231185],[121.399698,31.231186],[121.399665,31.231185],[121.399631,31.23118],[121.399595,31.231172],[121.399559,31.231162],[121.39953,31.231151],[121.3995,31.231135],[121.399474,31.231117],[121.399451,31.231097],[121.399429,31.231073],[121.399411,31.231049],[121.399395,31.231022],[121.399382,31.230992],[121.399368,31.230953],[121.399352,31.230912],[121.399343,31.230877],[121.399342,31.230838],[121.399343,31.230798],[121.399347,31.230763],[121.399351,31.230729],[121.399355,31.230693],[121.39936,31.230658],[121.399364,31.230628],[121.39937,31.230597],[121.399377,31.230566],[121.399385,31.230533],[121.399392,31.2305],[121.3994,31.23047],[121.399408,31.230441],[121.399418,31.230412],[121.399428,31.230383],[121.399437,31.230353],[121.399448,31.230322],[121.399459,31.230293],[121.39947,31.230265],[121.399481,31.230233],[121.399491,31.230203],[121.399499,31.230178],[121.399506,31.230152],[121.399515,31.230123],[121.399524,31.230093],[121.399533,31.230066],[121.399543,31.230036],[121.399553,31.230005],[121.399566,31.229973],[121.399582,31.22994],[121.399598,31.229911],[121.399619,31.229884],[121.399644,31.229857],[121.399669,31.229833],[121.399698,31.229811],[121.399729,31.22979],[121.399759,31.229774],[121.399791,31.229761],[121.399826,31.229751],[121.399859,31.229745],[121.399898,31.229741],[121.399937,31.229738],[121.399974,31.229737],[121.400009,31.229739],[121.400045,31.229745],[121.40008,31.229753],[121.400113,31.229764],[121.400144,31.229777],[121.40017,31.229791],[121.400196,31.229811],[121.400223,31.229833],[121.400244,31.229854],[121.400265,31.229879],[121.400284,31.229905],[121.400299,31.229931],[121.400311,31.229958],[121.400322,31.229986],[121.40033,31.230014],[121.400336,31.230047],[121.400338,31.230082],[121.400338,31.230113],[121.400334,31.230145],[121.400327,31.230176],[121.400317,31.230206],[121.400306,31.230236],[121.400295,31.230264],[121.400284,31.230296],[121.400272,31.230329],[121.400261,31.23036],[121.400249,31.230392],[121.400238,31.230425],[121.400229,31.230459],[121.400221,31.230495],[121.400212,31.230532],[121.400202,31.230566],[121.400191,31.2306],[121.400181,31.230631],[121.40017,31.230664],[121.400159,31.230696],[121.400147,31.230727],[121.400134,31.230758],[121.400123,31.230791],[121.400111,31.230824],[121.4001,31.230854],[121.400088,31.230887],[121.400077,31.23092],[121.400068,31.230949],[121.400055,31.23098],[121.40004,31.23101],[121.400023,31.231035],[121.4,31.23106],[121.399976,31.231084],[121.399951,31.231104],[121.399922,31.231123],[121.399894,31.23114],[121.399863,31.231154],[121.399829,31.231166],[121.399796,31.231175],[121.399765,31.231181],[121.399736,31.231184],[121.399701,31.231185],[121.399665,31.231182],[121.399632,31.231176],[121.399597,31.231167],[121.399561,31.231156],[121.399531,31.231144],[121.399499,31.231127],[121.39947,31.231108],[121.399449,31.231089],[121.399428,31.231065],[121.399411,31.23104],[121.399396,31.231017],[121.399383,31.230992],[121.39937,31.230963],[121.399357,31.230933],[121.399347,31.2309],[121.399337,31.230859],[121.399332,31.230822],[121.399334,31.23079],[121.399339,31.230761],[121.399343,31.230736],[121.399349,31.230708],[121.399356,31.230677],[121.399362,31.230651],[121.399369,31.230622],[121.399377,31.230591],[121.399384,31.230564],[121.399392,31.230534],[121.399401,31.230501],[121.399408,31.230472],[121.399416,31.230445],[121.399425,31.230413],[121.399435,31.230379],[121.399445,31.230349],[121.399454,31.230322],[121.399462,31.230296],[121.399471,31.230269],[121.399479,31.230242],[121.399489,31.23021],[121.399498,31.230178],[121.399507,31.23015],[121.399517,31.23012],[121.399527,31.230089],[121.399535,31.230064],[121.399545,31.230036],[121.399554,31.230009],[121.399568,31.229977],[121.399588,31.22994],[121.399608,31.229909],[121.399629,31.229881],[121.39965,31.229856],[121.399672,31.229835],[121.399697,31.229814],[121.399726,31.229794],[121.399754,31.22978],[121.399785,31.229768],[121.39982,31.229758],[121.399857,31.22975],[121.399893,31.229744],[121.399933,31.22974],[121.399971,31.229739],[121.400004,31.22974],[121.40004,31.229746],[121.400075,31.229754],[121.400107,31.229766],[121.400141,31.229781],[121.40017,31.229798],[121.4002,31.229819],[121.400226,31.229841],[121.400247,31.229864],[121.400265,31.229887],[121.400282,31.229913],[121.400298,31.229944],[121.40031,31.229975],[121.400319,31.230009],[121.400326,31.230043],[121.400331,31.230073],[121.400333,31.230105],[121.400332,31.230138],[121.400328,31.230169],[121.40032,31.230202],[121.40031,31.230234],[121.4003,31.230263],[121.400288,31.230294],[121.400277,31.230326],[121.400265,31.230358],[121.400254,31.230392],[121.400244,31.230422],[121.400233,31.230455],[121.400223,31.230488],[121.400212,31.23052],[121.400203,31.230549],[121.400193,31.23058],[121.400183,31.230612],[121.400174,31.230641],[121.400163,31.230672],[121.400151,31.230702],[121.400142,31.230728],[121.400133,31.230757],[121.400125,31.230786],[121.400115,31.230812],[121.400102,31.230843],[121.400091,31.230879],[121.400082,31.230911],[121.400069,31.230945],[121.400053,31.230977],[121.400031,31.231007],[121.400008,31.231034],[121.399985,31.231057],[121.39996,31.231082],[121.399934,31.231106],[121.399907,31.231126],[121.399879,31.231143],[121.399852,31.231156],[121.399821,31.231166],[121.399786,31.231175],[121.399751,31.231179],[121.399713,31.231178],[121.399675,31.231174],[121.399641,31.231168],[121.399604,31.231159],[121.399567,31.231148],[121.399536,31.231137],[121.399506,31.231121],[121.399477,31.231102],[121.399454,31.231082],[121.399431,31.231056],[121.399409,31.231027],[121.399391,31.230999],[121.399377,31.230967],[121.399364,31.230934],[121.399354,31.230903],[121.399345,31.230868],[121.399337,31.230831],[121.399334,31.230798],[121.399334,31.230768],[121.399337,31.230739],[121.399342,31.230709],[121.399349,31.230681],[121.399356,31.230656],[121.399365,31.230629],[121.399374,31.2306],[121.399381,31.230573],[121.399389,31.230544],[121.399396,31.230515],[121.399403,31.230483],[121.39941,31.23045],[121.399417,31.230419],[121.39943,31.230377],[121.399447,31.230331],[121.399462,31.23029],[121.399474,31.230253],[121.399485,31.230222],[121.399496,31.23019],[121.399507,31.230158],[121.399516,31.23013],[121.399524,31.230102],[121.399532,31.230072],[121.39954,31.230044],[121.39955,31.230015],[121.399562,31.229984],[121.399578,31.229951],[121.399599,31.229918],[121.39962,31.229889],[121.399644,31.229859],[121.399671,31.229833],[121.399699,31.229811],[121.399729,31.229792],[121.39976,31.229776],[121.399795,31.229764],[121.399832,31.229755],[121.399868,31.229748],[121.399905,31.229742],[121.399943,31.229738],[121.399977,31.229736],[121.400009,31.229738],[121.400045,31.229744],[121.400081,31.229752],[121.400117,31.229764],[121.400153,31.229779],[121.400183,31.229796],[121.400213,31.229818],[121.400241,31.229844],[121.400269,31.229875],[121.400294,31.22991],[121.400311,31.229939],[121.400323,31.22997],[121.400332,31.230003],[121.400337,31.230033],[121.400341,31.230065],[121.400343,31.230098],[121.40034,31.23013],[121.400332,31.230165],[121.40032,31.230201],[121.400307,31.230234],[121.400296,31.230264],[121.400286,31.230295],[121.400274,31.230328],[121.400263,31.230359],[121.400251,31.230391],[121.400239,31.230422],[121.400231,31.230452],[121.400223,31.230485],[121.400214,31.230519],[121.400206,31.23055],[121.400196,31.230582],[121.400186,31.230614],[121.400177,31.230643],[121.400169,31.230676],[121.400159,31.230709],[121.40015,31.230739],[121.40014,31.230771],[121.400129,31.230804],[121.400117,31.230839],[121.400104,31.230874],[121.400092,31.230907],[121.400077,31.23094],[121.400059,31.230971],[121.400035,31.231005],[121.400005,31.231038],[121.399976,31.231064],[121.399947,31.231091],[121.399923,31.231114],[121.399898,31.23113],[121.399864,31.231143],[121.399826,31.231157],[121.399791,31.231168],[121.399757,31.231174],[121.39972,31.231177],[121.399682,31.231175],[121.399649,31.23117],[121.399612,31.231161],[121.399574,31.231149],[121.399541,31.231136],[121.399508,31.231118],[121.399477,31.231097],[121.399454,31.231075],[121.399432,31.231051],[121.399415,31.231026],[121.399405,31.231007],[121.399396,31.230986],[121.399385,31.230959],[121.399375,31.23093],[121.399366,31.2309],[121.399357,31.230865],[121.399349,31.230826],[121.399344,31.23079],[121.399343,31.230753],[121.399345,31.230717],[121.39935,31.230684],[121.399356,31.230654],[121.399364,31.230631],[121.399373,31.230605],[121.399382,31.230575],[121.399389,31.230543],[121.399395,31.230511],[121.399401,31.230479],[121.399407,31.230444],[121.399413,31.230407],[121.399422,31.230373],[121.399431,31.230343],[121.399442,31.230316],[121.399455,31.230285],[121.399468,31.230251],[121.39948,31.230218],[121.399492,31.230184],[121.399505,31.230151],[121.399516,31.230118],[121.399526,31.230082],[121.399537,31.230048],[121.399551,31.230012],[121.39957,31.229977],[121.399589,31.229946],[121.399609,31.229914],[121.399631,31.229883],[121.399654,31.229857],[121.399677,31.229836],[121.399705,31.229815],[121.399734,31.229797],[121.399763,31.229782],[121.399797,31.229769],[121.399834,31.229758],[121.399868,31.229749],[121.399906,31.229743],[121.399945,31.229739],[121.399979,31.229738],[121.400016,31.229741],[121.400054,31.229747],[121.400089,31.229756],[121.400124,31.22977],[121.400159,31.229787],[121.400188,31.229805],[121.400215,31.229828],[121.400242,31.229853],[121.400264,31.229879],[121.400283,31.229907],[121.4003,31.229938],[121.400312,31.229966],[121.400321,31.229998],[121.400326,31.23003],[121.400327,31.230059],[121.400325,31.230092],[121.400321,31.230126],[121.400314,31.23016],[121.400305,31.230195],[121.400296,31.230226],[121.400286,31.230259],[121.400276,31.230292],[121.400267,31.230323],[121.400253,31.230355],[121.400236,31.230385],[121.400223,31.230411],[121.400218,31.230441],[121.400216,31.230477],[121.400211,31.230515],[121.400204,31.230552],[121.400194,31.230589],[121.400185,31.230622],[121.400175,31.230656],[121.400165,31.230689],[121.400153,31.230722],[121.400142,31.230755],[121.400131,31.230785],[121.400121,31.230813],[121.40011,31.230845],[121.400098,31.230879],[121.400086,31.230908],[121.40007,31.23094],[121.400052,31.230971],[121.400034,31.230999],[121.400012,31.231028],[121.399989,31.231054],[121.399966,31.231077],[121.399941,31.231098],[121.399918,31.231114],[121.399889,31.23113],[121.399859,31.231144],[121.399828,31.231155],[121.399794,31.231164],[121.399757,31.23117],[121.399719,31.231171],[121.399685,31.231169],[121.399649,31.231163],[121.399611,31.231154],[121.399578,31.231142],[121.399548,31.231128],[121.399517,31.23111],[121.399488,31.231089],[121.399464,31.231069],[121.399441,31.231045],[121.399421,31.231018],[121.399404,31.230991],[121.399388,31.23096],[121.399372,31.230926],[121.399359,31.230893],[121.39935,31.230859],[121.399344,31.230822],[121.399341,31.230784],[121.399342,31.230748],[121.399346,31.230713],[121.399349,31.230681],[121.399354,31.230648],[121.39936,31.230614],[121.399366,31.230582],[121.399375,31.230547],[121.399385,31.230511],[121.399393,31.230477],[121.3994,31.230444],[121.399409,31.23041],[121.399419,31.230376],[121.399429,31.230345],[121.399439,31.230315],[121.399449,31.230286],[121.39946,31.230255],[121.399474,31.230221],[121.399488,31.230186],[121.3995,31.23015],[121.399508,31.230114],[121.399512,31.230083],[121.399524,31.23005],[121.399542,31.230011],[121.399557,31.229976],[121.399573,31.229944],[121.399594,31.229912],[121.399618,31.229882],[121.399643,31.229856],[121.399674,31.229835],[121.399704,31.229818],[121.399729,31.2298],[121.39976,31.22978],[121.399794,31.229765],[121.39983,31.229753],[121.399866,31.229744],[121.399903,31.229738],[121.399942,31.229734],[121.399979,31.229734],[121.400018,31.229738],[121.400058,31.229746],[121.400092,31.229756],[121.400126,31.229769],[121.40016,31.229786],[121.400193,31.229806],[121.40022,31.229827],[121.400247,31.229851],[121.400272,31.229877],[121.400291,31.229902],[121.400308,31.229932],[121.400324,31.229962],[121.400334,31.229991],[121.40034,31.230025],[121.400341,31.230059],[121.400339,31.230093],[121.400333,31.230128],[121.400325,31.230161],[121.400315,31.230193],[121.400304,31.230224],[121.400293,31.230257],[121.400282,31.230291],[121.400271,31.230322],[121.400259,31.230354],[121.400246,31.230386],[121.400234,31.230415],[121.400223,31.230443],[121.400212,31.230477],[121.400202,31.230512],[121.400193,31.230546],[121.400185,31.230582],[121.400177,31.230618],[121.400168,31.230654],[121.400158,31.230693],[121.400147,31.230727],[121.400135,31.230761],[121.40012,31.230804],[121.400104,31.23085],[121.40009,31.230888],[121.400078,31.230919],[121.400064,31.230951],[121.400048,31.230982],[121.400031,31.231009],[121.400009,31.231035],[121.399983,31.231061],[121.399956,31.231085],[121.399927,31.231106],[121.399892,31.231125],[121.399858,31.231143],[121.399824,31.231157],[121.399791,31.231167],[121.39976,31.231172],[121.399724,31.231173],[121.399688,31.231172],[121.399654,31.231168],[121.399618,31.23116],[121.399584,31.23115],[121.399556,31.23114],[121.399528,31.231128],[121.3995,31.231112],[121.399478,31.231096],[121.399456,31.231075],[121.399437,31.23105],[121.399419,31.231024],[121.399401,31.230994],[121.399384,31.230961],[121.39937,31.230928],[121.399358,31.230893],[121.399347,31.230857],[121.399339,31.230821],[121.399336,31.230784],[121.399337,31.23075],[121.399341,31.230713],[121.399347,31.230677],[121.399353,31.230645],[121.39936,31.230611],[121.399368,31.230577],[121.399376,31.230545],[121.399386,31.230511],[121.399396,31.230475],[121.399405,31.230444],[121.399414,31.230409],[121.399425,31.230371],[121.399436,31.230334],[121.399449,31.230296],[121.399463,31.230258],[121.399477,31.230219],[121.399493,31.23018],[121.399506,31.230146],[121.399516,31.230112],[121.399525,31.230078],[121.399535,31.230047],[121.399547,31.230013],[121.399561,31.229981],[121.399574,31.229952],[121.39959,31.22992],[121.399609,31.229889],[121.399629,31.229865],[121.399655,31.22984],[121.399682,31.229819],[121.399709,31.229798],[121.39974,31.229778],[121.399771,31.229763],[121.399803,31.229751],[121.399835,31.229743],[121.399873,31.229736],[121.399911,31.229732],[121.399947,31.229732],[121.399986,31.229735],[121.400027,31.229742],[121.400066,31.229751],[121.400102,31.229761],[121.400138,31.229775],[121.400172,31.229793],[121.4002,31.229812],[121.400225,31.229835],[121.40025,31.229861],[121.400269,31.229887],[121.400287,31.229916],[121.400305,31.229948],[121.400318,31.22998],[121.400326,31.230016],[121.400329,31.230052],[121.400326,31.230088],[121.400319,31.230123],[121.400311,31.230153],[121.400301,31.230186],[121.400291,31.230221],[121.400283,31.230256],[121.400275,31.230289],[121.400268,31.230323],[121.400259,31.230361],[121.400247,31.230396],[121.400233,31.230434],[121.40022,31.230473],[121.40021,31.230507],[121.400201,31.230543],[121.400192,31.23058],[121.400183,31.230613],[121.400175,31.230649],[121.400167,31.230683],[121.400158,31.230713],[121.400147,31.230742],[121.400135,31.230773],[121.400122,31.230808],[121.400109,31.230843],[121.400095,31.230878],[121.400082,31.230914],[121.400068,31.230947],[121.400052,31.230982],[121.400032,31.231016],[121.40001,31.231044],[121.399982,31.231072],[121.39995,31.231097],[121.399918,31.231116],[121.399885,31.231132],[121.399848,31.231146],[121.39981,31.231159],[121.399771,31.231166],[121.39973,31.231169],[121.399692,31.231169],[121.399656,31.231166],[121.399617,31.231159],[121.39958,31.23115],[121.39955,31.231141],[121.399519,31.231126],[121.399487,31.231106],[121.399459,31.231084],[121.399433,31.231058],[121.39941,31.23103],[121.399392,31.231003],[121.399375,31.230971],[121.399363,31.230937],[121.399355,31.230903],[121.399349,31.230866],[121.399345,31.230827],[121.399344,31.230791],[121.399345,31.230757],[121.399349,31.23072],[121.399354,31.230683],[121.399359,31.230651],[121.399365,31.230616],[121.399372,31.23058],[121.399379,31.230546],[121.399388,31.230509],[121.399397,31.230472],[121.399404,31.230438],[121.399412,31.230404],[121.39942,31.230371],[121.39943,31.230335],[121.399442,31.230297],[121.399455,31.230259],[121.399468,31.230222],[121.399481,31.230187],[121.399491,31.230152],[121.399501,31.230118],[121.399511,31.230082],[121.399521,31.230045],[121.399528,31.230011],[121.399533,31.229978],[121.39954,31.229944],[121.399555,31.229912],[121.399573,31.229883],[121.399582,31.229869]]}}]}