{"type":"FeatureCollection","features":[{"type":"Feature","properties":{"id":"2026-05-22_running_40","type":"running","date":"2026-05-22"},"geometry":{"type":"LineString","coordinates":[[121.399524,31.230035],[121.39954,31.230008],[121.399553,31.229984],[121.399564,31.229961],[121.399576,31.229938],[121.399595,31.229911],[121.399616,31.229886],[121.399637,31.229866],[121.39966,31.229847],[121.399683,31.229829],[121.39971,31.229809],[121.399737,31.229791],[121.399763,31.229779],[121.399794,31.229768],[121.399825,31.229759],[121.399856,31.229754],[121.399891,31.22975],[121.399929,31.229748],[121.399967,31.229749],[121.400003,31.229754],[121.400037,31.229761],[121.400069,31.229771],[121.400104,31.229784],[121.400136,31.229797],[121.400163,31.22981],[121.40019,31.229823],[121.400213,31.229838],[121.400235,31.229855],[121.400256,31.229875],[121.400274,31.229897],[121.400291,31.229924],[121.400304,31.22995],[121.400313,31.229978],[121.400319,31.230005],[121.400321,31.230031],[121.400322,31.230059],[121.400323,31.23009],[121.400322,31.230121],[121.400319,31.230148],[121.400314,31.230175],[121.400308,31.230204],[121.400301,31.230232],[121.400293,31.230257],[121.400284,31.230282],[121.400274,31.230308],[121.400264,31.230336],[121.400254,31.230369],[121.400246,31.230403],[121.40024,31.230429],[121.400232,31.230455],[121.400225,31.23048],[121.400219,31.230503],[121.400211,31.230531],[121.400203,31.230558],[121.400196,31.230581],[121.400188,31.230606],[121.400178,31.230635],[121.400169,31.230662],[121.400161,31.230686],[121.400151,31.230715],[121.400141,31.230744],[121.40013,31.230772],[121.400121,31.230799],[121.400112,31.230823],[121.400102,31.230851],[121.400092,31.230878],[121.400083,31.230899],[121.400073,31.230922],[121.400061,31.230949],[121.400048,31.230975],[121.400036,31.230996],[121.400022,31.23102],[121.400007,31.231043],[121.399993,31.231062],[121.399978,31.231085],[121.399962,31.231106],[121.399945,31.231123],[121.399915,31.231142],[121.39988,31.231158],[121.399848,31.231168],[121.399815,31.231177],[121.39978,31.231183],[121.399749,31.231185],[121.39972,31.231186],[121.399691,31.231183],[121.399657,31.231178],[121.399622,31.23117],[121.39959,31.231162],[121.399559,31.231152],[121.399525,31.231138],[121.399493,31.231123],[121.399465,31.231106],[121.39944,31.231087],[121.399415,31.231065],[121.399395,31.231043],[121.399378,31.231021],[121.399359,31.230994],[121.399341,31.230968],[121.399327,31.230945],[121.399316,31.23092],[121.399307,31.230892],[121.399301,31.230865],[121.399299,31.230838],[121.399299,31.23081],[121.399302,31.230782],[121.399306,31.230754],[121.399313,31.230727],[121.399323,31.230697],[121.399333,31.230668],[121.399342,31.230641],[121.39935,31.230616],[121.399358,31.230592],[121.399365,31.230569],[121.399372,31.230547],[121.399382,31.230521],[121.399391,31.230496],[121.3994,31.230472],[121.399408,31.230446],[121.399416,31.230418],[121.399425,31.230391],[121.399433,31.230367],[121.399441,31.230339],[121.399448,31.230312],[121.399455,31.230288],[121.399463,31.230259],[121.399471,31.230231],[121.399479,31.230207],[121.399488,31.230179],[121.399497,31.230152],[121.399507,31.230126],[121.39952,31.230093],[121.399533,31.230061],[121.399543,31.230033],[121.399552,31.230007],[121.399561,31.229982],[121.399573,31.229956],[121.399587,31.229928],[121.399607,31.229899],[121.399633,31.229869],[121.399657,31.229845],[121.39968,31.229826],[121.399707,31.229807],[121.399734,31.22979],[121.39976,31.229776],[121.399787,31.229766],[121.399818,31.229758],[121.399853,31.229751],[121.399888,31.229746],[121.399922,31.229743],[121.399958,31.229742],[121.399995,31.229744],[121.400028,31.229749],[121.40006,31.229757],[121.400095,31.229769],[121.400129,31.229782],[121.400158,31.229796],[121.400188,31.229812],[121.400216,31.229831],[121.400242,31.229852],[121.400264,31.229873],[121.400283,31.229897],[121.400301,31.229924],[121.400314,31.22995],[121.400323,31.229977],[121.400331,31.230007],[121.400334,31.230035],[121.400335,31.230062],[121.400333,31.230092],[121.400331,31.230121],[121.400328,31.230148],[121.400324,31.230176],[121.400316,31.230203],[121.400307,31.230231],[121.400298,31.230259],[121.400289,31.230287],[121.400279,31.230317],[121.40027,31.230352],[121.400259,31.23039],[121.40025,31.23042],[121.400242,31.230443],[121.400232,31.230471],[121.400222,31.230498],[121.400214,31.230522],[121.400206,31.230546],[121.400196,31.230575],[121.400186,31.230603],[121.400179,31.230626],[121.400171,31.23065],[121.400162,31.230676],[121.400151,31.230708],[121.400141,31.230738],[121.400132,31.230764],[121.400121,31.230795],[121.400111,31.230824],[121.400103,31.230848],[121.400094,31.230872],[121.400082,31.2309],[121.400071,31.230927],[121.40006,31.23095],[121.400048,31.230974],[121.400032,31.231002],[121.400017,31.231027],[121.400004,31.231045],[121.39999,31.231064],[121.399971,31.231087],[121.399954,31.231108],[121.399939,31.231122],[121.399919,31.231136],[121.399885,31.231151],[121.399846,31.231162],[121.399813,31.231168],[121.39978,31.231172],[121.399746,31.231176],[121.399712,31.231177],[121.399681,31.231175],[121.399649,31.23117],[121.399617,31.231162],[121.399588,31.231153],[121.399562,31.231144],[121.399531,31.231132],[121.399501,31.231118],[121.399475,31.231102],[121.399451,31.231083],[121.399426,31.23106],[121.399406,31.231036],[121.39939,31.231012],[121.399373,31.230985],[121.399357,31.230958],[121.39934,31.230932],[121.399322,31.2309],[121.399309,31.230868],[121.399303,31.230837],[121.399301,31.230802],[121.399302,31.230767],[121.399307,31.230733],[121.399314,31.230698],[121.399322,31.230664],[121.399332,31.230628],[121.399343,31.23059],[121.399353,31.230558],[121.399362,31.230527],[121.399374,31.230495],[121.399384,31.230467],[121.399393,31.230441],[121.399402,31.230415],[121.399411,31.230389],[121.39942,31.230363],[121.399431,31.230335],[121.399442,31.230309],[121.399451,31.230284],[121.399459,31.230255],[121.399467,31.230225],[121.399474,31.230199],[121.399484,31.230169],[121.399496,31.230138],[121.399508,31.230108],[121.399521,31.230076],[121.399534,31.230044],[121.399547,31.230016],[121.399558,31.229992],[121.399569,31.22997],[121.399582,31.229946],[121.399597,31.229919],[121.399616,31.22989],[121.399637,31.229859],[121.399658,31.229835],[121.39968,31.229814],[121.399704,31.229796],[121.399731,31.229779],[121.399759,31.229764],[121.399786,31.229754],[121.399818,31.229746],[121.399851,31.229739],[121.399886,31.229734],[121.399919,31.229733],[121.399952,31.229733],[121.399988,31.229736],[121.400025,31.229741],[121.400057,31.229749],[121.40009,31.229759],[121.400124,31.229772],[121.400155,31.229787],[121.400181,31.229804],[121.400206,31.229823],[121.400231,31.229846],[121.400255,31.229869],[121.400275,31.229892],[121.400295,31.229919],[121.400311,31.229946],[121.400323,31.229973],[121.400332,31.230006],[121.400339,31.230038],[121.400341,31.230068],[121.400342,31.230098],[121.400341,31.230126],[121.400338,31.230152],[121.400334,31.23018],[121.400327,31.230208],[121.400317,31.230235],[121.400308,31.23026],[121.400299,31.230286],[121.40029,31.230315],[121.400282,31.230343],[121.400274,31.230372],[121.400267,31.2304],[121.400259,31.230427],[121.40025,31.230457],[121.400241,31.230486],[121.400232,31.230514],[121.400221,31.230543],[121.400209,31.230573],[121.400198,31.230601],[121.400188,31.230626],[121.400177,31.230654],[121.400166,31.230683],[121.400156,31.230709],[121.400145,31.230735],[121.400136,31.230761],[121.400129,31.23079],[121.400122,31.230818],[121.400114,31.230845],[121.400105,31.230872],[121.400092,31.230902],[121.400079,31.23093],[121.400067,31.230956],[121.400054,31.230982],[121.400039,31.231007],[121.400022,31.231034],[121.400003,31.231057],[121.399984,31.231077],[121.399962,31.231097],[121.399939,31.231115],[121.399915,31.231131],[121.399886,31.231148],[121.399852,31.231163],[121.399815,31.231173],[121.399779,31.231179],[121.399745,31.231182],[121.399713,31.231182],[121.399678,31.231179],[121.399646,31.231174],[121.399617,31.231166],[121.399586,31.231156],[121.399558,31.231146],[121.399531,31.231135],[121.399502,31.23112],[121.39947,31.231102],[121.399441,31.231082],[121.399415,31.23106],[121.39939,31.231035],[121.399367,31.231009],[121.399349,31.230984],[121.399334,31.230958],[121.399321,31.230932],[121.399309,31.230901],[121.399301,31.230869],[121.399298,31.230842],[121.399298,31.230816],[121.399301,31.230789],[121.399304,31.23076],[121.39931,31.230734],[121.399318,31.230706],[121.399328,31.230679],[121.399337,31.230654],[121.399344,31.230628],[121.399351,31.230599],[121.39936,31.230564],[121.399369,31.230526],[121.399377,31.230498],[121.399384,31.230478],[121.399391,31.230456],[121.399399,31.230431],[121.399409,31.230401],[121.399419,31.230371],[121.399427,31.230346],[121.399438,31.230315],[121.399448,31.230285],[121.399457,31.23026],[121.399466,31.230233],[121.399477,31.230202],[121.399488,31.230172],[121.399498,31.230145],[121.39951,31.230114],[121.399521,31.230085],[121.399531,31.23006],[121.399544,31.230031],[121.399557,31.230003],[121.39957,31.229979],[121.399585,31.229951],[121.399601,31.229926],[121.399615,31.229905],[121.399632,31.22988],[121.399649,31.229857],[121.399665,31.229839],[121.399683,31.229818],[121.3997,31.229803],[121.399717,31.229789],[121.39974,31.229771],[121.399777,31.229759],[121.399821,31.229748],[121.399856,31.229742],[121.399893,31.229738],[121.399929,31.229736],[121.399962,31.229737],[121.399996,31.22974],[121.400031,31.229745],[121.400065,31.229752],[121.400095,31.229762],[121.400128,31.229775],[121.400155,31.22979],[121.400178,31.229805],[121.400201,31.229824],[121.400226,31.229845],[121.400249,31.229868],[121.400269,31.22989],[121.400289,31.229915],[121.400304,31.22994],[121.400317,31.229967],[121.400329,31.229997],[121.400336,31.230025],[121.400341,31.230052],[121.400343,31.230078],[121.400343,31.230105],[121.40034,31.230136],[121.400335,31.230165],[121.400328,31.230193],[121.400318,31.230223],[121.400308,31.230253],[121.400298,31.23028],[121.400287,31.230307],[121.400276,31.230335],[121.400267,31.230363],[121.40026,31.23039],[121.400255,31.230415],[121.40025,31.230441],[121.400243,31.230467],[121.400234,31.230496],[121.400224,31.230522],[121.400214,31.230547],[121.400203,31.230576],[121.400192,31.230604],[121.400182,31.230628],[121.400171,31.230655],[121.40016,31.230686],[121.400149,31.230719],[121.400139,31.230748],[121.400129,31.230781],[121.400119,31.230814],[121.400111,31.230845],[121.400102,31.230876],[121.400093,31.230906],[121.400083,31.230933],[121.400071,31.23096],[121.400056,31.230987],[121.400041,31.231014],[121.400025,31.231037],[121.400004,31.23106],[121.399982,31.231082],[121.39996,31.2311],[121.399933,31.231118],[121.399905,31.231134],[121.399877,31.231146],[121.399843,31.231158],[121.399809,31.231167],[121.399776,31.231172],[121.399742,31.231176],[121.399708,31.231176],[121.399674,31.231173],[121.39964,31.231167],[121.399603,31.231159],[121.399567,31.231149],[121.399534,31.231138],[121.399501,31.231122],[121.399471,31.231103],[121.399445,31.231081],[121.39942,31.231056],[121.399395,31.23103],[121.399373,31.231005],[121.399351,31.230977],[121.399333,31.230949],[121.399321,31.230923],[121.39931,31.23089],[121.399302,31.230857],[121.399298,31.230826],[121.399298,31.230797],[121.399302,31.230766],[121.399309,31.230737],[121.399317,31.23071],[121.399326,31.23068],[121.399335,31.230649],[121.399343,31.230618],[121.399353,31.230585],[121.399363,31.230553],[121.399373,31.230528],[121.39938,31.230505],[121.39939,31.230477],[121.3994,31.230448],[121.399409,31.230422],[121.399419,31.23039],[121.39943,31.23036],[121.399438,31.230335],[121.399446,31.23031],[121.399454,31.230285],[121.399462,31.230259],[121.399471,31.230232],[121.399482,31.230201],[121.399493,31.230171],[121.399503,31.230143],[121.399516,31.230111],[121.399528,31.230081],[121.399538,31.230055],[121.399549,31.23003],[121.399561,31.230005],[121.399575,31.229977],[121.39959,31.229949],[121.399606,31.22992],[121.399622,31.229894],[121.399637,31.229873],[121.399652,31.229852],[121.39967,31.229828],[121.399688,31.229806],[121.399708,31.22979],[121.399741,31.229772],[121.399782,31.229757],[121.399818,31.22975],[121.399857,31.229743],[121.399894,31.22974],[121.399929,31.229739],[121.399966,31.229739],[121.400005,31.229742],[121.400043,31.229748],[121.400076,31.229756],[121.400108,31.229767],[121.40014,31.229782],[121.400171,31.229799],[121.4002,31.22982],[121.400225,31.229841],[121.400247,31.229863],[121.400269,31.229888],[121.400289,31.229914],[121.400304,31.22994],[121.400318,31.229967],[121.40033,31.229997],[121.400339,31.230028],[121.400343,31.230056],[121.400345,31.230084],[121.400344,31.230114],[121.40034,31.230145],[121.400333,31.230173],[121.400325,31.230202],[121.400317,31.230229],[121.400307,31.230257],[121.400295,31.230287],[121.400283,31.230315],[121.40027,31.230345],[121.400259,31.230375],[121.400251,31.230404],[121.400244,31.230435],[121.400238,31.230464],[121.400232,31.230491],[121.400224,31.230519],[121.400216,31.230548],[121.400206,31.230577],[121.400196,31.230605],[121.400184,31.230636],[121.400173,31.230666],[121.400162,31.230696],[121.400151,31.230727],[121.400141,31.230756],[121.400133,31.230782],[121.400123,31.230814],[121.400112,31.230844],[121.400102,31.230872],[121.400091,31.2309],[121.400079,31.230926],[121.400067,31.230949],[121.400053,31.230976],[121.400038,31.231004],[121.400022,31.231028],[121.400002,31.231055],[121.399979,31.231078],[121.399956,31.231098],[121.399929,31.231117],[121.3999,31.231134],[121.399872,31.231147],[121.399842,31.231157],[121.399815,31.231164],[121.399783,31.231169],[121.399746,31.231173],[121.399711,31.231172],[121.399672,31.231168],[121.399634,31.231161],[121.399599,31.231153],[121.399563,31.231142],[121.39953,31.231131],[121.399503,31.231119],[121.399477,31.231103],[121.399452,31.231083],[121.39943,31.231062],[121.399411,31.231042],[121.399392,31.231019],[121.399375,31.230995],[121.399359,31.230971],[121.399342,31.230942],[121.399326,31.230911],[121.399316,31.23088],[121.399309,31.230844],[121.399306,31.230807],[121.399308,31.230771],[121.399313,31.230737],[121.399322,31.230702],[121.399332,31.230668],[121.399342,31.230638],[121.399352,31.230606],[121.39936,31.230577],[121.39937,31.230551],[121.39938,31.230525],[121.39939,31.230496],[121.3994,31.230467],[121.399409,31.23044],[121.399418,31.230414],[121.399427,31.230387],[121.399436,31.230358],[121.399445,31.230327],[121.399453,31.230298],[121.39946,31.230274],[121.399467,31.230249],[121.399476,31.230222],[121.399486,31.230194],[121.399496,31.23017],[121.399508,31.230143],[121.39952,31.230113],[121.399531,31.230085],[121.399541,31.230057],[121.39955,31.230028],[121.39956,31.229996],[121.399571,31.229966],[121.399585,31.22994],[121.399602,31.229913],[121.399619,31.229887],[121.39964,31.229861],[121.399661,31.229837],[121.399683,31.229816],[121.399707,31.229796],[121.399735,31.229778],[121.399767,31.229763],[121.399807,31.22975],[121.399848,31.229742],[121.399883,31.229738],[121.399916,31.229736],[121.399951,31.229735],[121.399984,31.229737],[121.400013,31.229741],[121.400046,31.229748],[121.400079,31.229758],[121.40011,31.229769],[121.400143,31.229783],[121.400174,31.2298],[121.400202,31.22982],[121.400228,31.229842],[121.400253,31.229866],[121.400275,31.22989],[121.400293,31.229914],[121.40031,31.229942],[121.400323,31.229971],[121.400332,31.229998],[121.400338,31.230028],[121.40034,31.23006],[121.400339,31.230091],[121.400334,31.23012],[121.400327,31.230153],[121.400319,31.230186],[121.400312,31.230219],[121.400303,31.230253],[121.400292,31.230288],[121.400282,31.230321],[121.400273,31.230351],[121.400263,31.230383],[121.400254,31.230417],[121.400246,31.230451],[121.400239,31.230489],[121.400232,31.230524],[121.400225,31.230553],[121.400216,31.230583],[121.400206,31.230616],[121.400195,31.230648],[121.400185,31.230678],[121.400173,31.230712],[121.400161,31.230747],[121.40015,31.230779],[121.400137,31.230813],[121.400123,31.230844],[121.400112,31.230872],[121.400099,31.230901],[121.400087,31.230929],[121.400075,31.230953],[121.400061,31.23098],[121.400046,31.231005],[121.400029,31.231028],[121.400008,31.231054],[121.399984,31.231078],[121.399958,31.231098],[121.399929,31.231118],[121.399895,31.231137],[121.399858,31.231152],[121.399823,31.231163],[121.399784,31.231172],[121.399745,31.231177],[121.39971,31.231177],[121.399673,31.231174],[121.399638,31.231168],[121.399604,31.231161],[121.399569,31.231153],[121.399536,31.231145],[121.399505,31.231134],[121.399475,31.231119],[121.399445,31.2311],[121.399419,31.231078],[121.399394,31.231055],[121.399374,31.231033],[121.399358,31.231009],[121.399344,31.230981],[121.399333,31.230954],[121.399324,31.230924],[121.399316,31.230889],[121.39931,31.230855],[121.399308,31.230826],[121.399308,31.230795],[121.399309,31.230762],[121.399315,31.230729],[121.399324,31.230693],[121.399336,31.230654],[121.39935,31.23061],[121.399361,31.230576],[121.399369,31.230553],[121.399379,31.230524],[121.399389,31.230495],[121.399397,31.23047],[121.399407,31.230439],[121.399416,31.230408],[121.399424,31.230381],[121.399433,31.230353],[121.399444,31.23032],[121.399454,31.230288],[121.399463,31.230261],[121.399472,31.230233],[121.399481,31.230205],[121.399491,31.230178],[121.399501,31.230148],[121.399514,31.230115],[121.399527,31.230083],[121.399537,31.230056],[121.399548,31.230029],[121.399562,31.229997],[121.399576,31.229968],[121.399589,31.229942],[121.399606,31.229913],[121.399622,31.229887],[121.399637,31.229866],[121.399654,31.229845],[121.399674,31.229821],[121.399693,31.229799],[121.399712,31.229782],[121.399739,31.229762],[121.399782,31.229746],[121.399832,31.229738],[121.399872,31.229733],[121.399906,31.229732],[121.399939,31.229732],[121.399975,31.229734],[121.400009,31.229738],[121.400042,31.229745],[121.40008,31.229755],[121.400115,31.229768],[121.400145,31.229785],[121.400172,31.229803],[121.400198,31.229824],[121.400221,31.229847],[121.40024,31.229867],[121.400259,31.22989],[121.400278,31.229917],[121.400294,31.229943],[121.400307,31.229968],[121.400318,31.229997],[121.400325,31.230029],[121.400329,31.230058],[121.40033,31.230091],[121.400327,31.230123],[121.400322,31.230153],[121.400317,31.230184],[121.40031,31.230216],[121.400303,31.230244],[121.400295,31.23027],[121.400286,31.230299],[121.400278,31.230329],[121.400271,31.230358],[121.400264,31.230387],[121.400256,31.230417],[121.40025,31.230447],[121.400242,31.23048],[121.400233,31.230513],[121.400223,31.230545],[121.400213,31.23058],[121.400204,31.230613],[121.400196,31.230645],[121.400187,31.230679],[121.400178,31.230713],[121.400171,31.230742],[121.400163,31.230771],[121.400155,31.230799],[121.400146,31.230825],[121.400135,31.230853],[121.400122,31.230883],[121.400111,31.230909],[121.400098,31.230935],[121.400084,31.230962],[121.400071,31.230987],[121.400054,31.231013],[121.400036,31.231037],[121.400017,31.231058],[121.399995,31.231079],[121.399969,31.231099],[121.39994,31.231118],[121.399912,31.231134],[121.399881,31.231148],[121.39985,31.231159],[121.399818,31.231168],[121.399786,31.231174],[121.39975,31.231178],[121.399711,31.231178],[121.399677,31.231176],[121.399641,31.23117],[121.3996,31.231161],[121.39956,31.231151],[121.399523,31.231139],[121.399485,31.231123],[121.39945,31.231103],[121.399423,31.231082],[121.399399,31.23106],[121.399377,31.231037],[121.399359,31.231015],[121.399345,31.230993],[121.399334,31.230969],[121.399324,31.230939],[121.399316,31.230909],[121.39931,31.230881],[121.399306,31.230852],[121.399303,31.230823],[121.399303,31.230796],[121.399305,31.230762],[121.39931,31.230728],[121.399316,31.230696],[121.399324,31.230665],[121.399334,31.230632],[121.399344,31.230599],[121.399354,31.230569],[121.399363,31.230541],[121.399372,31.23051],[121.399382,31.230478],[121.39939,31.230448],[121.3994,31.230417],[121.399409,31.230385],[121.39942,31.230356],[121.39943,31.230328],[121.399441,31.230299],[121.399454,31.230264],[121.399468,31.230227],[121.39948,31.230194],[121.399491,31.230165],[121.399503,31.230133],[121.399514,31.230101],[121.399525,31.230067],[121.399535,31.230036],[121.399545,31.230007],[121.399557,31.229976],[121.39957,31.229947],[121.399587,31.229917],[121.399607,31.229887],[121.399628,31.229861],[121.39965,31.229837],[121.399675,31.229817],[121.3997,31.229798],[121.399727,31.229781],[121.399761,31.229765],[121.3998,31.229751],[121.399834,31.229742],[121.39987,31.229737],[121.399905,31.229735],[121.399939,31.229737],[121.399972,31.229739],[121.400006,31.229743],[121.40004,31.229749],[121.400076,31.22976],[121.400111,31.229776],[121.400142,31.229793],[121.400172,31.229812],[121.4002,31.229834],[121.400225,31.229857],[121.400248,31.229882],[121.400271,31.22991],[121.400291,31.229939],[121.400305,31.229965],[121.400316,31.229994],[121.400323,31.230023],[121.400328,31.230055],[121.400329,31.230089],[121.400327,31.230121],[121.400322,31.230153],[121.400316,31.230185],[121.400309,31.230214],[121.4003,31.230246],[121.40029,31.230278],[121.400282,31.230308],[121.400273,31.230337],[121.400265,31.230368],[121.400255,31.2304],[121.400244,31.230435],[121.40023,31.230471],[121.400218,31.230505],[121.400208,31.230538],[121.4002,31.230571],[121.400192,31.230603],[121.400184,31.230637],[121.400175,31.230671],[121.400167,31.230702],[121.40016,31.230732],[121.400153,31.230759],[121.400145,31.230785],[121.400137,31.230815],[121.400126,31.230846],[121.400115,31.230875],[121.400102,31.230905],[121.40009,31.230935],[121.400078,31.230961],[121.400063,31.230989],[121.400045,31.231016],[121.400018,31.231047],[121.399986,31.231079],[121.399959,31.231101],[121.399933,31.231119],[121.399902,31.231136],[121.399869,31.231151],[121.399833,31.231164],[121.399795,31.231175],[121.399761,31.231182],[121.399724,31.231186],[121.399686,31.231186],[121.399652,31.231185],[121.399616,31.231179],[121.39958,31.23117],[121.399546,31.231157],[121.399512,31.231142],[121.399479,31.231123],[121.399447,31.2311],[121.399421,31.231078],[121.399398,31.231052],[121.399377,31.231025],[121.399362,31.230999],[121.39935,31.230971],[121.399338,31.23094],[121.399328,31.230907],[121.39932,31.230874],[121.399315,31.230839],[121.399311,31.230805],[121.399312,31.230767],[121.399316,31.230732],[121.399323,31.230701],[121.399332,31.230669],[121.399343,31.230638],[121.399355,31.230604],[121.399366,31.230574],[121.399375,31.230547],[121.399385,31.230517],[121.399394,31.230488],[121.399402,31.230458],[121.399411,31.230426],[121.399418,31.230396],[121.399427,31.230365],[121.399437,31.230335],[121.399446,31.230304],[121.399456,31.230271],[121.399465,31.230241],[121.399475,31.230212],[121.399485,31.230185],[121.399496,31.230155],[121.399508,31.230122],[121.399518,31.230091],[121.399525,31.23006],[121.399532,31.230028],[121.399542,31.229996],[121.399554,31.229967],[121.399569,31.229937],[121.399587,31.229907],[121.399607,31.22988],[121.399632,31.229854],[121.399662,31.229831],[121.399692,31.22981],[121.399728,31.22979],[121.399759,31.229774],[121.399792,31.229759],[121.399829,31.229746],[121.399864,31.229737],[121.399898,31.229732],[121.399933,31.22973],[121.399968,31.229731],[121.400002,31.229734],[121.400039,31.22974],[121.400076,31.229751],[121.40011,31.229764],[121.400144,31.229782],[121.400176,31.229802],[121.400203,31.229822],[121.400228,31.229847],[121.400251,31.229874],[121.400271,31.229901],[121.400289,31.22993],[121.400303,31.229959],[121.400315,31.229989],[121.400323,31.230019],[121.400328,31.230051],[121.400331,31.230085],[121.400331,31.230115],[121.400328,31.230148],[121.400321,31.230182],[121.400312,31.230215],[121.400303,31.230247],[121.400293,31.23028],[121.400284,31.230312],[121.400274,31.230341],[121.400266,31.23037],[121.400258,31.230399],[121.40025,31.230431],[121.400243,31.23046],[121.400236,31.230486],[121.400225,31.230513],[121.400215,31.230543],[121.400206,31.230573],[121.400196,31.230605],[121.400186,31.230639],[121.400176,31.230671],[121.400165,31.230706],[121.400155,31.23074],[121.400145,31.230772],[121.400134,31.230807],[121.400122,31.230839],[121.40011,31.230872],[121.400098,31.230904],[121.400088,31.230934],[121.400077,31.230964],[121.400063,31.230993],[121.400048,31.231018],[121.400029,31.231044],[121.400009,31.231068],[121.399991,31.231086],[121.399968,31.231102],[121.399941,31.231121],[121.399909,31.231139],[121.399875,31.231155],[121.399842,31.231167],[121.399804,31.231178],[121.399766,31.231184],[121.399731,31.231187],[121.399694,31.231186],[121.399657,31.231182],[121.399621,31.231174],[121.399587,31.231163],[121.399552,31.231148],[121.399517,31.231131],[121.399486,31.231114],[121.399455,31.231092],[121.399425,31.231065],[121.399397,31.231037],[121.399372,31.231005],[121.399352,31.230973],[121.399338,31.230944],[121.399328,31.230912],[121.399319,31.230877],[121.399315,31.230846],[121.399313,31.230812],[121.399316,31.230772],[121.399325,31.230731],[121.399336,31.230696],[121.399347,31.230662],[121.399358,31.230623],[121.399369,31.230584],[121.399379,31.230553],[121.399385,31.230529],[121.399393,31.230503],[121.3994,31.230474],[121.399407,31.230449],[121.399415,31.230419],[121.399423,31.230387],[121.399431,31.23036],[121.399438,31.230333],[121.399447,31.230303],[121.399457,31.23027],[121.399467,31.230241],[121.399478,31.230206],[121.399487,31.230176],[121.399496,31.230149],[121.399506,31.230119],[121.399515,31.230091],[121.399527,31.230059],[121.39954,31.230028],[121.399553,31.229996],[121.399568,31.229965],[121.399582,31.22994],[121.399598,31.229912],[121.399617,31.229884],[121.399635,31.229862],[121.399652,31.229842],[121.399671,31.229819],[121.39969,31.229796],[121.399722,31.229777],[121.399774,31.229759],[121.399823,31.229746],[121.399865,31.229738],[121.399907,31.229733],[121.399947,31.22973],[121.399982,31.229731],[121.400016,31.229736],[121.400051,31.229745],[121.400085,31.229755],[121.400121,31.229768],[121.400155,31.229786],[121.400183,31.229805],[121.40021,31.229828],[121.400236,31.229854],[121.400258,31.229879],[121.400276,31.229906],[121.400292,31.229937],[121.400305,31.229969],[121.400314,31.229998],[121.40032,31.230029],[121.400325,31.230061],[121.400328,31.23009],[121.400328,31.23012],[121.400324,31.230152],[121.400316,31.230188],[121.400306,31.230232],[121.400295,31.230273],[121.400288,31.230298],[121.400281,31.23032],[121.400273,31.230347],[121.400264,31.230376],[121.400256,31.230402],[121.400248,31.230427],[121.400239,31.230456],[121.400228,31.230488],[121.400219,31.230515],[121.400209,31.230545],[121.400197,31.230576],[121.400188,31.230603],[121.400177,31.230634],[121.400166,31.230667],[121.400157,31.230695],[121.400148,31.230721],[121.400139,31.230748],[121.40013,31.230774],[121.400118,31.230806],[121.400106,31.230838],[121.400094,31.230867],[121.400081,31.230899],[121.400067,31.230931],[121.400054,31.230958],[121.400041,31.230982],[121.400029,31.231003],[121.400014,31.231028],[121.399998,31.231054],[121.399984,31.231075],[121.399958,31.2311],[121.399918,31.231127],[121.399879,31.231145],[121.399843,31.231158],[121.399807,31.231167],[121.399772,31.231172],[121.399736,31.231174],[121.399699,31.231172],[121.399664,31.231167],[121.39963,31.231159],[121.399597,31.231148],[121.399562,31.231135],[121.399527,31.231118],[121.399497,31.231102],[121.399468,31.231081],[121.399444,31.231057],[121.399425,31.231036],[121.399407,31.231013],[121.39939,31.230987],[121.399376,31.230961],[121.399362,31.230934],[121.399351,31.230903],[121.399341,31.230869],[121.399335,31.230838],[121.399335,31.230804],[121.399339,31.230768],[121.399347,31.230734],[121.399356,31.2307],[121.399365,31.230666],[121.399373,31.230629],[121.39938,31.230596],[121.399387,31.230565],[121.399393,31.230534],[121.399398,31.230507],[121.399405,31.230472],[121.399414,31.230432],[121.399422,31.230397],[121.399431,31.230364],[121.39944,31.230333],[121.39945,31.230302],[121.399461,31.230273],[121.399474,31.230239],[121.399488,31.230202],[121.399499,31.230169],[121.399508,31.230137],[121.399516,31.230104],[121.399526,31.23007],[121.399536,31.230038],[121.399549,31.230003],[121.399563,31.229971],[121.399578,31.229943],[121.399596,31.229916],[121.399617,31.229889],[121.399637,31.229865],[121.399661,31.229839],[121.399686,31.229816],[121.399717,31.229795],[121.399756,31.229776],[121.399795,31.229761],[121.399833,31.22975],[121.399873,31.229743],[121.399913,31.22974],[121.399951,31.229739],[121.399991,31.229741],[121.40003,31.229747],[121.400064,31.229754],[121.400095,31.229765],[121.400126,31.229779],[121.400157,31.229797],[121.400185,31.229815],[121.400215,31.229837],[121.400242,31.229862],[121.400264,31.229887],[121.400283,31.229915],[121.400299,31.229945],[121.40031,31.229976],[121.400318,31.230006],[121.400325,31.230035],[121.400329,31.230066],[121.40033,31.230097],[121.400329,31.230124],[121.400326,31.230152],[121.40032,31.230184],[121.400311,31.230218],[121.400303,31.23025],[121.400295,31.230284],[121.400288,31.230318],[121.40028,31.230352],[121.400272,31.230388],[121.400264,31.230424],[121.400254,31.230456],[121.400243,31.23049],[121.400231,31.230525],[121.400219,31.230558],[121.400206,31.230594],[121.400195,31.230631],[121.400184,31.230664],[121.400174,31.230697],[121.400164,31.230731],[121.400155,31.230761],[121.400146,31.230793],[121.400136,31.230826],[121.400127,31.230855],[121.400115,31.230884],[121.400102,31.230915],[121.400088,31.230946],[121.400074,31.230971],[121.400056,31.230998],[121.400037,31.231025],[121.400018,31.231051],[121.399996,31.231078],[121.399974,31.231103],[121.399949,31.231124],[121.399917,31.231144],[121.39988,31.231159],[121.399845,31.231169],[121.399807,31.231177],[121.399768,31.231182],[121.399733,31.231184],[121.399698,31.231183],[121.399664,31.231179],[121.399628,31.231171],[121.399592,31.231159],[121.399561,31.231146],[121.399529,31.231129],[121.3995,31.23111],[121.399474,31.231091],[121.399447,31.231068],[121.399423,31.231043],[121.399401,31.231014],[121.399379,31.230982],[121.399363,31.230953],[121.39935,31.230921],[121.39934,31.230888],[121.399335,31.230856],[121.399332,31.230825],[121.399334,31.23079],[121.399339,31.230755],[121.399346,31.230724],[121.399354,31.230691],[121.399363,31.230648],[121.399369,31.23061],[121.399377,31.230578],[121.399385,31.230547],[121.399391,31.23052],[121.399397,31.230494],[121.399405,31.230461],[121.399413,31.230428],[121.399419,31.2304],[121.399427,31.230368],[121.399437,31.230334],[121.399445,31.230306],[121.399453,31.230279],[121.399463,31.230249],[121.399473,31.230218],[121.399482,31.230191],[121.399493,31.23016],[121.399504,31.230128],[121.399514,31.2301],[121.399525,31.230068],[121.399538,31.230036],[121.399549,31.230009],[121.399562,31.229979],[121.399577,31.229948],[121.399592,31.229924],[121.399607,31.229902],[121.399622,31.229881],[121.39964,31.229857],[121.399658,31.229832],[121.399673,31.229813],[121.399702,31.229794],[121.399748,31.229775],[121.399793,31.229761],[121.399832,31.229754],[121.39987,31.22975],[121.399907,31.229749],[121.399943,31.229751],[121.399982,31.229755],[121.400021,31.22976],[121.400054,31.229766],[121.400085,31.229775],[121.400116,31.229787],[121.40015,31.229804],[121.400183,31.229823],[121.400215,31.229846],[121.400243,31.229871],[121.400265,31.229896],[121.400282,31.229922],[121.400297,31.229952],[121.40031,31.229983],[121.400319,31.230013],[121.400326,31.230046],[121.400329,31.23008],[121.400329,31.230111],[121.400325,31.230143],[121.400318,31.230178],[121.40031,31.230213],[121.4003,31.230246],[121.400288,31.230281],[121.400278,31.230316],[121.400269,31.230349],[121.40026,31.230383],[121.400252,31.230416],[121.400243,31.230451],[121.400234,31.230487],[121.400224,31.23052],[121.400214,31.230555],[121.400204,31.23059],[121.400195,31.230622],[121.400185,31.230655],[121.400175,31.230688],[121.400166,31.230719],[121.400156,31.230753],[121.400144,31.23079],[121.400133,31.230826],[121.400123,31.23086],[121.400111,31.230895],[121.400099,31.230926],[121.400088,31.230954],[121.400075,31.230982],[121.40006,31.23101],[121.400039,31.23104],[121.400013,31.231067],[121.399986,31.231092],[121.399954,31.231115],[121.399919,31.231135],[121.399882,31.231152],[121.399843,31.231166],[121.399806,31.231176],[121.399768,31.231184],[121.399729,31.231188],[121.399693,31.231187],[121.399656,31.231183],[121.399618,31.231174],[121.399585,31.231164],[121.399552,31.231149],[121.399522,31.231132],[121.399497,31.231115],[121.399472,31.231094],[121.399446,31.231071],[121.399423,31.231047],[121.399402,31.231018],[121.399381,31.230987],[121.399364,31.230958],[121.39935,31.230926],[121.399339,31.230891],[121.399332,31.230858],[121.399328,31.230822],[121.399328,31.230784],[121.399331,31.230747],[121.399338,31.23071],[121.399345,31.23067],[121.399353,31.230628],[121.39936,31.230591],[121.399369,31.230559],[121.399378,31.23053],[121.399386,31.230503],[121.399393,31.230478],[121.399401,31.230451],[121.399409,31.23042],[121.399415,31.230391],[121.399423,31.230359],[121.39943,31.230327],[121.399438,31.230298],[121.399447,31.230268],[121.399457,31.230239],[121.399466,31.230211],[121.399477,31.230178],[121.39949,31.230142],[121.3995,31.230106],[121.399512,31.230066],[121.399525,31.230029],[121.399538,31.23],[121.399553,31.229973],[121.399569,31.229948],[121.399588,31.229921],[121.399607,31.229896],[121.399629,31.229869],[121.399656,31.229842],[121.399682,31.22982],[121.399716,31.229799],[121.399759,31.229781],[121.3998,31.229768],[121.399843,31.229759],[121.399888,31.229753],[121.399938,31.229751],[121.399994,31.229755],[121.400042,31.229763],[121.400082,31.229773],[121.40012,31.229788],[121.400157,31.229807],[121.400191,31.229829],[121.400224,31.229854],[121.400253,31.22988],[121.400277,31.229909],[121.400298,31.229942],[121.400314,31.229976],[121.400325,31.230012],[121.400331,31.23005],[121.400333,31.230088],[121.40033,31.23013],[121.400324,31.230174],[121.400313,31.230218],[121.400301,31.230258],[121.400291,31.230293],[121.400282,31.230324],[121.400274,31.230356],[121.400265,31.230388],[121.400258,31.230421],[121.400251,31.230456],[121.400244,31.230488],[121.400234,31.230523],[121.400224,31.230559],[121.400214,31.230591],[121.400204,31.230625],[121.400193,31.230659],[121.400184,31.230691],[121.400172,31.230726],[121.400159,31.230762],[121.400147,31.230797],[121.400133,31.230834],[121.40012,31.230873],[121.400106,31.230909],[121.400092,31.230943],[121.400076,31.230974],[121.400056,31.231006],[121.400034,31.231036],[121.400009,31.231064],[121.399981,31.231089],[121.399953,31.231109],[121.399919,31.23113],[121.399884,31.231147],[121.399846,31.231161],[121.399806,31.231171],[121.399768,31.231179],[121.39973,31.231183],[121.39969,31.231182],[121.399649,31.231178],[121.399611,31.23117],[121.399576,31.23116],[121.399541,31.231145],[121.399506,31.231125],[121.399473,31.231104],[121.399446,31.231083],[121.399418,31.231057],[121.39939,31.231026],[121.399369,31.230995],[121.399352,31.230965],[121.399338,31.230931],[121.399327,31.230896],[121.39932,31.230859],[121.399314,31.230818],[121.399312,31.230781],[121.399314,31.230742],[121.39932,31.230705],[121.399327,31.230672],[121.399339,31.23063],[121.399352,31.230587],[121.399365,31.230553],[121.399376,31.230522],[121.399385,31.230492],[121.399394,31.23046],[121.399403,31.230425],[121.399413,31.23039],[121.399423,31.230356],[121.399435,31.230324],[121.399447,31.23029],[121.399458,31.230253],[121.399469,31.230219],[121.39948,31.230183],[121.399491,31.230146],[121.399501,31.230113],[121.399511,31.230078],[121.399521,31.230042],[121.399529,31.230013],[121.399537,31.229985],[121.399545,31.229958],[121.399549,31.229945]]}}]}