{"type":"FeatureCollection","features":[{"type":"Feature","properties":{"id":"2026-04-09_walking_28","type":"walking","date":"2026-04-09"},"geometry":{"type":"LineString","coordinates":[[121.40273,31.230269],[121.402721,31.23028],[121.402718,31.230284],[121.402712,31.230292],[121.402705,31.230298],[121.402695,31.230304],[121.402685,31.230311],[121.402675,31.230319],[121.402668,31.230328],[121.402661,31.230339],[121.402654,31.230349],[121.402647,31.230359],[121.402641,31.230369],[121.402634,31.230381],[121.402627,31.230393],[121.402621,31.230405],[121.402616,31.230419],[121.40261,31.230432],[121.402604,31.230446],[121.402597,31.230458],[121.40259,31.230469],[121.402584,31.230478],[121.402579,31.230487],[121.402575,31.230496],[121.402571,31.230506],[121.402568,31.230517],[121.402564,31.230528],[121.402558,31.23054],[121.402552,31.230552],[121.402546,31.230565],[121.402542,31.230577],[121.402539,31.230589],[121.402537,31.230601],[121.402534,31.230612],[121.402531,31.230623],[121.402527,31.230634],[121.402521,31.230643],[121.402514,31.230651],[121.402508,31.230659],[121.402502,31.230668],[121.402495,31.230677],[121.402487,31.230686],[121.402479,31.230695],[121.402471,31.230704],[121.402465,31.230714],[121.40246,31.230727],[121.402457,31.230738],[121.402454,31.230749],[121.402451,31.230758],[121.402447,31.230766],[121.402443,31.230773],[121.402437,31.230783],[121.40243,31.230792],[121.402424,31.230799],[121.402418,31.230807],[121.402412,31.230816],[121.402404,31.230826],[121.402396,31.230837],[121.402388,31.230848],[121.40238,31.230858],[121.402371,31.230869],[121.402363,31.23088],[121.402356,31.230891],[121.402351,31.230899],[121.402345,31.230908],[121.40234,31.230916],[121.402334,31.230927],[121.402329,31.230935],[121.402325,31.230942],[121.402322,31.230949],[121.402317,31.230959],[121.402311,31.23097],[121.402306,31.230979],[121.402302,31.230989],[121.402298,31.230998],[121.402292,31.231009],[121.402286,31.231019],[121.402281,31.231029],[121.402276,31.231037],[121.40227,31.231045],[121.402266,31.231052],[121.402262,31.231058],[121.402259,31.231067],[121.402254,31.231075],[121.40225,31.23108],[121.402247,31.23109],[121.402248,31.231106],[121.402249,31.231125],[121.402247,31.231137],[121.402243,31.231146],[121.402236,31.231152],[121.402235,31.231159],[121.402236,31.231165],[121.402241,31.231172],[121.402238,31.231175],[121.402231,31.231173],[121.402227,31.231167],[121.402226,31.231159],[121.402229,31.231152],[121.402232,31.231144],[121.402235,31.231136],[121.402238,31.231129],[121.402243,31.23112],[121.402248,31.23111],[121.402256,31.231097],[121.402262,31.231087],[121.402269,31.231077],[121.402273,31.231069],[121.402279,31.23106],[121.402283,31.231052],[121.402287,31.231045],[121.402291,31.231038],[121.402296,31.231028],[121.402301,31.231016],[121.402306,31.231005],[121.402309,31.230995],[121.402313,31.230986],[121.402316,31.230978],[121.40232,31.230969],[121.402324,31.23096],[121.402327,31.230952],[121.402332,31.230941],[121.402336,31.230931],[121.402339,31.230923],[121.402343,31.230914],[121.402347,31.230905],[121.402352,31.230895],[121.402356,31.230885],[121.40236,31.230877],[121.402364,31.230868],[121.402368,31.230859],[121.402373,31.230849],[121.402379,31.230838],[121.402385,31.230827],[121.402391,31.230817],[121.402397,31.230808],[121.402405,31.230798],[121.402414,31.230788],[121.402423,31.230777],[121.402434,31.230768],[121.402445,31.230759],[121.402458,31.230753],[121.402469,31.230749],[121.402483,31.230748],[121.402497,31.230749],[121.402513,31.230751],[121.40253,31.230755],[121.402551,31.230761],[121.402572,31.230762],[121.402594,31.230762],[121.402613,31.230761],[121.40264,31.230766],[121.402665,31.230772],[121.402686,31.230779],[121.4027,31.230784],[121.402713,31.23079],[121.402727,31.230796],[121.40274,31.230801],[121.402753,31.230807],[121.402766,31.230813],[121.402779,31.230819],[121.402793,31.230825],[121.402807,31.230831],[121.402822,31.230837],[121.402836,31.230843],[121.40285,31.230849],[121.402864,31.230854],[121.402878,31.230859],[121.402891,31.230863],[121.402904,31.230868],[121.402917,31.230872],[121.40293,31.230876],[121.402943,31.230881],[121.402955,31.230885],[121.402967,31.230889],[121.402978,31.230893],[121.402987,31.230896],[121.402997,31.2309],[121.403007,31.230904],[121.403019,31.230909],[121.403031,31.230914],[121.403042,31.230919],[121.403053,31.230924],[121.403062,31.230927],[121.403072,31.230931],[121.403082,31.230935],[121.403094,31.23094],[121.403106,31.230945],[121.403118,31.230949],[121.403129,31.230954],[121.403139,31.230957],[121.40315,31.230961],[121.403161,31.230965],[121.403175,31.23097],[121.40319,31.230975],[121.403205,31.23098],[121.403221,31.230984],[121.403237,31.230987],[121.403251,31.230989],[121.403266,31.230991],[121.40328,31.230992],[121.403296,31.230992],[121.403311,31.230991],[121.403327,31.230989],[121.403342,31.230984],[121.403358,31.230978],[121.403373,31.23097],[121.403388,31.230961],[121.403401,31.230952],[121.403413,31.230941],[121.403423,31.23093],[121.403433,31.230918],[121.403442,31.230907],[121.40345,31.230895],[121.403459,31.230881],[121.403466,31.230868],[121.403472,31.230854],[121.403478,31.230839],[121.403483,31.230825],[121.403488,31.230812],[121.403492,31.230801],[121.403496,31.230791],[121.403502,31.230781],[121.403508,31.230771],[121.403516,31.23076],[121.403524,31.230749],[121.403532,31.230737],[121.403538,31.230727],[121.403543,31.230716],[121.403547,31.230705],[121.403549,31.230692],[121.403551,31.23068],[121.403553,31.230667],[121.403555,31.230653],[121.403557,31.23064],[121.403558,31.230626],[121.40356,31.230612],[121.403561,31.230598],[121.403564,31.230585],[121.403568,31.230571],[121.403572,31.230558],[121.403576,31.230545],[121.403581,31.230534],[121.403585,31.230522],[121.40359,31.230513],[121.403594,31.230503],[121.403598,31.230493],[121.403602,31.230482],[121.403606,31.23047],[121.403611,31.230458],[121.403617,31.230445],[121.403623,31.230433],[121.40363,31.230419],[121.403637,31.230406],[121.403643,31.230391],[121.403647,31.230379],[121.40365,31.230366],[121.403653,31.230356],[121.403655,31.230344],[121.403657,31.230333],[121.40366,31.23032],[121.403664,31.230308],[121.403668,31.230295],[121.403672,31.230284],[121.403675,31.23027],[121.403677,31.230257],[121.403679,31.230243],[121.403681,31.23023],[121.403683,31.230219],[121.403686,31.230206],[121.40369,31.230194],[121.403696,31.23018],[121.403701,31.230169],[121.403707,31.230157],[121.403712,31.230147],[121.403718,31.230135],[121.403723,31.230123],[121.403727,31.230112],[121.403731,31.230102],[121.403736,31.23009],[121.403741,31.230078],[121.403745,31.230066],[121.403748,31.230056],[121.403752,31.230047],[121.403755,31.230039],[121.403759,31.230028],[121.403763,31.230018],[121.403768,31.230006],[121.403772,31.229996],[121.403776,31.229987],[121.40378,31.229978],[121.403784,31.229966],[121.403789,31.229955],[121.403795,31.229943],[121.403799,31.229933],[121.403804,31.229923],[121.403808,31.229914],[121.403813,31.229903],[121.403818,31.229891],[121.403823,31.229878],[121.403828,31.229867],[121.403832,31.229856],[121.403837,31.229846],[121.403842,31.229833],[121.403846,31.229822],[121.403851,31.229811],[121.403854,31.2298],[121.403859,31.229787],[121.403864,31.229775],[121.403869,31.229762],[121.403873,31.22975],[121.403878,31.229738],[121.403881,31.229727],[121.403885,31.229718],[121.403888,31.229709],[121.403892,31.229698],[121.403897,31.229688],[121.403902,31.229676],[121.403907,31.229664],[121.403914,31.229651],[121.40392,31.229638],[121.403927,31.229625],[121.403933,31.229612],[121.403937,31.2296],[121.403939,31.229588],[121.403939,31.229578],[121.403937,31.229569],[121.403932,31.229562],[121.403924,31.229556],[121.403916,31.229552],[121.403907,31.229548],[121.403897,31.229545],[121.403886,31.229541],[121.403874,31.229537],[121.403862,31.229533],[121.40385,31.229529],[121.403839,31.229525],[121.403827,31.229522],[121.403815,31.22952],[121.403802,31.229517],[121.403789,31.229513],[121.403775,31.22951],[121.403762,31.229506],[121.40375,31.229503],[121.403738,31.2295],[121.403725,31.229497],[121.403713,31.229494],[121.403701,31.229492],[121.40369,31.229489],[121.403677,31.229487],[121.403664,31.229486],[121.403652,31.229486],[121.403639,31.229485],[121.403626,31.229485],[121.403611,31.229484],[121.403594,31.229482],[121.403579,31.22948],[121.403565,31.229478],[121.403553,31.229475],[121.403539,31.229471],[121.403525,31.229467],[121.403512,31.229464],[121.4035,31.229463],[121.403488,31.229464],[121.403476,31.229467],[121.403464,31.229471],[121.403451,31.229478],[121.403439,31.229485],[121.403427,31.229492],[121.403414,31.229497],[121.4034,31.229502],[121.403385,31.229507],[121.40337,31.229511],[121.403355,31.229514],[121.40334,31.229518],[121.403326,31.229521],[121.403311,31.229524],[121.403296,31.229529],[121.403283,31.229535],[121.403272,31.229543],[121.403263,31.229549],[121.403255,31.229556],[121.403247,31.229562],[121.403239,31.22957],[121.40323,31.229579],[121.403221,31.229589],[121.403214,31.229596],[121.403207,31.229604],[121.4032,31.229612],[121.403192,31.229621],[121.403184,31.22963],[121.403175,31.229639],[121.403167,31.229647],[121.40316,31.229655],[121.403153,31.229662],[121.403145,31.229671],[121.403136,31.22968],[121.403129,31.229688],[121.403123,31.229696],[121.403117,31.229704],[121.403109,31.229713],[121.403101,31.229723],[121.403093,31.229733],[121.403084,31.229743],[121.403077,31.229752],[121.40307,31.229761],[121.403062,31.22977],[121.403053,31.22978],[121.403044,31.229791],[121.403034,31.229803],[121.403023,31.229814],[121.403015,31.229823],[121.403007,31.229832],[121.402999,31.22984],[121.40299,31.22985],[121.402981,31.22986],[121.402972,31.229871],[121.402963,31.229882],[121.402954,31.229893],[121.402944,31.229905],[121.402935,31.229917],[121.402926,31.229929],[121.402918,31.229939],[121.40291,31.229949],[121.402904,31.229959],[121.402895,31.22997],[121.402887,31.229981],[121.402879,31.229992],[121.40287,31.230003],[121.402863,31.230012],[121.402856,31.230021],[121.402849,31.230029],[121.40284,31.230039],[121.402831,31.230049],[121.402822,31.23006],[121.402814,31.230068],[121.402807,31.230077],[121.4028,31.230084],[121.402791,31.230094],[121.402782,31.230102],[121.402774,31.23011],[121.402767,31.230118],[121.402761,31.230125],[121.402755,31.230133],[121.402749,31.230142],[121.402742,31.230154],[121.402736,31.230166],[121.40273,31.230179],[121.402724,31.23019],[121.402718,31.230202],[121.402712,31.230213],[121.402705,31.230224],[121.402698,31.230235],[121.402692,31.230244],[121.402686,31.230255],[121.402682,31.230266],[121.402678,31.230278],[121.402675,31.23029],[121.402672,31.230303],[121.402668,31.230315],[121.402663,31.230327],[121.402656,31.230338],[121.402648,31.23035],[121.402641,31.230358],[121.402633,31.230367],[121.402627,31.230374],[121.40262,31.230379],[121.402614,31.230384],[121.402609,31.230387],[121.402605,31.230391],[121.402602,31.230394],[121.4026,31.230397],[121.402599,31.230399],[121.402598,31.230401],[121.402597,31.230403],[121.402596,31.230405],[121.402595,31.230408],[121.402593,31.230412],[121.402591,31.230418],[121.402588,31.230425],[121.402585,31.230432],[121.402581,31.230441],[121.402578,31.230449],[121.402574,31.230458],[121.40257,31.230467],[121.402567,31.230475],[121.402563,31.230484],[121.402558,31.230492],[121.402554,31.230501],[121.402549,31.230511],[121.402545,31.23052],[121.402542,31.230528],[121.402539,31.230536],[121.402536,31.230546],[121.402534,31.230554],[121.40253,31.230564],[121.402525,31.230573],[121.402517,31.230584],[121.402508,31.230594],[121.402499,31.230604],[121.402491,31.230614],[121.402482,31.230624],[121.402474,31.230633],[121.402466,31.23064],[121.402459,31.230646],[121.402452,31.23065],[121.402444,31.230654],[121.402436,31.230658],[121.402426,31.230662],[121.402416,31.230666],[121.402403,31.230668],[121.402388,31.23067],[121.402372,31.230671],[121.402356,31.230671],[121.40234,31.230669],[121.402325,31.230667],[121.402311,31.230664],[121.402295,31.23066],[121.402279,31.230656],[121.402261,31.230652],[121.402242,31.230646],[121.402224,31.230641],[121.402208,31.230636],[121.402195,31.230629],[121.402183,31.23062],[121.402174,31.230609],[121.402168,31.230597],[121.402165,31.230585],[121.402166,31.230573],[121.402169,31.230561],[121.402173,31.230548],[121.402178,31.230534],[121.402184,31.230519],[121.402191,31.230505],[121.402198,31.23049],[121.402204,31.230476],[121.402209,31.230463],[121.402213,31.230451],[121.402218,31.230438],[121.402223,31.230424],[121.402224,31.230411],[121.402225,31.230398],[121.402226,31.230388],[121.40223,31.230378],[121.402235,31.230367],[121.402239,31.230357],[121.402243,31.230347],[121.402247,31.230337],[121.40225,31.230331],[121.402252,31.230328]]}}]}