{"type":"FeatureCollection","features":[{"type":"Feature","properties":{"id":"2026-04-12_running_29","type":"running","date":"2026-04-12"},"geometry":{"type":"LineString","coordinates":[[121.399541,31.230013],[121.399561,31.229976],[121.399568,31.229964],[121.399581,31.229942],[121.3996,31.229917],[121.39962,31.229893],[121.399645,31.229867],[121.39967,31.229846],[121.399699,31.229825],[121.399735,31.229806],[121.39977,31.229791],[121.399809,31.229777],[121.399844,31.229769],[121.39988,31.229762],[121.399915,31.229757],[121.399951,31.229755],[121.399985,31.229756],[121.400018,31.229761],[121.400049,31.229768],[121.40008,31.229777],[121.400111,31.229788],[121.400142,31.229802],[121.400171,31.229817],[121.400198,31.229834],[121.400222,31.229854],[121.400245,31.229876],[121.400269,31.229905],[121.40029,31.229935],[121.400307,31.229967],[121.40032,31.229997],[121.400328,31.230026],[121.400335,31.230056],[121.400339,31.230085],[121.40034,31.230114],[121.400339,31.230143],[121.400336,31.230172],[121.40033,31.230203],[121.400322,31.230235],[121.400313,31.230267],[121.400304,31.2303],[121.400295,31.23033],[121.400285,31.230358],[121.400277,31.230382],[121.400266,31.230415],[121.400255,31.230447],[121.400243,31.230481],[121.400234,31.230508],[121.400225,31.230536],[121.400216,31.230564],[121.400207,31.230592],[121.400198,31.230621],[121.400189,31.230649],[121.40018,31.230677],[121.400171,31.230704],[121.400163,31.230729],[121.400155,31.230751],[121.400146,31.230775],[121.400136,31.2308],[121.400125,31.230829],[121.400113,31.230858],[121.4001,31.230889],[121.400087,31.23092],[121.400073,31.230949],[121.400061,31.230973],[121.400048,31.230996],[121.400034,31.231019],[121.400019,31.231041],[121.400001,31.231063],[121.399978,31.231086],[121.399949,31.231107],[121.399917,31.231126],[121.399886,31.231142],[121.399856,31.231154],[121.399827,31.231163],[121.3998,31.23117],[121.399768,31.231174],[121.399733,31.231176],[121.399694,31.231178],[121.399656,31.231177],[121.399619,31.231174],[121.399588,31.231168],[121.399558,31.23116],[121.399528,31.231149],[121.3995,31.231137],[121.399473,31.231122],[121.399448,31.231106],[121.399425,31.231087],[121.399405,31.231066],[121.399387,31.231044],[121.399371,31.231021],[121.399356,31.230995],[121.399343,31.230968],[121.399333,31.230941],[121.399326,31.230914],[121.399322,31.230888],[121.399319,31.23086],[121.399319,31.230831],[121.399321,31.2308],[121.399325,31.230768],[121.399331,31.230736],[121.399339,31.230704],[121.399349,31.230673],[121.399358,31.230643],[121.399367,31.230616],[121.399377,31.230587],[121.399385,31.230559],[121.399393,31.230533],[121.399401,31.230507],[121.399408,31.230481],[121.399415,31.230453],[121.399422,31.230422],[121.399428,31.230389],[121.399436,31.23035],[121.399444,31.230315],[121.399453,31.230282],[121.399462,31.230254],[121.399472,31.230225],[121.399482,31.230196],[121.399492,31.230167],[121.399501,31.230138],[121.399511,31.230109],[121.399521,31.230081],[121.399532,31.230055],[121.399544,31.230028],[121.399556,31.230001],[121.399569,31.229974],[121.399583,31.229949],[121.399599,31.229925],[121.39962,31.2299],[121.399646,31.229872],[121.399675,31.229847],[121.399705,31.229825],[121.399734,31.229809],[121.399765,31.229794],[121.399798,31.229782],[121.399831,31.229773],[121.399864,31.229765],[121.399894,31.229761],[121.399926,31.229758],[121.399958,31.229758],[121.39999,31.229761],[121.400022,31.229766],[121.400053,31.229774],[121.400084,31.229785],[121.400113,31.229796],[121.400144,31.22981],[121.400172,31.229825],[121.400198,31.229841],[121.40022,31.229859],[121.400241,31.229878],[121.40026,31.229898],[121.400277,31.229921],[121.400293,31.229945],[121.400306,31.22997],[121.400317,31.229995],[121.400327,31.230023],[121.400334,31.230051],[121.400338,31.230079],[121.40034,31.230109],[121.40034,31.230139],[121.400337,31.230168],[121.400332,31.230198],[121.400326,31.230227],[121.400319,31.230255],[121.400311,31.230283],[121.400302,31.23031],[121.400293,31.230339],[121.400283,31.230366],[121.400274,31.230393],[121.400265,31.23042],[121.400256,31.230446],[121.400246,31.230474],[121.400238,31.230501],[121.400229,31.23053],[121.400221,31.230559],[121.400213,31.230588],[121.400205,31.230616],[121.400197,31.230644],[121.40019,31.230672],[121.400182,31.230699],[121.400173,31.230726],[121.400163,31.230753],[121.400153,31.230779],[121.400142,31.230805],[121.400132,31.230832],[121.400122,31.230859],[121.400111,31.230886],[121.4001,31.230912],[121.400088,31.230938],[121.400076,31.230962],[121.400062,31.230985],[121.400047,31.231008],[121.40003,31.231031],[121.400012,31.231053],[121.39999,31.231076],[121.399966,31.231098],[121.399938,31.231118],[121.399908,31.231136],[121.399876,31.231152],[121.399841,31.231165],[121.399803,31.231175],[121.399764,31.231181],[121.399723,31.231184],[121.399688,31.231183],[121.399652,31.231181],[121.399618,31.231177],[121.399585,31.23117],[121.399553,31.231162],[121.399524,31.23115],[121.399496,31.231137],[121.399469,31.231121],[121.399447,31.231105],[121.399425,31.231085],[121.399405,31.231063],[121.399386,31.231039],[121.39937,31.231012],[121.399356,31.230984],[121.399341,31.23095],[121.399331,31.230918],[121.399324,31.230885],[121.399322,31.230855],[121.399322,31.230825],[121.399325,31.230793],[121.399329,31.230761],[121.399335,31.230728],[121.399342,31.230696],[121.39935,31.230665],[121.399359,31.230636],[121.399369,31.230606],[121.399377,31.230578],[121.399387,31.230548],[121.399396,31.230518],[121.399405,31.230487],[121.399414,31.230457],[121.399422,31.230423],[121.39943,31.230387],[121.399439,31.230352],[121.399448,31.230322],[121.399458,31.230293],[121.399467,31.230265],[121.399476,31.230237],[121.399485,31.230209],[121.399494,31.230182],[121.399502,31.230155],[121.399511,31.230129],[121.39952,31.230101],[121.399529,31.230073],[121.399539,31.230046],[121.39955,31.230018],[121.399562,31.229991],[121.399575,31.229962],[121.399589,31.229937],[121.399607,31.229912],[121.399626,31.229889],[121.399651,31.229865],[121.399676,31.229844],[121.399704,31.229825],[121.399733,31.229809],[121.399763,31.229796],[121.399795,31.229785],[121.399827,31.229777],[121.39986,31.229771],[121.399893,31.229766],[121.399925,31.229765],[121.399958,31.229765],[121.399991,31.229767],[121.400024,31.229772],[121.400056,31.22978],[121.400087,31.229789],[121.400121,31.229801],[121.400152,31.229815],[121.400182,31.229831],[121.400207,31.22985],[121.400232,31.22987],[121.400255,31.229893],[121.400276,31.229916],[121.400294,31.229941],[121.400308,31.229966],[121.40032,31.229993],[121.400328,31.230021],[121.400335,31.23005],[121.400338,31.230079],[121.40034,31.230109],[121.400339,31.230138],[121.400336,31.230169],[121.400331,31.230198],[121.400325,31.230227],[121.400318,31.230255],[121.400309,31.230284],[121.4003,31.230312],[121.400291,31.230338],[121.400281,31.230365],[121.400272,31.230392],[121.400262,31.230419],[121.400252,31.230447],[121.400242,31.230476],[121.400233,31.230505],[121.400224,31.230534],[121.400216,31.230563],[121.400207,31.230591],[121.400199,31.230618],[121.400191,31.230647],[121.400183,31.230675],[121.400175,31.230705],[121.400168,31.230731],[121.40016,31.230757],[121.400151,31.230784],[121.40014,31.23081],[121.40013,31.230837],[121.400119,31.230864],[121.400109,31.230891],[121.400098,31.230919],[121.400086,31.230945],[121.400074,31.230971],[121.400061,31.230996],[121.400046,31.23102],[121.400029,31.231044],[121.400009,31.231067],[121.399987,31.23109],[121.399962,31.23111],[121.399936,31.231129],[121.399908,31.231144],[121.399879,31.231157],[121.399848,31.231168],[121.399815,31.231176],[121.399782,31.231181],[121.399749,31.231184],[121.399716,31.231184],[121.399684,31.231182],[121.39965,31.231178],[121.399618,31.231172],[121.399584,31.231164],[121.399551,31.231153],[121.399519,31.231141],[121.399489,31.231126],[121.399459,31.231108],[121.399431,31.231088],[121.399407,31.231066],[121.399386,31.231042],[121.399368,31.231017],[121.399352,31.230991],[121.399338,31.230964],[121.399327,31.230938],[121.399321,31.230913],[121.399317,31.230886],[121.399315,31.230858],[121.399314,31.230829],[121.399315,31.230801],[121.399319,31.230773],[121.399324,31.230745],[121.399332,31.230717],[121.399341,31.230688],[121.39935,31.230659],[121.39936,31.230632],[121.39937,31.230602],[121.39938,31.230574],[121.39939,31.230544],[121.3994,31.230516],[121.39941,31.230489],[121.399419,31.230462],[121.399428,31.230434],[121.399438,31.230405],[121.399447,31.230377],[121.399455,31.230348],[121.399463,31.230319],[121.39947,31.23029],[121.399478,31.23026],[121.399485,31.230231],[121.399493,31.230203],[121.3995,31.230174],[121.399507,31.230147],[121.399515,31.23012],[121.399523,31.230094],[121.399532,31.230067],[121.399542,31.23004],[121.399554,31.230011],[121.399566,31.229982],[121.399581,31.229955],[121.399596,31.22993],[121.399614,31.229905],[121.399634,31.229881],[121.399657,31.229859],[121.399683,31.229839],[121.39971,31.22982],[121.399739,31.229805],[121.399769,31.229793],[121.399801,31.229783],[121.399835,31.229775],[121.399868,31.229769],[121.399902,31.229766],[121.399935,31.229764],[121.399967,31.229765],[121.4,31.229768],[121.400034,31.229775],[121.400072,31.229785],[121.400108,31.229798],[121.400143,31.229813],[121.400173,31.229831],[121.4002,31.22985],[121.400227,31.229871],[121.40025,31.229894],[121.400273,31.229918],[121.400292,31.229942],[121.400309,31.229967],[121.400322,31.229993],[121.400331,31.23002],[121.400338,31.230048],[121.400341,31.230074],[121.400343,31.230101],[121.400343,31.230129],[121.400341,31.230158],[121.400338,31.230187],[121.400333,31.230216],[121.400326,31.230242],[121.400317,31.230269],[121.400308,31.230296],[121.400298,31.230322],[121.400289,31.230348],[121.40028,31.230375],[121.400271,31.230402],[121.400261,31.230429],[121.400251,31.230456],[121.400241,31.230484],[121.400232,31.230511],[121.400222,31.23054],[121.400213,31.230568],[121.400204,31.230598],[121.400195,31.230626],[121.400185,31.230656],[121.400174,31.23069],[121.400164,31.230723],[121.400155,31.230754],[121.400146,31.230783],[121.400136,31.230812],[121.400125,31.230842],[121.400114,31.230871],[121.400103,31.2309],[121.400091,31.230929],[121.400078,31.230959],[121.400063,31.230988],[121.400048,31.231016],[121.400031,31.231042],[121.400012,31.231066],[121.399989,31.23109],[121.399965,31.23111],[121.399939,31.231128],[121.39991,31.231142],[121.399882,31.231154],[121.399852,31.231165],[121.39982,31.231174],[121.399786,31.231181],[121.399752,31.231186],[121.39972,31.231187],[121.399686,31.231186],[121.399653,31.231182],[121.399621,31.231176],[121.399589,31.231166],[121.399558,31.231156],[121.399527,31.231143],[121.399498,31.231129],[121.399469,31.231112],[121.399442,31.231093],[121.399416,31.231071],[121.399395,31.231048],[121.399373,31.23102],[121.399355,31.230991],[121.39934,31.230962],[121.399331,31.230935],[121.399325,31.230908],[121.399322,31.23088],[121.399321,31.230852],[121.399321,31.230823],[121.399324,31.230794],[121.399327,31.230766],[121.399333,31.230738],[121.39934,31.23071],[121.399349,31.230682],[121.399358,31.230654],[121.399368,31.230626],[121.399378,31.230596],[121.399387,31.230566],[121.399397,31.230532],[121.399406,31.230498],[121.399416,31.230464],[121.399426,31.230434],[121.399436,31.230403],[121.399446,31.230373],[121.399456,31.230342],[121.399465,31.230311],[121.399474,31.230282],[121.399482,31.230251],[121.399491,31.23022],[121.399499,31.23019],[121.399507,31.23016],[121.399515,31.230129],[121.399525,31.230098],[121.399535,31.230067],[121.399546,31.230036],[121.399561,31.23],[121.399575,31.229968],[121.399591,31.229938],[121.399608,31.229913],[121.399629,31.229888],[121.399653,31.229863],[121.39968,31.229842],[121.399709,31.229823],[121.39974,31.229807],[121.39977,31.229795],[121.399804,31.229784],[121.399839,31.229775],[121.399873,31.229769],[121.399906,31.229765],[121.39994,31.229764],[121.399973,31.229764],[121.400008,31.229768],[121.400042,31.229774],[121.400076,31.229783],[121.400107,31.229794],[121.400137,31.229808],[121.400165,31.229824],[121.40019,31.229841],[121.400213,31.22986],[121.400235,31.22988],[121.400256,31.229901],[121.400276,31.229925],[121.400294,31.22995],[121.400311,31.229977],[121.400324,31.230005],[121.400335,31.230033],[121.400343,31.230062],[121.400348,31.230091],[121.400349,31.230121],[121.400347,31.230151],[121.400343,31.230182],[121.400336,31.230213],[121.400327,31.230244],[121.400316,31.230276],[121.400305,31.230306],[121.400295,31.230334],[121.400286,31.230359],[121.400277,31.230384],[121.400268,31.23041],[121.400261,31.230435],[121.400252,31.230463],[121.400243,31.230491],[121.400234,31.230519],[121.400225,31.230548],[121.400215,31.230578],[121.400206,31.230607],[121.400196,31.230639],[121.400186,31.23067],[121.400173,31.230709],[121.400162,31.230743],[121.400151,31.230777],[121.400141,31.230806],[121.400131,31.230834],[121.400121,31.230862],[121.400111,31.230889],[121.4001,31.230915],[121.400089,31.230941],[121.400079,31.230964],[121.400066,31.23099],[121.400052,31.231014],[121.400036,31.231041],[121.400018,31.231065],[121.399993,31.23109],[121.399964,31.231112],[121.399931,31.231133],[121.399897,31.231151],[121.399865,31.231164],[121.39983,31.231176],[121.399795,31.231185],[121.39976,31.231191],[121.399725,31.231193],[121.399691,31.231192],[121.399657,31.231188],[121.399624,31.231182],[121.399592,31.231174],[121.399559,31.231164],[121.39953,31.231152],[121.399499,31.231138],[121.399471,31.231123],[121.399443,31.231105],[121.399418,31.231086],[121.399395,31.231063],[121.399375,31.231036],[121.399356,31.231004],[121.399339,31.230969],[121.399328,31.230936],[121.399321,31.230906],[121.399317,31.230876],[121.399317,31.230845],[121.399319,31.230814],[121.399323,31.230783],[121.399329,31.230751],[121.399336,31.230721],[121.399343,31.230693],[121.399351,31.230666],[121.399359,31.23064],[121.399367,31.230613],[121.399375,31.230587],[121.399383,31.230558],[121.399391,31.230529],[121.399399,31.230499],[121.399407,31.230469],[121.399415,31.23044],[121.399424,31.23041],[121.399432,31.230382],[121.399441,31.230354],[121.39945,31.230326],[121.39946,31.230298],[121.399471,31.230269],[121.399481,31.230239],[121.399492,31.230209],[121.399502,31.230179],[121.399511,31.23015],[121.399521,31.23012],[121.39953,31.23009],[121.399539,31.230061],[121.399549,31.230034],[121.399562,31.230005],[121.399575,31.229977],[121.39959,31.229951],[121.399606,31.229927],[121.399623,31.229905],[121.399642,31.229883],[121.399664,31.229863],[121.399689,31.229844],[121.399717,31.229826],[121.399747,31.229811],[121.399778,31.229799],[121.399812,31.229787],[121.399846,31.229779],[121.399881,31.229773],[121.399915,31.22977],[121.399949,31.229769],[121.399982,31.22977],[121.400016,31.229774],[121.400049,31.22978],[121.400081,31.229789],[121.400111,31.2298],[121.40014,31.229814],[121.400168,31.229831],[121.400194,31.229848],[121.400218,31.229867],[121.400241,31.229887],[121.400261,31.22991],[121.40028,31.229934],[121.400296,31.22996],[121.400311,31.229988],[121.400323,31.230018],[121.400332,31.23005],[121.400338,31.230082],[121.40034,31.230115],[121.400339,31.23015],[121.400335,31.230185],[121.400328,31.23022],[121.400318,31.230257],[121.400305,31.230295],[121.400292,31.230332],[121.400281,31.230364],[121.400271,31.230395],[121.400262,31.230426],[121.400253,31.230456],[121.400245,31.230486],[121.400237,31.230516],[121.40023,31.230543],[121.400222,31.230569],[121.400215,31.230597],[121.400208,31.230623],[121.400199,31.230652],[121.400191,31.230681],[121.400181,31.230713],[121.40017,31.230746],[121.400159,31.230782],[121.400148,31.230817],[121.400138,31.230849],[121.400128,31.230877],[121.400119,31.230904],[121.400109,31.230931],[121.400097,31.230958],[121.400085,31.230983],[121.40007,31.231008],[121.400053,31.231031],[121.400033,31.231054],[121.400011,31.231076],[121.399987,31.231096],[121.399959,31.231116],[121.39993,31.231133],[121.399899,31.23115],[121.399868,31.231164],[121.399834,31.231177],[121.3998,31.231186],[121.399765,31.231192],[121.399728,31.231194],[121.399694,31.231193],[121.39966,31.231188],[121.399626,31.231182],[121.399591,31.231173],[121.399555,31.231163],[121.399521,31.231151],[121.399489,31.231137],[121.399462,31.231121],[121.399437,31.231104],[121.399414,31.231084],[121.399395,31.231063],[121.399377,31.231041],[121.399362,31.231017],[121.39935,31.230992],[121.39934,31.230965],[121.399333,31.230937],[121.399328,31.230907],[121.399327,31.230876],[121.399329,31.230842],[121.399333,31.230807],[121.39934,31.23077],[121.399347,31.23073],[121.399354,31.230696],[121.399361,31.230666],[121.399367,31.230642],[121.399374,31.230617],[121.399381,31.230588],[121.39939,31.230557],[121.399398,31.230526],[121.399406,31.230497],[121.399414,31.230468],[121.399422,31.230438],[121.39943,31.230408],[121.399438,31.230378],[121.399446,31.230351],[121.399454,31.230321],[121.399462,31.230294],[121.39947,31.230264],[121.399479,31.230236],[121.399489,31.230205],[121.399499,31.230175],[121.399508,31.230146],[121.399518,31.230117],[121.399529,31.230089],[121.399539,31.230062],[121.399549,31.230038],[121.399561,31.230012],[121.399573,31.229986],[121.399586,31.229961],[121.399599,31.22994],[121.399613,31.22992],[121.39963,31.229897],[121.39965,31.229875],[121.399677,31.229851],[121.39971,31.229829],[121.399747,31.22981],[121.399781,31.229795],[121.399814,31.229784],[121.399849,31.229774],[121.399884,31.229768],[121.399919,31.229764],[121.399953,31.229763],[121.399986,31.229765],[121.400019,31.22977],[121.400051,31.229778],[121.400082,31.229787],[121.400113,31.2298],[121.400143,31.229814],[121.400172,31.22983],[121.400199,31.229848],[121.400223,31.229867],[121.400245,31.229888],[121.400267,31.22991],[121.400286,31.229935],[121.400302,31.229962],[121.400316,31.229989],[121.400327,31.230017],[121.400334,31.230046],[121.400338,31.230075],[121.400339,31.230103],[121.400338,31.230131],[121.400334,31.23016],[121.400329,31.23019],[121.400321,31.230221],[121.400312,31.230249],[121.400303,31.230277],[121.400293,31.230306],[121.400284,31.230335],[121.400275,31.230365],[121.400266,31.230394],[121.400258,31.230424],[121.400251,31.230455],[121.400244,31.230486],[121.400236,31.230517],[121.400228,31.230547],[121.400219,31.230576],[121.400212,31.230605],[121.400206,31.230633],[121.4002,31.230662],[121.400193,31.230691],[121.400185,31.230722],[121.400175,31.230752],[121.400165,31.230785],[121.400155,31.230817],[121.400145,31.230849],[121.400136,31.230878],[121.400126,31.230907],[121.400115,31.230935],[121.400103,31.23096],[121.400087,31.230986],[121.400069,31.231011],[121.400048,31.231037],[121.400025,31.231061],[121.399999,31.231083],[121.39997,31.231104],[121.39994,31.231124],[121.399907,31.231141],[121.399873,31.231157],[121.399838,31.231169],[121.399798,31.231178],[121.399757,31.231182],[121.399714,31.231183],[121.399676,31.231181],[121.399637,31.231176],[121.399599,31.231169],[121.399562,31.231159],[121.399527,31.231147],[121.399495,31.231133],[121.399466,31.231116],[121.39944,31.231097],[121.399415,31.231075],[121.399393,31.231051],[121.399374,31.231025],[121.399357,31.230998],[121.399345,31.230971],[121.399336,31.230944],[121.399331,31.230915],[121.39933,31.230887],[121.399331,31.230855],[121.399334,31.230818],[121.399339,31.230783],[121.399345,31.230748],[121.399351,31.230719],[121.399358,31.23069],[121.399364,31.230665],[121.399372,31.230637],[121.39938,31.230609],[121.399388,31.230579],[121.399395,31.230552],[121.399403,31.230526],[121.399409,31.230502],[121.399416,31.230478],[121.399423,31.230451],[121.399431,31.230424],[121.399442,31.230388],[121.399452,31.230354],[121.399462,31.230319],[121.399472,31.230289],[121.399481,31.230259],[121.399491,31.23023],[121.399501,31.230202],[121.399511,31.230174],[121.399521,31.230146],[121.399532,31.230118],[121.399543,31.23009],[121.399555,31.230062],[121.399566,31.230035],[121.399578,31.230008],[121.399589,31.229982],[121.3996,31.229957],[121.399617,31.229929],[121.399638,31.2299],[121.399664,31.229872],[121.399692,31.229848],[121.39972,31.229827],[121.39975,31.22981],[121.399782,31.229795],[121.399816,31.229783],[121.399852,31.229773],[121.399888,31.229766],[121.399923,31.229762],[121.399957,31.22976],[121.39999,31.229762],[121.400021,31.229766],[121.400051,31.229772],[121.400081,31.229781],[121.400113,31.229793],[121.400144,31.229807],[121.400175,31.229823],[121.400203,31.229842],[121.400229,31.229862],[121.400251,31.229883],[121.400272,31.229906],[121.400291,31.22993],[121.400308,31.229955],[121.400322,31.229981],[121.400333,31.230008],[121.400341,31.230038],[121.400344,31.230067],[121.400343,31.230098],[121.400339,31.230129],[121.400332,31.230163],[121.400324,31.230195],[121.400316,31.230225],[121.400307,31.230254],[121.400298,31.230282],[121.400289,31.230311],[121.400278,31.230343],[121.400268,31.230376],[121.400257,31.230411],[121.400247,31.230444],[121.400238,31.230476],[121.400229,31.230509],[121.40022,31.230541],[121.400212,31.230571],[121.400204,31.230601],[121.400197,31.23063],[121.40019,31.230661],[121.400182,31.230693],[121.400173,31.230725],[121.400164,31.230755],[121.400155,31.230785],[121.400145,31.230815],[121.400136,31.230844],[121.400125,31.230877],[121.400114,31.23091],[121.4001,31.230944],[121.400086,31.230971],[121.400069,31.230998],[121.400049,31.231024],[121.400025,31.231051],[121.399997,31.231077],[121.399967,31.231101],[121.399936,31.231123],[121.399904,31.231142],[121.399871,31.231159],[121.399838,31.231172],[121.399803,31.231181],[121.399766,31.231186],[121.399728,31.231187],[121.39969,31.231186],[121.399647,31.231182],[121.399605,31.231176],[121.399563,31.231167],[121.399526,31.231156],[121.399492,31.231142],[121.399463,31.231126],[121.399436,31.231107],[121.399412,31.231084],[121.399391,31.231059],[121.399373,31.231034],[121.399359,31.231007],[121.399347,31.23098],[121.399339,31.230952],[121.399334,31.230923],[121.399332,31.230893],[121.399332,31.230862],[121.399334,31.230831],[121.399339,31.230799],[121.399345,31.230764],[121.399352,31.23073],[121.399359,31.230699],[121.399366,31.230671],[121.399373,31.23064],[121.399381,31.230609],[121.39939,31.230578],[121.399398,31.230549],[121.399405,31.230523],[121.399412,31.230495],[121.39942,31.230467],[121.399428,31.230438],[121.399435,31.230409],[121.399444,31.230378],[121.399453,31.230345],[121.399462,31.23031],[121.399473,31.230274],[121.399485,31.230237],[121.399497,31.2302],[121.399508,31.230166],[121.39952,31.230134],[121.399531,31.230104],[121.399543,31.230073],[121.399556,31.230043],[121.399569,31.230013],[121.399583,31.229985],[121.399597,31.229958],[121.399615,31.229931],[121.399634,31.229905],[121.399657,31.22988],[121.399681,31.229857],[121.399709,31.229835],[121.39974,31.229816],[121.399776,31.229799],[121.399813,31.229785],[121.399853,31.229775],[121.399889,31.229768],[121.399925,31.229764],[121.39996,31.229763],[121.399996,31.229766],[121.400033,31.229771],[121.400068,31.229779],[121.400104,31.22979],[121.400138,31.229804],[121.400172,31.229822],[121.400202,31.229841],[121.40023,31.229862],[121.400252,31.229883],[121.400274,31.229908],[121.400292,31.229934],[121.40031,31.229967],[121.400323,31.23],[121.400334,31.230035],[121.400338,31.230068],[121.400339,31.230102],[121.400336,31.230139],[121.400329,31.230176],[121.400322,31.230211],[121.400314,31.23024],[121.400307,31.230265],[121.400299,31.230293],[121.40029,31.23032],[121.400281,31.230351],[121.400272,31.23038],[121.400263,31.23041],[121.400254,31.230439],[121.400245,31.230468],[121.400235,31.230502],[121.400225,31.230537],[121.400214,31.230574],[121.400204,31.230606],[121.400195,31.230639],[121.400185,31.230671],[121.400175,31.230706],[121.400165,31.230739],[121.400155,31.23077],[121.400147,31.230796],[121.400139,31.230823],[121.40013,31.230849],[121.400121,31.230877],[121.400111,31.230903],[121.400101,31.230931],[121.400091,31.230956],[121.400081,31.230979],[121.400065,31.231008],[121.400044,31.231037],[121.400015,31.231071],[121.399987,31.231097],[121.399959,31.23112],[121.399933,31.231138],[121.399904,31.231154],[121.399874,31.231168],[121.399843,31.231179],[121.399809,31.231186],[121.399774,31.23119],[121.399738,31.231191],[121.399703,31.23119],[121.399669,31.231187],[121.399635,31.231182],[121.399599,31.231174],[121.399564,31.231164],[121.399531,31.23115],[121.399501,31.231135],[121.399473,31.231116],[121.399446,31.231095],[121.399423,31.231072],[121.399403,31.231046],[121.399385,31.231019],[121.399371,31.230991],[121.399361,31.230961],[121.399355,31.230931],[121.39935,31.230898],[121.399348,31.230866],[121.399349,31.230832],[121.399351,31.230799],[121.399356,31.230767],[121.399361,31.230735],[121.399368,31.230705],[121.399375,31.230676],[121.399384,31.230647],[121.399393,31.230613],[121.399402,31.230579],[121.399412,31.230543],[121.39942,31.23051],[121.399429,31.230475],[121.399437,31.230443],[121.399444,31.230409],[121.399451,31.230376],[121.399458,31.230342],[121.399465,31.23031],[121.399472,31.230277],[121.39948,31.230246],[121.399489,31.230215],[121.399498,31.230184],[121.399507,31.230154],[121.399517,31.230125],[121.399526,31.230099],[121.399538,31.230068],[121.399551,31.230036],[121.399566,31.230004],[121.39958,31.229976],[121.399596,31.229947],[121.399615,31.229919],[121.399636,31.229892],[121.399659,31.229866],[121.399684,31.229844],[121.39971,31.229825],[121.399741,31.229807],[121.399775,31.229791],[121.39981,31.229777],[121.399848,31.229766],[121.399885,31.229759],[121.399923,31.229754],[121.399958,31.229753],[121.399995,31.229755],[121.400031,31.22976],[121.400067,31.229767],[121.400101,31.229776],[121.400132,31.229788],[121.40016,31.229802],[121.400188,31.22982],[121.400214,31.22984],[121.400239,31.229862],[121.400261,31.229886],[121.400282,31.229912],[121.4003,31.229939],[121.400315,31.229968],[121.400326,31.229999],[121.400335,31.23003],[121.40034,31.230062],[121.400341,31.230094],[121.40034,31.230127],[121.400334,31.230159],[121.400327,31.230191],[121.400318,31.230223],[121.400309,31.230255],[121.400299,31.230285],[121.400289,31.230316],[121.40028,31.230346],[121.40027,31.230377],[121.40026,31.230408],[121.400251,31.23044],[121.400242,31.230471],[121.400233,31.230502],[121.400224,31.230534],[121.400214,31.230567],[121.400204,31.230599],[121.400194,31.230631],[121.400184,31.230663],[121.400174,31.230696],[121.400164,31.230729],[121.400154,31.230761],[121.400143,31.230793],[121.400134,31.230822],[121.400124,31.230851],[121.400113,31.23088],[121.400102,31.230909],[121.400089,31.230939],[121.400075,31.230966],[121.400058,31.230994],[121.400039,31.231022],[121.400016,31.23105],[121.399992,31.231076],[121.399964,31.2311],[121.399935,31.231122],[121.399904,31.23114],[121.399871,31.231155],[121.399838,31.231167],[121.399804,31.231175],[121.399771,31.23118],[121.399736,31.231181],[121.399701,31.231179],[121.399665,31.231175],[121.399629,31.231169],[121.399592,31.231161],[121.399554,31.23115],[121.399518,31.231135],[121.399486,31.231117],[121.399456,31.231096],[121.39943,31.231072],[121.399407,31.231047],[121.399388,31.23102],[121.399372,31.230991],[121.399361,31.230963],[121.399351,31.230932],[121.399345,31.230902],[121.399341,31.230865],[121.39934,31.230829],[121.399343,31.230792],[121.399348,31.23076],[121.399356,31.230729],[121.399365,31.230699],[121.399375,31.23067],[121.399384,31.23064],[121.399394,31.230608],[121.399404,31.230575],[121.399414,31.230544],[121.399423,31.230511],[121.399433,31.230479],[121.399442,31.230447],[121.399451,31.230415],[121.39946,31.230383],[121.399468,31.230352],[121.399476,31.230321],[121.399484,31.230289],[121.399493,31.230258],[121.399503,31.230227],[121.399514,31.230196],[121.399524,31.230164],[121.399534,31.230132],[121.399544,31.230101],[121.399555,31.23007],[121.399566,31.230038],[121.399578,31.230007],[121.399591,31.229977],[121.399608,31.229947],[121.399627,31.229917],[121.399648,31.229889],[121.399673,31.229863],[121.3997,31.229839],[121.39973,31.229817],[121.399766,31.229797],[121.399804,31.229781],[121.399845,31.229768],[121.399883,31.229761],[121.399922,31.229756],[121.39996,31.229755],[121.399997,31.229757],[121.400035,31.229763],[121.400074,31.229773],[121.40011,31.229785],[121.400145,31.2298],[121.400176,31.229817],[121.400206,31.229837],[121.400233,31.22986],[121.400257,31.229885],[121.400278,31.229911],[121.400296,31.229937],[121.400312,31.229969],[121.400324,31.23],[121.400333,31.230034],[121.400337,31.230066],[121.400338,31.230098],[121.400336,31.23013],[121.400331,31.23016],[121.400323,31.230192],[121.400314,31.230223],[121.400303,31.230256],[121.400293,31.230287],[121.400283,31.230317],[121.400274,31.230347],[121.400265,31.230378],[121.400257,31.23041],[121.400248,31.230444],[121.400239,31.23048],[121.400229,31.23052],[121.400218,31.230559],[121.400207,31.230598],[121.400198,31.230633],[121.400188,31.230668],[121.400178,31.230703],[121.400168,31.230737],[121.400158,31.230771],[121.400148,31.230804],[121.400139,31.230837],[121.400131,31.230871],[121.400121,31.230902],[121.400111,31.23093],[121.400096,31.230956],[121.40008,31.230982],[121.400061,31.231009],[121.40004,31.231037],[121.400016,31.231064],[121.39999,31.231091],[121.399961,31.231114],[121.399931,31.231135],[121.399898,31.231152],[121.399864,31.231167],[121.39983,31.231177],[121.399797,31.231185],[121.399761,31.231189],[121.399725,31.23119],[121.399687,31.231187],[121.399648,31.231182],[121.399613,31.231175],[121.399576,31.231166],[121.399542,31.231154],[121.399508,31.231139],[121.399478,31.23112],[121.39945,31.231099],[121.399425,31.231076],[121.399404,31.231051],[121.399385,31.231024],[121.399369,31.230994],[121.399355,31.230963],[121.399344,31.23093],[121.399336,31.230897],[121.399331,31.230863],[121.39933,31.23083],[121.399332,31.230798],[121.399337,31.230766],[121.399343,31.230738],[121.399351,31.230708],[121.39936,31.230677],[121.399371,31.230644],[121.399382,31.23061],[121.399393,31.230576],[121.399404,31.230544],[121.399416,31.230507],[121.399428,31.230471],[121.399439,31.23043],[121.399449,31.230394],[121.399459,31.230356],[121.399468,31.23032],[121.399478,31.230285],[121.399488,31.230252],[121.399499,31.23022],[121.39951,31.230189],[121.399521,31.230158],[121.399532,31.230129],[121.399544,31.230097],[121.399555,31.230067],[121.399567,31.230036],[121.39958,31.230005],[121.399595,31.229975],[121.399613,31.229945],[121.399634,31.229917],[121.399658,31.22989],[121.399684,31.229864],[121.39971,31.229841],[121.39974,31.229819],[121.399771,31.229801],[121.399804,31.229786],[121.399838,31.229775],[121.399873,31.229767],[121.399911,31.229762],[121.399949,31.229761],[121.399987,31.229762],[121.400028,31.229766],[121.400066,31.229773],[121.400103,31.229783],[121.400137,31.229797],[121.40017,31.229814],[121.400204,31.22984],[121.400234,31.229868],[121.400263,31.2299],[121.400283,31.22993],[121.4003,31.229963],[121.400313,31.229995],[121.400322,31.230028],[121.400327,31.230061],[121.40033,31.230094],[121.40033,31.230126],[121.400326,31.230159],[121.40032,31.230191],[121.400312,31.230226],[121.400303,31.23026],[121.400293,31.230294],[121.400282,31.230328],[121.400271,31.230362],[121.400259,31.230401],[121.400247,31.23044],[121.400234,31.230482],[121.400222,31.230518],[121.400211,31.230555],[121.400201,31.230588],[121.400191,31.230622],[121.400181,31.230655],[121.400172,31.230687],[121.400164,31.230718],[121.400155,31.23075],[121.400147,31.230781],[121.400137,31.230813],[121.400126,31.230843],[121.400115,31.230874],[121.400103,31.230904],[121.400089,31.230935],[121.400073,31.230968],[121.400054,31.231],[121.400032,31.231031],[121.400007,31.231061],[121.39998,31.231088],[121.399951,31.231112],[121.399919,31.231133],[121.399885,31.23115],[121.39985,31.231164],[121.399812,31.231175],[121.399773,31.231182],[121.399733,31.231185],[121.399694,31.231185],[121.399656,31.231182],[121.399618,31.231176],[121.399582,31.231167],[121.399547,31.231154],[121.399513,31.231138],[121.39948,31.231116],[121.399449,31.23109],[121.39942,31.231062],[121.399396,31.231033],[121.399376,31.231003],[121.39936,31.230972],[121.399347,31.23094],[121.399338,31.230907],[121.399333,31.230872],[121.399332,31.230839],[121.399332,31.230805],[121.399337,31.230772],[121.399344,31.230739],[121.399352,31.230706],[121.399362,31.230674],[121.399372,31.230642],[121.399383,31.230609],[121.399393,31.230577],[121.399403,31.230545],[121.399414,31.230512],[121.399424,31.23048],[121.399435,31.230447],[121.399446,31.230415],[121.399456,31.230383],[121.399467,31.23035],[121.399478,31.230316],[121.399489,31.230283],[121.399499,31.230251],[121.399509,31.23022],[121.399519,31.230188],[121.399529,31.230156],[121.399538,31.230124],[121.399549,31.230091],[121.399562,31.230055],[121.399575,31.23002],[121.399593,31.229981],[121.399612,31.229946],[121.399635,31.229911],[121.39966,31.229883],[121.399688,31.229857],[121.399717,31.229835],[121.399751,31.229816],[121.399787,31.229798],[121.399826,31.229783],[121.399865,31.229773],[121.399904,31.229765],[121.399942,31.229761],[121.399982,31.229761],[121.400021,31.229763],[121.400059,31.229769],[121.400096,31.229778],[121.400129,31.22979],[121.400166,31.22981],[121.400201,31.229835],[121.400233,31.229864],[121.400258,31.229893],[121.400279,31.229923],[121.400296,31.229955],[121.400309,31.229986],[121.400319,31.230018],[121.400326,31.23005],[121.400329,31.230085],[121.400329,31.230118],[121.400327,31.230152],[121.400324,31.230186],[121.400318,31.23022],[121.400311,31.230255],[121.400303,31.230287],[121.400293,31.23032],[121.400281,31.230358],[121.400268,31.230397],[121.400256,31.230439],[121.400244,31.230478],[121.400232,31.230515],[121.400221,31.230551],[121.40021,31.230585],[121.4002,31.230619],[121.40019,31.230652],[121.40018,31.230684],[121.400171,31.230718],[121.400162,31.230753],[121.400152,31.230787],[121.400142,31.23082],[121.400129,31.230854],[121.400116,31.230889],[121.400102,31.230925],[121.400084,31.230963],[121.400063,31.231],[121.400038,31.231037],[121.400012,31.231066],[121.399984,31.231093],[121.399955,31.231116],[121.399923,31.231136],[121.39989,31.231151],[121.399854,31.231163],[121.399816,31.231172],[121.399777,31.231178],[121.399738,31.231181],[121.3997,31.231182],[121.39966,31.231179],[121.399621,31.231173],[121.399583,31.231163],[121.399546,31.231149],[121.399507,31.231128],[121.399469,31.2311],[121.399434,31.231069],[121.399406,31.231038],[121.399384,31.231009],[121.399366,31.230978],[121.399352,31.230946],[121.399342,31.230913],[121.399336,31.23088],[121.399334,31.230847],[121.399334,31.230814],[121.399338,31.230781],[121.399344,31.230748],[121.399352,31.230715],[121.399361,31.230683],[121.399371,31.23065],[121.399381,31.230617],[121.399392,31.230584],[121.399402,31.230551],[121.399413,31.230515],[121.399423,31.230482],[121.399433,31.230448],[121.399442,31.230414],[121.399452,31.230379],[121.399462,31.230345],[121.399472,31.230312],[121.399482,31.23028],[121.399493,31.230247],[121.399504,31.230215],[121.399515,31.230182],[121.399526,31.230149],[121.399537,31.230115],[121.399549,31.230079],[121.39956,31.230041],[121.399572,31.230004],[121.39959,31.229962],[121.399608,31.229927],[121.399627,31.229893],[121.399635,31.22988],[121.399641,31.22987]]}}]}