{"type":"FeatureCollection","features":[{"type":"Feature","properties":{"id":"2026-03-27_walking_23","type":"walking","date":"2026-03-27"},"geometry":{"type":"LineString","coordinates":[[121.402407,31.223776],[121.402425,31.223787],[121.402432,31.223791],[121.402446,31.2238],[121.40246,31.223809],[121.402474,31.223821],[121.402487,31.223833],[121.4025,31.223844],[121.402511,31.223852],[121.402522,31.223859],[121.402534,31.223865],[121.402547,31.223873],[121.402563,31.223881],[121.40258,31.22389],[121.402595,31.223899],[121.402611,31.223909],[121.402626,31.223918],[121.40264,31.223927],[121.402654,31.223935],[121.402667,31.223943],[121.402682,31.22395],[121.402698,31.223957],[121.402714,31.223964],[121.402729,31.22397],[121.402739,31.223975],[121.40275,31.22398],[121.402762,31.223985],[121.402776,31.223992],[121.402789,31.223998],[121.402803,31.224005],[121.402815,31.224011],[121.40283,31.224018],[121.402844,31.224024],[121.40286,31.224032],[121.402873,31.224038],[121.402884,31.224043],[121.402896,31.224048],[121.402907,31.224054],[121.40292,31.22406],[121.402931,31.224065],[121.402943,31.224071],[121.402954,31.224077],[121.402968,31.224083],[121.402981,31.22409],[121.402992,31.224095],[121.403003,31.224101],[121.403015,31.224107],[121.403029,31.224115],[121.403046,31.224123],[121.403062,31.224131],[121.403077,31.224138],[121.40309,31.224145],[121.4031,31.22415],[121.403111,31.224156],[121.403122,31.224162],[121.403135,31.224169],[121.403148,31.224176],[121.403159,31.224182],[121.403171,31.224189],[121.403182,31.224195],[121.403197,31.224202],[121.403211,31.224209],[121.403225,31.224215],[121.403237,31.224221],[121.40325,31.224227],[121.403266,31.224234],[121.403283,31.224242],[121.403298,31.224248],[121.403313,31.224255],[121.403327,31.224262],[121.403343,31.224269],[121.403356,31.224275],[121.403367,31.22428],[121.403379,31.224285],[121.403391,31.22429],[121.403405,31.224296],[121.403419,31.224302],[121.403433,31.224308],[121.403446,31.224312],[121.403459,31.224318],[121.403474,31.224323],[121.403493,31.224331],[121.403512,31.224338],[121.40353,31.224344],[121.403545,31.22435],[121.403559,31.224355],[121.403573,31.22436],[121.403584,31.224364],[121.403596,31.224368],[121.403608,31.224372],[121.403622,31.224378],[121.403636,31.224383],[121.403647,31.224387],[121.403658,31.224391],[121.40367,31.224396],[121.403685,31.224402],[121.403699,31.224407],[121.403713,31.224413],[121.403728,31.224418],[121.403742,31.224423],[121.403756,31.224428],[121.403769,31.224432],[121.403784,31.224436],[121.4038,31.224439],[121.403819,31.224442],[121.403835,31.224445],[121.40385,31.224448],[121.40386,31.224451],[121.403871,31.224453],[121.403883,31.224456],[121.403897,31.22446],[121.403911,31.224463],[121.403925,31.224467],[121.403937,31.22447],[121.40395,31.224473],[121.403965,31.224477],[121.40398,31.224481],[121.403995,31.224484],[121.404007,31.224487],[121.404021,31.22449],[121.404035,31.224494],[121.404046,31.224496],[121.404058,31.224499],[121.40407,31.224502],[121.404084,31.224505],[121.404098,31.224509],[121.404109,31.224511],[121.404122,31.224514],[121.404135,31.224517],[121.404151,31.224521],[121.404167,31.224524],[121.404183,31.224528],[121.4042,31.224531],[121.404216,31.224535],[121.404232,31.224538],[121.404245,31.224541],[121.404258,31.224544],[121.404271,31.224547],[121.404287,31.224551],[121.404303,31.224554],[121.404318,31.224557],[121.40433,31.22456],[121.404344,31.224563],[121.404357,31.224565],[121.404374,31.224568],[121.404389,31.224571],[121.404404,31.224574],[121.404417,31.224576],[121.404431,31.224578],[121.404447,31.224581],[121.404463,31.224584],[121.404478,31.224587],[121.404491,31.22459],[121.404506,31.224593],[121.40452,31.224596],[121.404535,31.224599],[121.404547,31.224601],[121.404559,31.224603],[121.404572,31.224606],[121.404587,31.224609],[121.404601,31.224612],[121.404613,31.224614],[121.404626,31.224616],[121.404639,31.224619],[121.404655,31.224622],[121.404671,31.224625],[121.40469,31.224628],[121.404709,31.224631],[121.404728,31.224634],[121.404742,31.224635],[121.404756,31.224635],[121.40477,31.224635],[121.404786,31.224635],[121.404802,31.224637],[121.404817,31.224638],[121.404829,31.22464],[121.404842,31.224641],[121.404854,31.224642],[121.404869,31.224643],[121.404883,31.224645],[121.404898,31.224647],[121.404912,31.224649],[121.404926,31.224652],[121.40494,31.224655],[121.404954,31.224658],[121.404968,31.224658],[121.404981,31.224657],[121.404995,31.224655],[121.405009,31.224655],[121.405021,31.224656],[121.405032,31.224657],[121.405043,31.224659],[121.405054,31.224661],[121.405066,31.224663],[121.405075,31.224664],[121.405086,31.224664],[121.405096,31.224663],[121.405109,31.224662],[121.405122,31.224662],[121.405135,31.224663],[121.405149,31.224663],[121.405162,31.22466],[121.405174,31.224658],[121.405184,31.224655],[121.405195,31.224654],[121.405209,31.224653],[121.405224,31.224654],[121.405238,31.224654],[121.405252,31.224654],[121.405264,31.224654],[121.405276,31.224654],[121.405289,31.224655],[121.405303,31.224657],[121.405318,31.224659],[121.405332,31.224661],[121.405346,31.224662],[121.405361,31.224662],[121.405376,31.224661],[121.405391,31.224659],[121.405403,31.224657],[121.405417,31.224655],[121.40543,31.224653],[121.405443,31.224649],[121.405456,31.224646],[121.405469,31.224644],[121.405481,31.224643],[121.405495,31.224643],[121.405508,31.224643],[121.405524,31.224644],[121.40554,31.224645],[121.405556,31.224649],[121.40557,31.224652],[121.405584,31.224655],[121.4056,31.224655],[121.405618,31.224653],[121.405635,31.224651],[121.405649,31.22465],[121.405662,31.224651],[121.405676,31.224651],[121.40569,31.224651],[121.405704,31.224651],[121.405716,31.22465],[121.405728,31.22465],[121.40574,31.22465],[121.405755,31.224651],[121.405769,31.224654],[121.405783,31.224657],[121.405797,31.22466],[121.405812,31.224661],[121.405827,31.22466],[121.405845,31.224658],[121.405862,31.224656],[121.405879,31.224655],[121.40589,31.224655],[121.405902,31.224655],[121.405912,31.224656],[121.405924,31.224656],[121.405934,31.224654],[121.405945,31.224653],[121.405955,31.224653],[121.405964,31.224654],[121.405971,31.224656],[121.405975,31.22466],[121.405982,31.224666],[121.405987,31.224672],[121.40599,31.224677],[121.405989,31.22468],[121.405985,31.224681],[121.405981,31.224681],[121.405976,31.22468],[121.405971,31.224679],[121.405966,31.224678],[121.405963,31.224678],[121.405962,31.224679],[121.405962,31.22468],[121.405963,31.224682],[121.405964,31.224683],[121.405964,31.224683],[121.405964,31.224682],[121.405965,31.224682],[121.405965,31.224682],[121.405964,31.224682],[121.405964,31.224682],[121.405964,31.224683],[121.405963,31.224684],[121.405963,31.224684],[121.405962,31.224683],[121.405962,31.224683],[121.405962,31.224683],[121.405961,31.224683],[121.405961,31.224683],[121.40596,31.224684],[121.40596,31.224685],[121.405959,31.224688],[121.40596,31.224691],[121.405962,31.224693],[121.405964,31.224694],[121.405965,31.224696],[121.405966,31.224697],[121.405966,31.224698],[121.405966,31.224703],[121.405965,31.22471],[121.405964,31.224719],[121.405964,31.224729],[121.405964,31.224739],[121.405963,31.224746],[121.405964,31.224754],[121.405965,31.22476],[121.405967,31.224767],[121.40597,31.224774],[121.405972,31.224782],[121.405973,31.224791],[121.405973,31.2248],[121.405972,31.224812],[121.405971,31.224826],[121.40597,31.224839],[121.405968,31.224852],[121.405964,31.224862],[121.405961,31.224874],[121.405959,31.224886],[121.405959,31.224897],[121.405962,31.224907],[121.405965,31.224916],[121.405968,31.224928],[121.405972,31.22494],[121.405976,31.224954],[121.405979,31.224968],[121.405981,31.224982],[121.405983,31.224997],[121.405985,31.225011],[121.405986,31.225026],[121.405988,31.22504],[121.40599,31.225055],[121.405991,31.225068],[121.405992,31.22508],[121.405993,31.225093],[121.405994,31.225107],[121.405996,31.225122],[121.405997,31.225135],[121.405997,31.225148],[121.405998,31.225161],[121.405999,31.225174],[121.406,31.225188],[121.406001,31.225203],[121.406002,31.225219],[121.406004,31.225234],[121.406005,31.22525],[121.406007,31.225269],[121.406009,31.225287],[121.406012,31.225303],[121.406014,31.225315],[121.406016,31.225326],[121.406018,31.225339],[121.40602,31.225353],[121.406022,31.225367],[121.406025,31.225381],[121.406028,31.225396],[121.406031,31.225411],[121.406034,31.225426],[121.406036,31.225441],[121.406038,31.225455],[121.406038,31.225468],[121.40604,31.225481],[121.406041,31.225491],[121.406042,31.225501],[121.406042,31.22551],[121.406041,31.225519],[121.406039,31.225528],[121.406039,31.22554],[121.406041,31.225552],[121.406045,31.225568],[121.40605,31.225585],[121.406053,31.225604],[121.406057,31.225621],[121.406059,31.225636],[121.406061,31.22565],[121.406063,31.225663],[121.406065,31.225676],[121.406066,31.225688],[121.406068,31.225703],[121.406069,31.225717],[121.406068,31.225733],[121.406065,31.225748],[121.406061,31.225763],[121.406057,31.225775],[121.406054,31.225788],[121.406052,31.225799],[121.406053,31.225811],[121.406055,31.22582],[121.406058,31.22583],[121.40606,31.225839],[121.406062,31.225851],[121.406063,31.225861],[121.406063,31.225871],[121.406064,31.22588],[121.406064,31.22589],[121.406063,31.2259],[121.406063,31.225912],[121.406063,31.225924],[121.406063,31.225936],[121.406064,31.225946],[121.406065,31.225954],[121.406065,31.225961],[121.406065,31.225967],[121.406064,31.225973],[121.406064,31.225979],[121.406063,31.225986],[121.406064,31.225995],[121.406064,31.226006],[121.406066,31.226016],[121.406065,31.226024],[121.406066,31.226031],[121.406067,31.226039],[121.406067,31.226052],[121.406067,31.226069],[121.406064,31.226092],[121.406063,31.226114],[121.406062,31.226137],[121.406064,31.226156],[121.406067,31.226173],[121.406071,31.226188],[121.406075,31.226203],[121.40608,31.226217],[121.406083,31.226229],[121.406086,31.226241],[121.406087,31.226249],[121.406089,31.226257],[121.406091,31.226263],[121.406092,31.226265],[121.406094,31.226267],[121.406096,31.226269],[121.406097,31.226272],[121.406096,31.226276],[121.406096,31.22628],[121.406094,31.226286],[121.406093,31.226293],[121.406093,31.226302],[121.406094,31.22631],[121.406096,31.22632],[121.406099,31.226331],[121.406103,31.226342],[121.406106,31.226352],[121.406111,31.226362],[121.406115,31.226373],[121.406119,31.226385],[121.406122,31.226395],[121.406125,31.226404],[121.406128,31.226414],[121.406131,31.226424],[121.406134,31.226439],[121.406135,31.226454],[121.406136,31.226471],[121.406137,31.226485],[121.406138,31.226499],[121.406139,31.226512],[121.406139,31.226524],[121.40614,31.226536],[121.40614,31.226547],[121.406141,31.226558],[121.406141,31.226569],[121.406142,31.226581],[121.406142,31.22659],[121.406143,31.226599],[121.406143,31.226607],[121.406143,31.22662],[121.406144,31.226632],[121.406144,31.226644],[121.406145,31.226654],[121.406145,31.226665],[121.406145,31.226674],[121.406146,31.226683],[121.406146,31.226692],[121.406146,31.226702],[121.406147,31.226711],[121.406147,31.226721],[121.406148,31.22673],[121.406148,31.226741],[121.406148,31.226751],[121.406149,31.226763],[121.406149,31.226773],[121.406149,31.226785],[121.406149,31.226798],[121.406149,31.226814],[121.406149,31.22683],[121.406149,31.226842],[121.406148,31.226856],[121.406147,31.226869],[121.406147,31.226886],[121.406148,31.226902],[121.40615,31.226916],[121.406153,31.226929],[121.406156,31.226941],[121.406157,31.226953],[121.406156,31.226966],[121.406154,31.22698],[121.406154,31.226993],[121.406154,31.227006],[121.406155,31.227019],[121.406155,31.227034],[121.406156,31.227049],[121.406157,31.227066],[121.406159,31.227079],[121.406161,31.227094],[121.406162,31.227108],[121.406162,31.227123],[121.406162,31.227136],[121.406162,31.227148],[121.406163,31.227161],[121.406163,31.227171],[121.406163,31.227182],[121.406163,31.227192],[121.406164,31.227204],[121.406167,31.227218],[121.40617,31.227233],[121.406175,31.227249],[121.406186,31.227271],[121.4062,31.227294],[121.406216,31.227318],[121.406228,31.227338],[121.406237,31.227357],[121.406243,31.227375],[121.406246,31.22739],[121.406248,31.227404],[121.406248,31.227417],[121.406248,31.227429],[121.406247,31.227441],[121.406246,31.227454],[121.406245,31.227469],[121.406244,31.227485],[121.406242,31.227502],[121.406239,31.227522],[121.406236,31.227543],[121.406236,31.22757],[121.406236,31.227595],[121.406236,31.227616],[121.406233,31.227629],[121.406229,31.22764],[121.406224,31.227651],[121.40622,31.227662],[121.406218,31.227674],[121.406219,31.227684],[121.406222,31.227694],[121.406222,31.227701],[121.406218,31.227709],[121.406213,31.227716],[121.406207,31.227727],[121.406203,31.227741],[121.406198,31.22776],[121.406194,31.22778],[121.406191,31.227806],[121.406191,31.227828],[121.406188,31.227854],[121.406186,31.227874],[121.40618,31.227892],[121.406175,31.227905],[121.406171,31.227914],[121.40617,31.227923],[121.40617,31.227932],[121.406171,31.227942],[121.40617,31.227951],[121.40617,31.22796],[121.40617,31.227969],[121.40617,31.22798],[121.406171,31.227991],[121.406172,31.228004],[121.406172,31.228016],[121.406171,31.228029],[121.406168,31.228042],[121.406162,31.228059],[121.406157,31.228072],[121.406152,31.228085],[121.406149,31.228095],[121.406144,31.228108],[121.40614,31.22812],[121.406135,31.228132],[121.406131,31.228144],[121.406127,31.228154],[121.406123,31.228164],[121.406119,31.228174],[121.406114,31.228186],[121.406107,31.228198],[121.406101,31.228211],[121.406092,31.228226],[121.406083,31.22824],[121.406074,31.228254],[121.406066,31.228267],[121.406058,31.228278],[121.406051,31.22829],[121.406044,31.228301],[121.406038,31.228312],[121.406031,31.228323],[121.406025,31.228333],[121.406019,31.228343],[121.406011,31.228353],[121.406003,31.228362],[121.405994,31.228372],[121.405985,31.228382],[121.405978,31.228391],[121.405969,31.2284],[121.40596,31.22841],[121.40595,31.228424],[121.405943,31.228436],[121.405936,31.22845],[121.405932,31.228462],[121.405928,31.228476],[121.405925,31.228489],[121.405922,31.228503],[121.405919,31.228515],[121.405915,31.228525],[121.405911,31.228534],[121.405907,31.228542],[121.405902,31.228551],[121.405897,31.228559],[121.405892,31.228568],[121.405885,31.228578],[121.405878,31.228594],[121.405873,31.22861],[121.405868,31.228629],[121.405864,31.228644],[121.405861,31.22866],[121.405858,31.228676],[121.405855,31.22869],[121.405852,31.228704],[121.405849,31.228717],[121.405844,31.228731],[121.405839,31.228747],[121.405833,31.228763],[121.405826,31.228778],[121.405818,31.228789],[121.405811,31.228797],[121.405805,31.228803],[121.405802,31.22881],[121.405798,31.228819],[121.405795,31.228829],[121.405791,31.228838],[121.405787,31.228845],[121.405781,31.228852],[121.405776,31.228857],[121.405771,31.228861],[121.405768,31.228866],[121.405767,31.228873],[121.405765,31.22888],[121.405762,31.22889],[121.405758,31.228901],[121.405753,31.228913],[121.405748,31.228921],[121.405745,31.228927],[121.405743,31.228934],[121.405744,31.228942],[121.405743,31.228951],[121.405744,31.22896],[121.405742,31.228968],[121.405741,31.228977],[121.405739,31.228985],[121.405736,31.228995],[121.405733,31.229007],[121.40573,31.229018],[121.405725,31.229028],[121.40572,31.229039],[121.405715,31.229049],[121.405712,31.229061],[121.405709,31.229073],[121.405708,31.229087],[121.405708,31.229101],[121.405708,31.229113],[121.405705,31.229122],[121.405699,31.229133],[121.405689,31.229146],[121.405682,31.229161],[121.405675,31.229174],[121.405669,31.229185],[121.405663,31.229198],[121.405657,31.22921],[121.405651,31.229224],[121.405646,31.229237],[121.405643,31.229252],[121.405641,31.229265],[121.405639,31.229276],[121.405636,31.229286],[121.405631,31.229295],[121.405624,31.229305],[121.405617,31.229315],[121.405609,31.229329],[121.4056,31.229349],[121.405591,31.229371],[121.405585,31.22939],[121.405582,31.229404],[121.405579,31.229416],[121.405575,31.229425],[121.405571,31.229434],[121.405566,31.229445],[121.405561,31.229456],[121.405558,31.229468],[121.405557,31.229479],[121.405555,31.229489],[121.405551,31.229498],[121.405545,31.229507],[121.40554,31.229516],[121.405536,31.229527],[121.405531,31.229538],[121.405526,31.229553],[121.405521,31.22957],[121.405515,31.229585],[121.405509,31.229598],[121.405503,31.229609],[121.405496,31.229622],[121.405491,31.229635],[121.405486,31.229648],[121.405481,31.229661],[121.405478,31.229674],[121.405477,31.229686],[121.405476,31.229697],[121.405475,31.229708],[121.405472,31.229717],[121.405467,31.229727],[121.405461,31.229737],[121.405457,31.229751],[121.405453,31.229769],[121.40545,31.229788],[121.405446,31.229808],[121.405444,31.229825],[121.405442,31.229841],[121.40544,31.229856],[121.405438,31.22987],[121.405434,31.229885],[121.405429,31.229899],[121.405423,31.229914],[121.405416,31.229929],[121.405408,31.229943],[121.405399,31.229956],[121.40539,31.229969],[121.405382,31.229983],[121.405375,31.229994],[121.405367,31.230006],[121.405358,31.230016],[121.405345,31.230025],[121.405331,31.230034],[121.405316,31.23004],[121.405302,31.230045],[121.405287,31.230047],[121.405272,31.230047],[121.405256,31.230046],[121.405239,31.230042],[121.405224,31.230036],[121.405208,31.230029],[121.405193,31.230021],[121.405179,31.230015],[121.405166,31.230009],[121.405156,31.230005],[121.405145,31.230001],[121.405135,31.229999],[121.405121,31.229997],[121.405105,31.229996],[121.405087,31.229994],[121.405069,31.22999],[121.405055,31.229984],[121.405042,31.229975],[121.405034,31.229966],[121.405029,31.229958],[121.405026,31.229948],[121.405022,31.22994],[121.405017,31.22993],[121.40501,31.229922],[121.405003,31.229911],[121.404993,31.229902],[121.404982,31.229893],[121.404968,31.229886],[121.404955,31.22988],[121.40494,31.229875],[121.404925,31.22987],[121.404909,31.229864],[121.404893,31.229859],[121.404878,31.229853],[121.404863,31.229848],[121.40485,31.229843],[121.404836,31.229839],[121.404823,31.229835],[121.404809,31.229833],[121.404796,31.229832],[121.404784,31.229833],[121.40477,31.229833],[121.404758,31.229835],[121.404743,31.229836],[121.404731,31.229836],[121.404718,31.229836],[121.404708,31.229835],[121.404702,31.229833],[121.4047,31.229832],[121.404702,31.22983],[121.404706,31.229828],[121.404714,31.229821],[121.404721,31.229812],[121.404726,31.229802],[121.404731,31.229791],[121.404737,31.229781],[121.404743,31.22977],[121.404751,31.229761],[121.40476,31.229752],[121.404768,31.229743],[121.404774,31.229737],[121.404775,31.229732],[121.404772,31.229727],[121.404767,31.229721],[121.40476,31.229715],[121.404753,31.22971],[121.404743,31.229705],[121.404733,31.2297],[121.404721,31.229693],[121.404709,31.229686],[121.404696,31.229679],[121.40469,31.229676],[121.404687,31.229675]]}}]}