{"type":"FeatureCollection","features":[{"type":"Feature","properties":{"id":"2026-04-27_running_34","type":"running","date":"2026-04-27"},"geometry":{"type":"LineString","coordinates":[[121.399557,31.229995],[121.399565,31.229966],[121.399575,31.229944],[121.399587,31.229928],[121.399598,31.229914],[121.399609,31.2299],[121.399632,31.229877],[121.399665,31.229849],[121.3997,31.229825],[121.399733,31.229805],[121.399764,31.22979],[121.399791,31.229779],[121.399821,31.229769],[121.399851,31.229761],[121.39988,31.229756],[121.399911,31.229754],[121.399943,31.229753],[121.399974,31.229755],[121.400006,31.229758],[121.400036,31.229762],[121.400064,31.229768],[121.400096,31.229777],[121.400126,31.229789],[121.400154,31.229803],[121.40019,31.229826],[121.400221,31.229849],[121.400243,31.22987],[121.400266,31.229895],[121.400286,31.229919],[121.400301,31.229943],[121.400317,31.229972],[121.400329,31.230001],[121.400337,31.230028],[121.400343,31.230059],[121.400346,31.23009],[121.400347,31.230117],[121.400345,31.230148],[121.40034,31.230178],[121.400334,31.230205],[121.400327,31.230234],[121.400319,31.23026],[121.40031,31.230285],[121.400299,31.230316],[121.400288,31.230347],[121.400278,31.230376],[121.400268,31.230407],[121.400259,31.23044],[121.40025,31.23047],[121.400241,31.230498],[121.40023,31.230529],[121.40022,31.23056],[121.400211,31.23059],[121.400203,31.23062],[121.400196,31.230648],[121.400187,31.23068],[121.400177,31.230711],[121.400168,31.23074],[121.400163,31.23077],[121.400159,31.230797],[121.400144,31.230826],[121.400129,31.230859],[121.400122,31.230887],[121.400114,31.230917],[121.400105,31.230946],[121.400096,31.230972],[121.400083,31.231],[121.400068,31.231027],[121.400051,31.23105],[121.40003,31.231075],[121.400008,31.231097],[121.399985,31.231114],[121.399957,31.231132],[121.399928,31.231146],[121.399903,31.231159],[121.399875,31.231175],[121.399846,31.231189],[121.399807,31.231194],[121.399765,31.231196],[121.399731,31.231198],[121.399699,31.231197],[121.399664,31.231193],[121.399631,31.231186],[121.399602,31.231176],[121.399571,31.231164],[121.399542,31.231152],[121.399518,31.231139],[121.399492,31.231123],[121.399469,31.231105],[121.399451,31.231087],[121.399433,31.231065],[121.399417,31.23104],[121.399403,31.231016],[121.399389,31.230986],[121.399374,31.230949],[121.399363,31.230916],[121.399354,31.230885],[121.399347,31.230852],[121.399342,31.230821],[121.39934,31.230785],[121.399341,31.230753],[121.399344,31.230729],[121.39935,31.230705],[121.399357,31.230682],[121.399367,31.230655],[121.399376,31.230628],[121.399385,31.230602],[121.399394,31.23057],[121.399402,31.230538],[121.399411,31.230509],[121.399421,31.230475],[121.399433,31.230437],[121.399443,31.230403],[121.399451,31.230376],[121.399458,31.230349],[121.399465,31.230322],[121.399472,31.230292],[121.39948,31.230264],[121.39949,31.230234],[121.399499,31.230205],[121.399507,31.230179],[121.399516,31.23015],[121.399525,31.230121],[121.399534,31.230095],[121.399546,31.230068],[121.399557,31.230041],[121.399567,31.230016],[121.399578,31.229987],[121.399592,31.229955],[121.399606,31.229928],[121.399623,31.229904],[121.399645,31.229878],[121.399671,31.229853],[121.3997,31.229828],[121.399727,31.229808],[121.399753,31.229794],[121.39978,31.229783],[121.399807,31.229774],[121.399834,31.229768],[121.399864,31.229763],[121.399894,31.229759],[121.399923,31.229756],[121.399959,31.229755],[121.399996,31.229755],[121.400031,31.229758],[121.400066,31.229763],[121.400102,31.229771],[121.400135,31.229782],[121.400162,31.229795],[121.400191,31.229813],[121.400217,31.229832],[121.400238,31.22985],[121.400257,31.229871],[121.400274,31.229894],[121.400289,31.229914],[121.400305,31.229938],[121.400319,31.229964],[121.40033,31.22999],[121.400339,31.230016],[121.400345,31.230039],[121.400349,31.230066],[121.400351,31.230095],[121.400349,31.230123],[121.400346,31.230151],[121.400341,31.23018],[121.400335,31.230209],[121.400327,31.230237],[121.400317,31.230266],[121.400308,31.230293],[121.4003,31.230318],[121.400292,31.230348],[121.400285,31.230378],[121.400278,31.230407],[121.40027,31.230437],[121.400263,31.230465],[121.400254,31.230494],[121.400244,31.230524],[121.400235,31.230551],[121.400226,31.230582],[121.400217,31.230611],[121.400209,31.23064],[121.400198,31.230679],[121.400186,31.230716],[121.400178,31.230745],[121.400169,31.230774],[121.40016,31.230802],[121.40015,31.230829],[121.400139,31.230859],[121.400128,31.230887],[121.400119,31.230911],[121.400108,31.230936],[121.400096,31.230964],[121.400082,31.230991],[121.400065,31.231015],[121.400044,31.231041],[121.400021,31.231068],[121.399999,31.231093],[121.399978,31.231115],[121.399947,31.231135],[121.399907,31.231151],[121.39987,31.231167],[121.399836,31.231178],[121.399802,31.231185],[121.399765,31.231189],[121.399729,31.231189],[121.399697,31.231187],[121.399662,31.231181],[121.399628,31.231172],[121.399597,31.231161],[121.399562,31.231147],[121.399527,31.231131],[121.399497,31.231114],[121.399469,31.231099],[121.399446,31.231083],[121.399426,31.231059],[121.399402,31.231022],[121.399378,31.230984],[121.399362,31.230951],[121.39935,31.230917],[121.399343,31.230885],[121.399338,31.230852],[121.399336,31.230816],[121.399338,31.230773],[121.399342,31.230739],[121.399347,31.230719],[121.399352,31.230699],[121.399358,31.230678],[121.399365,31.230653],[121.399374,31.230622],[121.399384,31.230591],[121.399393,31.230559],[121.399402,31.230528],[121.39941,31.230501],[121.39942,31.230468],[121.399429,31.230436],[121.399436,31.230409],[121.399444,31.230381],[121.399453,31.230349],[121.399462,31.23032],[121.399469,31.230296],[121.399477,31.230268],[121.399487,31.230235],[121.399497,31.230205],[121.399505,31.230179],[121.399514,31.230152],[121.399525,31.230121],[121.399536,31.230091],[121.399546,31.230066],[121.399555,31.230042],[121.399565,31.230017],[121.399576,31.229989],[121.399587,31.229963],[121.399599,31.229939],[121.399618,31.229907],[121.399643,31.229875],[121.399668,31.229851],[121.399695,31.229827],[121.399723,31.229808],[121.39975,31.229792],[121.399782,31.229777],[121.39981,31.229766],[121.39984,31.229758],[121.399872,31.229751],[121.399902,31.229747],[121.399932,31.229744],[121.399968,31.229744],[121.400007,31.229746],[121.400043,31.22975],[121.400078,31.229757],[121.400114,31.229767],[121.400148,31.22978],[121.400177,31.229796],[121.400201,31.229813],[121.400227,31.229833],[121.40025,31.229855],[121.40027,31.229877],[121.400287,31.229903],[121.400305,31.229931],[121.40032,31.229958],[121.40033,31.229983],[121.400337,31.230009],[121.400342,31.230038],[121.400344,31.230069],[121.400345,31.230105],[121.400342,31.230146],[121.400336,31.230184],[121.400326,31.230221],[121.400317,31.230258],[121.400309,31.230288],[121.400301,31.230315],[121.400292,31.230347],[121.400284,31.230377],[121.400277,31.230404],[121.400268,31.230436],[121.400259,31.230466],[121.400251,31.230492],[121.400243,31.23052],[121.400233,31.230552],[121.400225,31.230583],[121.400217,31.230609],[121.40021,31.230634],[121.400203,31.23066],[121.400195,31.230688],[121.400188,31.230714],[121.40018,31.23074],[121.400171,31.23077],[121.400162,31.2308],[121.400154,31.230825],[121.400145,31.230855],[121.400136,31.230883],[121.400128,31.230905],[121.400119,31.230929],[121.400108,31.230957],[121.400096,31.230984],[121.400078,31.231013],[121.400055,31.231043],[121.400032,31.231069],[121.400007,31.231093],[121.399981,31.231114],[121.399954,31.231133],[121.399924,31.23115],[121.399884,31.231162],[121.399842,31.231171],[121.399807,31.231178],[121.399768,31.231181],[121.39973,31.231182],[121.399697,31.23118],[121.399662,31.231174],[121.399631,31.231166],[121.399601,31.231155],[121.399567,31.231141],[121.399533,31.231125],[121.399501,31.231108],[121.399474,31.231091],[121.39945,31.231072],[121.399426,31.231048],[121.399405,31.231021],[121.399387,31.230991],[121.399369,31.230954],[121.399355,31.230919],[121.399347,31.230889],[121.399342,31.23086],[121.399341,31.23083],[121.399343,31.230796],[121.399346,31.230763],[121.399351,31.230733],[121.399356,31.230698],[121.399363,31.230668],[121.399369,31.230646],[121.399378,31.230618],[121.399386,31.23059],[121.399393,31.230565],[121.399403,31.230534],[121.399412,31.230503],[121.399422,31.230469],[121.399434,31.230429],[121.399445,31.230391],[121.399453,31.230362],[121.39946,31.230339],[121.399467,31.230315],[121.399475,31.230288],[121.399484,31.230256],[121.399493,31.230227],[121.399501,31.230202],[121.399509,31.230176],[121.39952,31.230147],[121.39953,31.23012],[121.399539,31.230096],[121.399549,31.23007],[121.399561,31.23004],[121.399575,31.230007],[121.399587,31.229979],[121.399601,31.229949],[121.399618,31.229915],[121.399643,31.229882],[121.399673,31.22985],[121.399701,31.229825],[121.399729,31.229805],[121.399759,31.229788],[121.399789,31.229773],[121.399817,31.229763],[121.399844,31.229755],[121.399873,31.229749],[121.399908,31.229744],[121.399942,31.229742],[121.399973,31.229742],[121.400009,31.229746],[121.400046,31.229752],[121.400086,31.229761],[121.400132,31.229777],[121.400171,31.229795],[121.400203,31.229814],[121.400231,31.229835],[121.400255,31.229858],[121.400276,31.229886],[121.400294,31.229915],[121.400307,31.229943],[121.400318,31.229974],[121.400326,31.230006],[121.40033,31.230034],[121.400333,31.230065],[121.400335,31.230099],[121.400335,31.230132],[121.400332,31.230168],[121.400326,31.230202],[121.400318,31.230234],[121.400306,31.230273],[121.400295,31.230308],[121.400287,31.230338],[121.400278,31.230371],[121.400269,31.230402],[121.400261,31.230435],[121.400252,31.230465],[121.400245,31.230492],[121.400236,31.230521],[121.400227,31.230551],[121.400218,31.230579],[121.40021,31.230606],[121.400201,31.230633],[121.400194,31.230663],[121.400187,31.230692],[121.400179,31.230722],[121.400171,31.230752],[121.400163,31.230779],[121.400155,31.230808],[121.400147,31.230834],[121.400141,31.230857],[121.400132,31.230885],[121.400123,31.230914],[121.400113,31.230941],[121.400099,31.230973],[121.400082,31.231003],[121.400063,31.23103],[121.400039,31.231058],[121.400012,31.231084],[121.399985,31.231105],[121.399958,31.231123],[121.399928,31.231141],[121.399894,31.231156],[121.39986,31.231169],[121.399826,31.23118],[121.399784,31.231182],[121.399738,31.231181],[121.3997,31.23118],[121.399665,31.231177],[121.399633,31.231171],[121.399601,31.23116],[121.399568,31.231144],[121.399536,31.231127],[121.399505,31.231107],[121.399477,31.231088],[121.399451,31.231067],[121.399426,31.231041],[121.399405,31.231015],[121.39939,31.230988],[121.399374,31.230955],[121.39936,31.230921],[121.39935,31.230885],[121.399344,31.230834],[121.399342,31.230781],[121.399346,31.230746],[121.399353,31.230718],[121.39936,31.230689],[121.399367,31.230663],[121.399376,31.230632],[121.399385,31.230602],[121.399393,31.230576],[121.399403,31.230545],[121.399412,31.230515],[121.39942,31.230488],[121.39943,31.230456],[121.399439,31.230424],[121.399446,31.230396],[121.399453,31.230369],[121.399461,31.230337],[121.399473,31.230294],[121.399483,31.230256],[121.399491,31.230228],[121.399499,31.230201],[121.399508,31.230174],[121.399518,31.230145],[121.399531,31.230111],[121.399543,31.23008],[121.399553,31.230055],[121.399564,31.230029],[121.399574,31.230005],[121.399585,31.22998],[121.399598,31.22995],[121.399614,31.22992],[121.399638,31.229884],[121.399669,31.229848],[121.399699,31.229821],[121.399735,31.229795],[121.399769,31.229775],[121.399797,31.229763],[121.399831,31.229753],[121.399867,31.229744],[121.399902,31.229737],[121.399938,31.229733],[121.399975,31.229733],[121.400011,31.229737],[121.400045,31.229743],[121.400084,31.22975],[121.40012,31.229761],[121.40015,31.229773],[121.40018,31.229789],[121.400207,31.229809],[121.400233,31.229831],[121.400257,31.229856],[121.40028,31.229887],[121.400301,31.229921],[121.400314,31.229952],[121.400324,31.229985],[121.400332,31.230023],[121.400337,31.230064],[121.400339,31.230104],[121.400339,31.230144],[121.400334,31.230184],[121.400327,31.230214],[121.400319,31.230242],[121.400311,31.23027],[121.400304,31.230296],[121.400295,31.230326],[121.400287,31.230355],[121.400279,31.23038],[121.400271,31.23041],[121.400262,31.23044],[121.400254,31.230466],[121.400246,31.230492],[121.400239,31.230519],[121.40023,31.230548],[121.400222,31.230578],[121.400214,31.230606],[121.400204,31.230638],[121.400197,31.230665],[121.400189,31.230692],[121.40018,31.230722],[121.400172,31.23075],[121.400162,31.230783],[121.400152,31.230815],[121.400144,31.230842],[121.400134,31.230872],[121.400124,31.230903],[121.400113,31.230933],[121.400099,31.230968],[121.400082,31.231003],[121.400059,31.231035],[121.400032,31.231063],[121.400005,31.231088],[121.399973,31.231111],[121.399939,31.231134],[121.399905,31.231153],[121.399874,31.231167],[121.399839,31.231177],[121.399803,31.231182],[121.399769,31.231182],[121.399731,31.231181],[121.399695,31.231178],[121.399662,31.231175],[121.39963,31.231171],[121.399599,31.231158],[121.399558,31.231135],[121.399518,31.231113],[121.399489,31.231093],[121.399462,31.231069],[121.399436,31.231043],[121.399416,31.231017],[121.399399,31.230989],[121.399384,31.230958],[121.399371,31.230927],[121.399363,31.230897],[121.399357,31.230863],[121.399352,31.230829],[121.399349,31.230796],[121.399349,31.230762],[121.399353,31.230729],[121.399358,31.230697],[121.399365,31.230664],[121.399375,31.230624],[121.399386,31.230586],[121.399395,31.230556],[121.399404,31.230521],[121.399415,31.230487],[121.399425,31.230454],[121.399436,31.230419],[121.399444,31.230388],[121.399452,31.230359],[121.399462,31.230329],[121.399472,31.230298],[121.399482,31.230265],[121.399491,31.230234],[121.399499,31.230204],[121.399508,31.230174],[121.399519,31.230144],[121.399532,31.230113],[121.399549,31.230076],[121.399565,31.230041],[121.399579,31.230013],[121.399594,31.229982],[121.399608,31.229953],[121.399621,31.229926],[121.399639,31.229896],[121.399658,31.229869],[121.39968,31.229845],[121.399705,31.229821],[121.399733,31.229798],[121.399761,31.229779],[121.399788,31.229764],[121.399819,31.229749],[121.399851,31.229738],[121.399882,31.22973],[121.399914,31.229727],[121.399943,31.229727],[121.399976,31.229728],[121.400011,31.229731],[121.400049,31.229737],[121.400086,31.229745],[121.40012,31.229755],[121.400155,31.229769],[121.400187,31.229785],[121.400214,31.229804],[121.40024,31.229826],[121.400263,31.229851],[121.400282,31.229875],[121.4003,31.229901],[121.400316,31.229929],[121.400327,31.229957],[121.400335,31.229985],[121.400341,31.230019],[121.400345,31.230058],[121.400345,31.230111],[121.400342,31.230154],[121.400335,31.230182],[121.400328,31.23021],[121.400321,31.230236],[121.400313,31.230266],[121.400305,31.230296],[121.400298,31.230323],[121.40029,31.230355],[121.400281,31.230386],[121.400273,31.230414],[121.400263,31.230446],[121.400254,31.230477],[121.400247,31.230503],[121.400239,31.230529],[121.400231,31.230557],[121.400222,31.230588],[121.40021,31.23063],[121.400198,31.230668],[121.40019,31.230695],[121.400181,31.230727],[121.400171,31.230757],[121.400163,31.230782],[121.400154,31.230809],[121.400144,31.230839],[121.400134,31.230868],[121.400127,31.23089],[121.400117,31.230915],[121.400108,31.230941],[121.400098,31.230963],[121.40008,31.230995],[121.400059,31.231028],[121.400038,31.231056],[121.400015,31.231083],[121.39998,31.231108],[121.399941,31.231132],[121.39991,31.23115],[121.399878,31.231164],[121.399843,31.231174],[121.399807,31.231179],[121.399774,31.231179],[121.39974,31.231177],[121.399701,31.231173],[121.399664,31.231168],[121.399631,31.231162],[121.399598,31.231151],[121.399564,31.231135],[121.39953,31.231117],[121.3995,31.231098],[121.399475,31.231078],[121.399451,31.231056],[121.399432,31.231033],[121.399416,31.231011],[121.399397,31.230983],[121.399381,31.230953],[121.399369,31.230924],[121.399358,31.230891],[121.39935,31.230857],[121.399345,31.230825],[121.399343,31.230792],[121.399344,31.230759],[121.399348,31.230728],[121.399352,31.230691],[121.399358,31.230654],[121.399366,31.23062],[121.399376,31.230588],[121.399386,31.230557],[121.399397,31.230523],[121.39941,31.230489],[121.399424,31.230451],[121.399436,31.230414],[121.399444,31.230385],[121.399451,31.230353],[121.39946,31.230324],[121.399468,31.230297],[121.399477,31.230267],[121.399485,31.230235],[121.399494,31.230204],[121.399504,31.230174],[121.399515,31.230146],[121.399526,31.23012],[121.399539,31.23009],[121.399551,31.230062],[121.399562,31.230037],[121.399576,31.230005],[121.399592,31.229971],[121.399611,31.229934],[121.399631,31.2299],[121.399651,31.229872],[121.399673,31.229845],[121.399699,31.229819],[121.399728,31.229796],[121.399755,31.229778],[121.399784,31.229763],[121.399816,31.229749],[121.39985,31.229737],[121.399882,31.22973],[121.399914,31.229726],[121.399948,31.229724],[121.399982,31.229725],[121.400012,31.229729],[121.400046,31.229735],[121.400082,31.229744],[121.400122,31.229757],[121.40016,31.229772],[121.40019,31.229788],[121.400217,31.229808],[121.400241,31.229829],[121.400263,31.229853],[121.400283,31.229878],[121.400301,31.229906],[121.400317,31.229934],[121.40033,31.22996],[121.400341,31.22999],[121.400348,31.23002],[121.400351,31.230052],[121.400352,31.23009],[121.400351,31.230125],[121.400348,31.230156],[121.400342,31.230189],[121.400333,31.230227],[121.400323,31.23026],[121.400314,31.230289],[121.400305,31.230321],[121.400294,31.230354],[121.400284,31.230384],[121.400274,31.230413],[121.400265,31.230439],[121.400256,31.230465],[121.400247,31.230495],[121.400237,31.230527],[121.400229,31.230556],[121.400219,31.23059],[121.400209,31.230624],[121.400199,31.230655],[121.40019,31.230686],[121.400178,31.230722],[121.400165,31.230761],[121.400155,31.230795],[121.400146,31.230824],[121.400136,31.230855],[121.400125,31.230887],[121.400113,31.230919],[121.4001,31.23095],[121.400087,31.230981],[121.40007,31.231011],[121.400054,31.231036],[121.400035,31.231058],[121.400009,31.231081],[121.39998,31.231105],[121.399952,31.231126],[121.399923,31.231144],[121.399895,31.231159],[121.399866,31.231169],[121.399837,31.231177],[121.399807,31.231181],[121.399773,31.231183],[121.399736,31.231181],[121.399698,31.231176],[121.399663,31.23117],[121.39963,31.231163],[121.399596,31.231151],[121.399563,31.231136],[121.399535,31.23112],[121.399506,31.231101],[121.399478,31.231079],[121.399455,31.231058],[121.399433,31.231035],[121.399412,31.231008],[121.399395,31.230982],[121.39938,31.230954],[121.399367,31.230924],[121.399356,31.230891],[121.399348,31.230858],[121.399343,31.230828],[121.39934,31.230798],[121.399339,31.230767],[121.39934,31.230739],[121.399344,31.230708],[121.399349,31.230676],[121.399356,31.230646],[121.399365,31.230616],[121.399376,31.230586],[121.399387,31.230557],[121.399401,31.230526],[121.399415,31.230493],[121.399426,31.230462],[121.399435,31.23043],[121.399444,31.230399],[121.399451,31.230369],[121.399459,31.230335],[121.399466,31.2303],[121.399473,31.230265],[121.399481,31.23023],[121.39949,31.2302],[121.399499,31.230172],[121.39951,31.230147],[121.399522,31.230118],[121.399534,31.230089],[121.399547,31.23006],[121.399559,31.230033],[121.399574,31.230002],[121.39959,31.229969],[121.399605,31.229937],[121.39962,31.229908],[121.399636,31.229882],[121.399658,31.229854],[121.399687,31.229821],[121.39972,31.229792],[121.399751,31.229773],[121.399782,31.229758],[121.399816,31.229744],[121.399852,31.229734],[121.399884,31.229727],[121.399919,31.229724],[121.399956,31.229723],[121.399987,31.229724],[121.400019,31.229729],[121.400053,31.229736],[121.400087,31.229746],[121.400121,31.229758],[121.400152,31.229771],[121.400184,31.229787],[121.400213,31.229805],[121.400248,31.22983],[121.400282,31.229859],[121.400301,31.229884],[121.400317,31.22991],[121.400331,31.229937],[121.400341,31.229964],[121.400348,31.229995],[121.400352,31.230029],[121.400355,31.230068],[121.400353,31.230108],[121.400348,31.23014],[121.400343,31.230165],[121.400335,31.230194],[121.400327,31.230225],[121.40032,31.230251],[121.400311,31.230281],[121.400302,31.230312],[121.400294,31.230338],[121.400287,31.230363],[121.400278,31.230392],[121.400268,31.230422],[121.400257,31.230455],[121.400246,31.230489],[121.400236,31.230518],[121.400226,31.230551],[121.400215,31.230584],[121.400206,31.230613],[121.400199,31.230638],[121.40019,31.230667],[121.40018,31.230698],[121.400171,31.230726],[121.400163,31.230752],[121.400154,31.230781],[121.400144,31.230812],[121.400136,31.230838],[121.400127,31.230867],[121.400117,31.230895],[121.400108,31.230923],[121.400099,31.23095],[121.400085,31.230979],[121.400064,31.231012],[121.40004,31.231045],[121.400013,31.231074],[121.399987,31.231098],[121.399955,31.231123],[121.399922,31.231144],[121.399895,31.231158],[121.399864,31.231168],[121.399829,31.231175],[121.399797,31.231178],[121.399761,31.231178],[121.399724,31.231175],[121.399691,31.23117],[121.399657,31.231163],[121.399623,31.231153],[121.399592,31.231142],[121.399563,31.231129],[121.399535,31.231114],[121.399509,31.231096],[121.399483,31.231075],[121.399462,31.231054],[121.399446,31.231033],[121.399429,31.231007],[121.399415,31.230978],[121.399405,31.23095],[121.399397,31.230919],[121.399389,31.230885],[121.399381,31.230852],[121.399373,31.230816],[121.399368,31.230777],[121.399368,31.230742],[121.399371,31.230706],[121.399375,31.230669],[121.399381,31.230633],[121.399388,31.230597],[121.399399,31.230563],[121.399411,31.230529],[121.399423,31.230496],[121.399433,31.230467],[121.399442,31.230438],[121.399451,31.230404],[121.399459,31.230368],[121.399466,31.230334],[121.399472,31.2303],[121.39948,31.230265],[121.399489,31.230231],[121.399498,31.230202],[121.399509,31.230172],[121.399521,31.230142],[121.399531,31.230114],[121.399542,31.230084],[121.399553,31.230053],[121.399565,31.230024],[121.399577,31.229995],[121.39959,31.229967],[121.399604,31.229938],[121.399619,31.229908],[121.399634,31.229881],[121.399654,31.229855],[121.399677,31.229829],[121.3997,31.229807],[121.399726,31.229786],[121.399755,31.229767],[121.399782,31.229754],[121.399812,31.229744],[121.399844,31.229735],[121.399877,31.229729],[121.399918,31.229725],[121.399964,31.229724],[121.400007,31.229727],[121.400046,31.229734],[121.400085,31.229743],[121.400123,31.229754],[121.400154,31.229767],[121.400185,31.229784],[121.400214,31.229804],[121.40024,31.229827],[121.400268,31.229854],[121.400293,31.229881],[121.400313,31.229907],[121.400329,31.229933],[121.40034,31.229962],[121.400349,31.229995],[121.400353,31.230027],[121.400355,31.230058],[121.400354,31.230092],[121.400351,31.230123],[121.400347,31.230151],[121.400342,31.230182],[121.400336,31.230212],[121.400329,31.230246],[121.400321,31.23028],[121.400312,31.230311],[121.400304,31.23034],[121.400295,31.230368],[121.400287,31.230392],[121.400278,31.230421],[121.400267,31.230452],[121.400256,31.230482],[121.400246,31.230515],[121.400236,31.230549],[121.400228,31.230581],[121.400219,31.230612],[121.40021,31.23064],[121.4002,31.230669],[121.400189,31.230701],[121.400178,31.230727],[121.400169,31.230755],[121.40016,31.230787],[121.400153,31.230818],[121.400147,31.230846],[121.400139,31.230875],[121.40013,31.230905],[121.400119,31.230934],[121.400104,31.230964],[121.400086,31.230996],[121.400065,31.231026],[121.40004,31.231055],[121.400012,31.231082],[121.399985,31.231104],[121.399951,31.231127],[121.399912,31.231149],[121.399874,31.231164],[121.399835,31.231173],[121.399798,31.231177],[121.399762,31.231178],[121.399723,31.231177],[121.399685,31.231173],[121.399652,31.231167],[121.399618,31.231156],[121.399586,31.231142],[121.399559,31.231128],[121.399533,31.23111],[121.399508,31.231089],[121.399484,31.231066],[121.399461,31.231038],[121.399441,31.231011],[121.399421,31.230978],[121.399402,31.230939],[121.399389,31.230905],[121.399381,31.230875],[121.399373,31.230843],[121.399368,31.230809],[121.399367,31.230776],[121.39937,31.230741],[121.399375,31.230704],[121.399382,31.230671],[121.399391,31.230638],[121.3994,31.230603],[121.39941,31.230571],[121.399419,31.230537],[121.399428,31.230504],[121.399436,31.230474],[121.399443,31.230441],[121.399448,31.230406],[121.399455,31.230372],[121.399463,31.23034],[121.39947,31.230313],[121.399478,31.230285],[121.399486,31.230255],[121.399495,31.230227],[121.399505,31.230197],[121.399515,31.230166],[121.399525,31.230137],[121.399536,31.230105],[121.399548,31.230071],[121.399559,31.23004],[121.39957,31.230011],[121.399582,31.229981],[121.399594,31.229955],[121.399606,31.229932],[121.399621,31.229908],[121.399637,31.229882],[121.399655,31.229858],[121.399678,31.229832],[121.399704,31.229806],[121.399732,31.229786],[121.399764,31.229767],[121.399801,31.22975],[121.399835,31.229739],[121.399873,31.22973],[121.399914,31.229724],[121.399953,31.229721],[121.399995,31.229723],[121.400036,31.229728],[121.400072,31.229734],[121.40011,31.229744],[121.400147,31.229757],[121.40018,31.229773],[121.400213,31.229792],[121.40025,31.22982],[121.400284,31.22985],[121.400308,31.229874],[121.400328,31.2299],[121.400344,31.229927],[121.400354,31.229954],[121.400359,31.229987],[121.400361,31.230021],[121.400361,31.230052],[121.400358,31.230085],[121.400354,31.230116],[121.400349,31.230143],[121.400342,31.230175],[121.400333,31.230211],[121.400324,31.230246],[121.400314,31.230281],[121.400303,31.230316],[121.400293,31.230349],[121.400282,31.230382],[121.400271,31.230414],[121.40026,31.230448],[121.400248,31.230481],[121.400238,31.230511],[121.400229,31.230541],[121.40022,31.230574],[121.400211,31.230608],[121.400203,31.230639],[121.400194,31.230671],[121.400185,31.230703],[121.400176,31.23073],[121.400166,31.230761],[121.400157,31.230794],[121.40015,31.230822],[121.400143,31.230852],[121.400133,31.230883],[121.400124,31.230912],[121.400113,31.230941],[121.400099,31.230971],[121.40008,31.231003],[121.400058,31.231033],[121.400035,31.231058],[121.400008,31.231083],[121.399978,31.231106],[121.399949,31.231125],[121.399915,31.231143],[121.399879,31.231157],[121.399846,31.231166],[121.399808,31.231173],[121.399768,31.231176],[121.39973,31.231177],[121.39969,31.231173],[121.399655,31.231165],[121.399625,31.231155],[121.399592,31.231141],[121.399561,31.231124],[121.399536,31.231107],[121.399512,31.231086],[121.399488,31.231061],[121.399468,31.231037],[121.399446,31.231008],[121.399422,31.230977],[121.3994,31.230946],[121.399381,31.230913],[121.399366,31.230879],[121.399355,31.230847],[121.399349,31.230812],[121.399349,31.230775],[121.399353,31.230743],[121.39936,31.230709],[121.399369,31.230676],[121.399378,31.230646],[121.39939,31.230609],[121.399402,31.230569],[121.399411,31.230535],[121.39942,31.230505],[121.399429,31.230474],[121.399438,31.230441],[121.399444,31.230411],[121.399452,31.230379],[121.39946,31.230347],[121.399467,31.230319],[121.399473,31.230289],[121.39948,31.230255],[121.399489,31.23022],[121.399499,31.230187],[121.39951,31.230155],[121.399521,31.230123],[121.399532,31.230092],[121.399545,31.230059],[121.399559,31.230027],[121.399573,31.229996],[121.399589,31.229966],[121.399607,31.229936],[121.399625,31.229909],[121.399643,31.229883],[121.399663,31.229858],[121.399687,31.229832],[121.399715,31.229807],[121.399742,31.229789],[121.399773,31.229774],[121.399806,31.229761],[121.399837,31.229752],[121.399874,31.229744],[121.399914,31.229739],[121.399952,31.229736],[121.399993,31.229735],[121.400035,31.229738],[121.400073,31.229743],[121.400111,31.229752],[121.400147,31.229765],[121.400184,31.229783],[121.400218,31.229804],[121.400247,31.229825],[121.400274,31.22985],[121.400297,31.229875],[121.400315,31.229899],[121.400332,31.229927],[121.400344,31.229954],[121.400351,31.229985],[121.400355,31.230018],[121.400356,31.230051],[121.400353,31.23009],[121.400347,31.230129],[121.40034,31.230164],[121.400331,31.230206],[121.400318,31.230251],[121.400308,31.230288],[121.400299,31.23032],[121.400289,31.230354],[121.400279,31.230387],[121.40027,31.230417],[121.400258,31.23045],[121.400247,31.230483],[121.400238,31.230512],[121.40023,31.230544],[121.400222,31.230579],[121.400214,31.230611],[121.400205,31.230646],[121.400195,31.23068],[121.400186,31.230711],[121.400177,31.230741],[121.400167,31.230773],[121.400156,31.230809],[121.400146,31.230842],[121.400136,31.230877],[121.400125,31.23091],[121.400114,31.23094],[121.400099,31.230972],[121.40008,31.231005],[121.400061,31.231033],[121.400036,31.23106],[121.400009,31.231086],[121.399982,31.231106],[121.39995,31.231125],[121.399917,31.231142],[121.399884,31.231154],[121.399848,31.231163],[121.399809,31.23117],[121.399772,31.231174],[121.399725,31.231174],[121.399676,31.231168],[121.399636,31.231158],[121.399599,31.231144],[121.399567,31.231128],[121.399537,31.231108],[121.399511,31.231088],[121.399489,31.231068],[121.399467,31.231044],[121.399444,31.231016],[121.399424,31.23099],[121.399406,31.230965],[121.399391,31.230939],[121.399377,31.230907],[121.399366,31.230874],[121.39936,31.230843],[121.399357,31.23081],[121.399359,31.230771],[121.399364,31.23073],[121.399372,31.230695],[121.39938,31.230665],[121.39939,31.230633],[121.3994,31.2306],[121.399409,31.230569],[121.399417,31.230539],[121.399426,31.230507],[121.399435,31.230474],[121.399442,31.230443],[121.399449,31.230409],[121.399456,31.230374],[121.399463,31.230344],[121.399472,31.230311],[121.399481,31.230277],[121.399489,31.230245],[121.399497,31.230209],[121.399507,31.230172],[121.399518,31.230135],[121.39953,31.230098],[121.399544,31.230062],[121.399559,31.230026],[121.399575,31.229994],[121.399592,31.229962],[121.399608,31.229931],[121.399624,31.229903],[121.399642,31.229875],[121.399664,31.229847],[121.399687,31.229823],[121.399715,31.2298],[121.399748,31.22978],[121.399781,31.229765],[121.39982,31.229752],[121.399864,31.229742],[121.399906,31.229736],[121.399948,31.229731],[121.39999,31.229729],[121.400031,31.22973],[121.40007,31.229735],[121.400107,31.229744],[121.400137,31.229753],[121.400168,31.229767],[121.4002,31.229785],[121.400227,31.229804],[121.400253,31.229826],[121.400278,31.229852],[121.400297,31.229876],[121.400314,31.229902],[121.400329,31.22993],[121.40034,31.229956],[121.400347,31.229984],[121.400351,31.230012],[121.400352,31.23004],[121.40035,31.230071],[121.400347,31.230102],[121.400341,31.230135],[121.400333,31.230167],[121.400324,31.230202],[121.400315,31.230238],[121.400307,31.230272],[121.400299,31.230309],[121.400289,31.230347],[121.400278,31.230382],[121.400265,31.230418],[121.400251,31.230454],[121.400239,31.230488],[121.400229,31.230522],[121.400219,31.230558],[121.40021,31.23059],[121.400201,31.230624],[121.400191,31.230659],[121.400183,31.230687],[121.400176,31.230717],[121.400169,31.230749],[121.400161,31.230782],[121.400151,31.230818],[121.400142,31.23085],[121.400133,31.230884],[121.400123,31.230918],[121.400113,31.230949],[121.4001,31.230981],[121.400083,31.231013],[121.400064,31.231038],[121.400042,31.231062],[121.400016,31.231084],[121.399988,31.231102],[121.399955,31.231122],[121.399924,31.231142],[121.399886,31.231155],[121.39984,31.231163],[121.399797,31.231169],[121.399757,31.231171],[121.399716,31.231167],[121.399675,31.23116],[121.399639,31.231149],[121.399602,31.231134],[121.399565,31.231116],[121.399533,31.231096],[121.399501,31.231073],[121.399472,31.231046],[121.399449,31.231019],[121.399428,31.230993],[121.399408,31.230967],[121.39939,31.23094],[121.399375,31.23091],[121.399365,31.230879],[121.399359,31.230846],[121.399355,31.230812],[121.399354,31.230774],[121.399356,31.23074],[121.399359,31.230713],[121.399366,31.230684],[121.399374,31.230655],[121.399383,31.230627],[121.399392,31.230597],[121.399402,31.230567],[121.39941,31.230538],[121.399419,31.230505],[121.399428,31.230471],[121.399435,31.23044],[121.399442,31.230405],[121.399449,31.230369],[121.399454,31.230335],[121.399459,31.230298],[121.399466,31.230262],[121.399474,31.230228],[121.399482,31.230192],[121.399492,31.230158],[121.399502,31.230126],[121.399514,31.230093],[121.399527,31.230059],[121.39954,31.230028],[121.399556,31.229996],[121.399575,31.229963],[121.399592,31.229934],[121.39961,31.229903],[121.399632,31.229872],[121.399654,31.229845],[121.399682,31.229818],[121.399712,31.229793],[121.399742,31.229772],[121.399776,31.229754],[121.399814,31.22974],[121.39985,31.229729],[121.399886,31.229722],[121.399921,31.22972],[121.399959,31.229721],[121.4,31.229724],[121.400037,31.229729],[121.400078,31.229739],[121.40012,31.229754],[121.400156,31.229771],[121.400192,31.229793],[121.400225,31.229816],[121.400252,31.22984],[121.400278,31.229868],[121.400302,31.229899],[121.40032,31.229928],[121.400334,31.22996],[121.400345,31.229995],[121.400351,31.23003],[121.400352,31.230065],[121.40035,31.230098],[121.400345,31.23013],[121.400337,31.230164],[121.400329,31.230201],[121.40032,31.230237],[121.400311,31.230272],[121.400299,31.23031],[121.400287,31.23035],[121.400277,31.230386],[121.400266,31.230423],[121.400253,31.230462],[121.400241,31.230495],[121.400228,31.23053],[121.400214,31.230566],[121.400203,31.230598],[121.400191,31.230634],[121.40018,31.230671],[121.40017,31.230707],[121.400161,31.230742],[121.400153,31.230776],[121.400142,31.230811],[121.400131,31.230847],[121.40012,31.230879],[121.400106,31.230913],[121.400092,31.230946],[121.400077,31.230978],[121.400058,31.231012],[121.400035,31.231046],[121.400011,31.231074],[121.399982,31.231099],[121.399951,31.23112],[121.399921,31.231135],[121.399886,31.231148],[121.399849,31.231159],[121.399816,31.231168],[121.399781,31.231174],[121.399745,31.231176],[121.399708,31.231173],[121.399671,31.231165],[121.399637,31.231154],[121.399599,31.231138],[121.399559,31.231119],[121.399525,31.231099],[121.399493,31.231074],[121.399464,31.231046],[121.399442,31.231019],[121.39942,31.230988],[121.3994,31.230956],[121.399384,31.230924],[121.39937,31.230888],[121.399357,31.230849],[121.39935,31.230807],[121.399351,31.230765],[121.39936,31.230725],[121.399371,31.230686],[121.39938,31.23065],[121.399391,31.230612],[121.399403,31.230573],[121.399412,31.230537],[121.399419,31.230499],[121.399424,31.230464],[121.39943,31.230434],[121.399435,31.230402],[121.399442,31.230368],[121.399447,31.230335],[121.399453,31.230299],[121.399459,31.230263],[121.399463,31.230228],[121.399467,31.230188],[121.399473,31.230148],[121.399482,31.230112],[121.399492,31.230078],[121.399502,31.230047],[121.399511,31.230014],[121.399517,31.229985],[121.399522,31.229957],[121.39953,31.229924],[121.399542,31.229895],[121.399557,31.229871],[121.399566,31.22986]]}}]}