{"type":"FeatureCollection","features":[{"type":"Feature","properties":{"id":"2026-05-26_walking_41","type":"walking","date":"2026-05-26"},"geometry":{"type":"LineString","coordinates":[[121.399109,31.230691],[121.399114,31.230691],[121.399124,31.23069],[121.399135,31.230687],[121.399145,31.230682],[121.39916,31.230677],[121.399175,31.23067],[121.39919,31.230663],[121.399203,31.230655],[121.399213,31.230649],[121.39922,31.230646],[121.399225,31.230647],[121.399229,31.230648],[121.399235,31.230638],[121.399243,31.230623],[121.399249,31.230613],[121.399253,31.230603],[121.399255,31.230596],[121.399255,31.230587],[121.399252,31.230577],[121.399253,31.230566],[121.399255,31.230555],[121.399264,31.230543],[121.399281,31.230531],[121.399288,31.230519],[121.399293,31.230502],[121.399297,31.230488],[121.399299,31.230476],[121.3993,31.230461],[121.399302,31.230448],[121.399303,31.23044],[121.399305,31.230432],[121.399307,31.23042],[121.399309,31.230407],[121.39931,31.230394],[121.39931,31.230382],[121.39931,31.230373],[121.399312,31.230363],[121.399316,31.23035],[121.39932,31.230337],[121.399324,31.230324],[121.399326,31.230311],[121.399325,31.2303],[121.399324,31.230287],[121.399322,31.23027],[121.399323,31.230254],[121.399326,31.230241],[121.39933,31.230231],[121.399336,31.230222],[121.399344,31.23021],[121.399352,31.230198],[121.39936,31.230188],[121.399367,31.230181],[121.399375,31.230174],[121.399383,31.230163],[121.39939,31.230152],[121.399397,31.23014],[121.399404,31.230129],[121.39941,31.230119],[121.399414,31.230112],[121.399417,31.230103],[121.399421,31.230088],[121.399424,31.230067],[121.399421,31.230043],[121.399424,31.230028],[121.399429,31.230015],[121.399431,31.229992],[121.399442,31.22998],[121.399459,31.229979],[121.399471,31.229976],[121.399476,31.229974],[121.39948,31.229966],[121.399485,31.229952],[121.399489,31.229941],[121.399494,31.229931],[121.3995,31.229921],[121.399507,31.229913],[121.399513,31.229909],[121.399518,31.229904],[121.399522,31.229892],[121.399526,31.229879],[121.399529,31.229867],[121.399531,31.229858],[121.399534,31.229851],[121.399539,31.229841],[121.399544,31.229831],[121.399551,31.229822],[121.399559,31.229812],[121.399566,31.229802],[121.399573,31.229787],[121.399583,31.229768],[121.399597,31.229762],[121.399612,31.229764],[121.399624,31.22976],[121.399638,31.229752],[121.399651,31.229744],[121.399663,31.229737],[121.399678,31.22973],[121.399693,31.229723],[121.399707,31.229717],[121.399721,31.229711],[121.399738,31.229705],[121.399754,31.229699],[121.399771,31.229696],[121.399786,31.229693],[121.3998,31.22969],[121.399816,31.229683],[121.399829,31.229675],[121.39984,31.229675],[121.399852,31.22968],[121.399867,31.229681],[121.399882,31.22968],[121.399897,31.229678],[121.399911,31.229677],[121.399925,31.229675],[121.399941,31.229674],[121.399955,31.229673],[121.399965,31.229672],[121.399976,31.229673],[121.399991,31.229674],[121.400007,31.229675],[121.400022,31.229677],[121.400038,31.229679],[121.400054,31.229682],[121.400067,31.229685],[121.400081,31.22969],[121.400097,31.229694],[121.400114,31.229698],[121.400134,31.2297],[121.40015,31.229702],[121.400161,31.229705],[121.400172,31.22971],[121.400182,31.229716],[121.400189,31.229723],[121.4002,31.229731],[121.400211,31.229737],[121.400222,31.229743],[121.400234,31.22975],[121.400243,31.229756],[121.40025,31.229764],[121.400259,31.229773],[121.400267,31.229779],[121.400274,31.229784],[121.400282,31.229788],[121.400295,31.229795],[121.400306,31.229803],[121.40032,31.229811],[121.400338,31.229823],[121.400348,31.229833],[121.400354,31.229843],[121.400353,31.229852],[121.400347,31.229861],[121.400351,31.22987],[121.400361,31.22988],[121.400377,31.229891],[121.400398,31.229902],[121.400408,31.229915],[121.400411,31.22993],[121.400409,31.229946],[121.400408,31.229961],[121.400407,31.229974],[121.400404,31.229986],[121.4004,31.229999],[121.400396,31.230011],[121.400392,31.23002],[121.400388,31.230029],[121.400386,31.230041],[121.400388,31.230057],[121.400393,31.230076],[121.400399,31.230095],[121.4004,31.230109],[121.400399,31.230122],[121.400397,31.230135],[121.400396,31.230147],[121.400396,31.230156],[121.400395,31.230165],[121.400394,31.230175],[121.400393,31.230186],[121.40039,31.2302],[121.400388,31.230213],[121.400385,31.230225],[121.400384,31.230234],[121.400382,31.230244],[121.400379,31.230258],[121.400376,31.230271],[121.400374,31.230284],[121.400371,31.230295],[121.400369,31.230304],[121.400367,31.230313],[121.400363,31.230326],[121.40036,31.230339],[121.400357,31.23035],[121.400355,31.230359],[121.400352,31.230368],[121.400349,31.230381],[121.400345,31.230394],[121.400342,31.230407],[121.40034,31.23042],[121.400338,31.230432],[121.400337,31.230442],[121.400336,31.230453],[121.400335,31.230467],[121.400334,31.230481],[121.400332,31.230495],[121.400329,31.230508],[121.400327,31.230517],[121.400325,31.230528],[121.400321,31.230543],[121.400317,31.230556],[121.400313,31.230569],[121.40031,31.230578],[121.400306,31.230588],[121.400302,31.230601],[121.400298,31.230614],[121.400294,31.230626],[121.400292,31.230635],[121.400289,31.230645],[121.400286,31.230658],[121.400283,31.230672],[121.400279,31.230685],[121.400276,31.230698],[121.400273,31.230707],[121.400269,31.230718],[121.400263,31.230733],[121.400252,31.230751],[121.400242,31.23077],[121.400238,31.230785],[121.400235,31.230796],[121.400232,31.230805],[121.40023,31.230816],[121.400228,31.230826],[121.400224,31.230837],[121.40022,31.230849],[121.400218,31.230859],[121.400216,31.230868],[121.400212,31.23088],[121.400207,31.230892],[121.400202,31.230905],[121.400197,31.230918],[121.400192,31.230932],[121.400187,31.230943],[121.400182,31.230955],[121.400176,31.230969],[121.40017,31.230983],[121.400165,31.230995],[121.40016,31.231004],[121.400155,31.231014],[121.400148,31.231026],[121.400142,31.231037],[121.400137,31.231048],[121.400132,31.231059],[121.400127,31.231069],[121.400123,31.231078],[121.400118,31.231089],[121.400112,31.231099],[121.400105,31.231108],[121.400099,31.231114],[121.400091,31.23112],[121.40008,31.231128],[121.400068,31.231134],[121.400057,31.23114],[121.400047,31.231145],[121.400035,31.231152],[121.400021,31.23116],[121.400009,31.231168],[121.399997,31.231177],[121.399984,31.231187],[121.399971,31.231197],[121.399956,31.231205],[121.399941,31.231212],[121.399927,31.231219],[121.399914,31.231227],[121.399902,31.231235],[121.399889,31.231243],[121.399876,31.231249],[121.399864,31.231253],[121.399849,31.231256],[121.399833,31.231257],[121.399817,31.231257],[121.399804,31.231259],[121.399791,31.23126],[121.399778,31.231261],[121.399766,31.231262],[121.399752,31.231263],[121.399741,31.231265],[121.399731,31.231266],[121.399721,31.231267],[121.399711,31.231267],[121.3997,31.231267],[121.399689,31.231266],[121.399676,31.231264],[121.399662,31.231261],[121.399649,31.231258],[121.399634,31.231256],[121.399622,31.231255],[121.399609,31.231253],[121.399594,31.231251],[121.399581,31.231247],[121.399568,31.231244],[121.399558,31.23124],[121.399546,31.231235],[121.399534,31.231229],[121.399522,31.231224],[121.399513,31.231221],[121.399503,31.231217],[121.399492,31.231212],[121.399481,31.231207],[121.399471,31.231202],[121.399459,31.231196],[121.399446,31.231188],[121.399432,31.231181],[121.399418,31.231175],[121.399401,31.23117],[121.399384,31.231165],[121.39937,31.23116],[121.399355,31.231155],[121.399341,31.231148],[121.399331,31.231142],[121.399321,31.231136],[121.399311,31.231128],[121.3993,31.231121],[121.39929,31.231114],[121.39928,31.231108],[121.399273,31.231101],[121.399266,31.231093],[121.399259,31.231084],[121.399252,31.231074],[121.399246,31.231063],[121.399241,31.231052],[121.399238,31.231043],[121.399236,31.231037],[121.399234,31.23103],[121.399232,31.231021],[121.39923,31.231013],[121.399225,31.231003],[121.399219,31.230988],[121.399215,31.230975],[121.399213,31.230965],[121.399213,31.230954],[121.399213,31.230943],[121.399213,31.230933],[121.399213,31.230922],[121.399214,31.23091],[121.399216,31.230899],[121.399218,31.230888],[121.399219,31.230879],[121.39922,31.23087],[121.399221,31.230859],[121.399223,31.230849],[121.399225,31.230839],[121.399228,31.23083],[121.399233,31.230819],[121.399236,31.230809],[121.399237,31.230795],[121.399237,31.230784],[121.399238,31.230775],[121.39924,31.230762],[121.399242,31.23075],[121.399245,31.230736],[121.399247,31.230724],[121.399248,31.230713],[121.399249,31.230703],[121.399249,31.230697],[121.399249,31.230689],[121.39925,31.230678],[121.39925,31.230666],[121.399251,31.230654],[121.399252,31.23064],[121.399256,31.230627],[121.39926,31.230616],[121.399264,31.230608],[121.399268,31.230599],[121.399273,31.230587],[121.399277,31.230574],[121.399281,31.230563],[121.399285,31.230554],[121.399288,31.230544],[121.399293,31.23053],[121.399297,31.230516],[121.399301,31.230503],[121.399305,31.23049],[121.399308,31.230481],[121.39931,31.23047],[121.399313,31.230457],[121.399316,31.230443],[121.399319,31.23043],[121.399321,31.230419],[121.399322,31.23041],[121.399324,31.2304],[121.399327,31.230387],[121.399329,31.230374],[121.399331,31.230364],[121.399333,31.230356],[121.399335,31.230348],[121.399339,31.230336],[121.399343,31.230324],[121.399347,31.230313],[121.39935,31.230302],[121.399351,31.23029],[121.39935,31.230278],[121.399351,31.230264],[121.399355,31.23025],[121.39936,31.230236],[121.399367,31.230222],[121.399376,31.23021],[121.399382,31.230202],[121.399386,31.230195],[121.399391,31.230185],[121.399396,31.230176],[121.399401,31.230168],[121.399405,31.230157],[121.39941,31.230145],[121.399414,31.230133],[121.399418,31.230122],[121.399422,31.230111],[121.399425,31.230101],[121.399428,31.230088],[121.39943,31.230071],[121.399433,31.230053],[121.39944,31.230033],[121.399446,31.230017],[121.39945,31.230005],[121.399458,31.229993],[121.399467,31.229984],[121.399475,31.229975],[121.399479,31.229967],[121.399482,31.229957],[121.399486,31.229943],[121.399491,31.22993],[121.399497,31.229918],[121.399503,31.229907],[121.399509,31.229895],[121.399514,31.229882],[121.399517,31.229869],[121.399521,31.229858],[121.399527,31.229846],[121.399535,31.229834],[121.399542,31.229823],[121.39955,31.229812],[121.39956,31.229799],[121.399571,31.229786],[121.399583,31.229774],[121.399594,31.229766],[121.399606,31.22976],[121.39962,31.229753],[121.399634,31.229745],[121.399648,31.229737],[121.399662,31.229729],[121.399675,31.229723],[121.399688,31.229717],[121.399704,31.229712],[121.39972,31.229707],[121.399736,31.229703],[121.399754,31.229699],[121.399773,31.229697],[121.399792,31.229695],[121.399807,31.229693],[121.399822,31.22969],[121.399836,31.229688],[121.399849,31.229687],[121.399864,31.229686],[121.399881,31.229684],[121.399897,31.229683],[121.399914,31.229681],[121.399931,31.229679],[121.399948,31.229678],[121.399962,31.229678],[121.399975,31.22968],[121.399991,31.229683],[121.400007,31.229685],[121.400021,31.229687],[121.400034,31.229689],[121.40005,31.229691],[121.400066,31.229694],[121.400082,31.229698],[121.400095,31.229703],[121.400108,31.229708],[121.400124,31.229713],[121.400139,31.229717],[121.400154,31.229721],[121.400168,31.229726],[121.40018,31.22973],[121.400191,31.229735],[121.400204,31.229742],[121.400217,31.229749],[121.400229,31.229757],[121.40024,31.229765],[121.400251,31.229774],[121.400261,31.229781],[121.400271,31.229789],[121.400281,31.229797],[121.400292,31.229805],[121.400302,31.229812],[121.400314,31.229819],[121.400323,31.229826],[121.40033,31.229835],[121.400336,31.229846],[121.400341,31.229856],[121.400345,31.229867],[121.40035,31.229877],[121.400356,31.229886],[121.400367,31.229895],[121.400383,31.229905],[121.400397,31.229916],[121.400406,31.229929],[121.400411,31.229942],[121.400414,31.229953],[121.400418,31.229964],[121.40042,31.229976],[121.40042,31.229989],[121.400421,31.230002],[121.400419,31.230016],[121.400415,31.230026],[121.400407,31.230035],[121.400401,31.230045],[121.400402,31.230059],[121.400405,31.230076],[121.400408,31.230091],[121.400409,31.230103],[121.40041,31.230114],[121.40041,31.230124],[121.40041,31.230135],[121.40041,31.230148],[121.400409,31.23016],[121.400408,31.230172],[121.400405,31.230184],[121.4004,31.230198],[121.400396,31.230207],[121.400393,31.230217],[121.40039,31.23023],[121.400386,31.230244],[121.400382,31.230258],[121.400378,31.230271],[121.400375,31.230279],[121.400373,31.230284],[121.40037,31.230293],[121.400365,31.230308],[121.40036,31.230322],[121.400356,31.230336],[121.400352,31.230348],[121.40035,31.230356],[121.400347,31.230366],[121.400344,31.230379],[121.400341,31.230392],[121.400338,31.230404],[121.400335,31.230415],[121.400334,31.230424],[121.400332,31.230433],[121.400329,31.230445],[121.400327,31.230459],[121.400324,31.230473],[121.400321,31.230486],[121.400318,31.230498],[121.400315,31.23051],[121.400313,31.230518],[121.400311,31.230527],[121.400307,31.230539],[121.400304,31.230552],[121.400299,31.230565],[121.400295,31.230578],[121.400291,31.23059],[121.400287,31.2306],[121.400284,31.230611],[121.400281,31.230624],[121.40028,31.230635],[121.400281,31.230646],[121.400288,31.230656],[121.400295,31.230665],[121.400293,31.230678],[121.400286,31.230692],[121.400279,31.230704],[121.400272,31.230715],[121.400266,31.230725],[121.40026,31.230737],[121.400255,31.230752],[121.40025,31.230766],[121.400246,31.23078],[121.400241,31.230794],[121.400235,31.230808],[121.400231,31.230818],[121.400226,31.230827],[121.40022,31.230839],[121.400214,31.230851],[121.400209,31.230864],[121.400203,31.230877],[121.400199,31.230889],[121.400195,31.230902],[121.400192,31.230915],[121.400188,31.230927],[121.400184,31.230936],[121.40018,31.230945],[121.400176,31.230957],[121.400172,31.230968],[121.400168,31.230979],[121.400164,31.230989],[121.400161,31.230995],[121.400159,31.231002],[121.400155,31.231011],[121.40015,31.231022],[121.400145,31.231035],[121.400141,31.231047],[121.400138,31.23106],[121.400134,31.231073],[121.400131,31.231086],[121.400127,31.231098],[121.400122,31.231108],[121.400116,31.231117],[121.400107,31.231126],[121.400096,31.231133],[121.400081,31.23114],[121.400066,31.231145],[121.400052,31.231151],[121.400038,31.231156],[121.400026,31.231162],[121.400015,31.231169],[121.400005,31.231176],[121.399998,31.231188],[121.399992,31.231199],[121.399983,31.231209],[121.399972,31.231215],[121.399963,31.231218],[121.399955,31.231219],[121.399946,31.23122],[121.399934,31.231222],[121.399922,31.231227],[121.399911,31.231235],[121.399899,31.231243],[121.399887,31.231249],[121.399873,31.231254],[121.399861,31.231258],[121.39985,31.231262],[121.399835,31.231266],[121.399821,31.231269],[121.399806,31.231271],[121.399793,31.231273],[121.399781,31.231273],[121.399766,31.231274],[121.399751,31.231274],[121.399735,31.231272],[121.399719,31.23127],[121.3997,31.231268],[121.399679,31.231266],[121.39966,31.231262],[121.399643,31.23126],[121.39963,31.231259],[121.399617,31.231258],[121.399606,31.231256],[121.399595,31.231254],[121.399582,31.231252],[121.399569,31.231249],[121.399557,31.231246],[121.399543,31.23124],[121.399529,31.231233],[121.399516,31.231227],[121.399504,31.231223],[121.399496,31.231219],[121.399486,31.231216],[121.399473,31.231214],[121.399459,31.231209],[121.399447,31.231202],[121.399436,31.231195],[121.399425,31.231187],[121.399412,31.231181],[121.399401,31.231177],[121.39939,31.231172],[121.399378,31.231167],[121.399365,31.23116],[121.399353,31.231155],[121.399341,31.23115],[121.399331,31.231144],[121.399321,31.231137],[121.39931,31.231128],[121.3993,31.23112],[121.399291,31.231112],[121.399282,31.231102],[121.399274,31.23109],[121.399267,31.231077],[121.399261,31.231066],[121.399256,31.231055],[121.39925,31.231043],[121.399245,31.231032],[121.399241,31.231021],[121.399237,31.231013],[121.399234,31.231005],[121.399229,31.230994],[121.399225,31.230983],[121.399222,31.230971],[121.399219,31.23096],[121.399217,31.23095],[121.399215,31.230941],[121.399213,31.23093],[121.399211,31.230919],[121.399211,31.230907],[121.39921,31.230896],[121.399209,31.230885],[121.399209,31.230874],[121.39921,31.230864],[121.399212,31.230857],[121.399215,31.230847],[121.399217,31.230838],[121.39922,31.230828],[121.399224,31.230818],[121.399229,31.230807],[121.399232,31.230799],[121.399234,31.230791],[121.399238,31.23078],[121.399242,31.230769],[121.399244,31.230754],[121.399244,31.230731],[121.39924,31.230708],[121.399235,31.230693],[121.399232,31.230681],[121.399231,31.23067],[121.399232,31.23066],[121.399235,31.230651],[121.399241,31.230641],[121.399248,31.230635],[121.399253,31.23063],[121.399258,31.230624],[121.399264,31.230618],[121.399268,31.230615],[121.399273,31.23061],[121.39928,31.230602],[121.399285,31.230598],[121.399287,31.230595],[121.399288,31.230587],[121.399288,31.230578],[121.399287,31.230568],[121.399286,31.230558],[121.399288,31.230547],[121.399291,31.230537],[121.399295,31.230528],[121.399298,31.230519],[121.399303,31.230508],[121.399306,31.230497],[121.39931,31.230488],[121.399315,31.230477],[121.399319,31.230465],[121.399321,31.230453],[121.399324,31.23044],[121.399326,31.230427],[121.399328,31.230416],[121.399328,31.230402],[121.399328,31.230389],[121.399328,31.230378],[121.399329,31.230367],[121.39933,31.230358],[121.399331,31.23035],[121.399333,31.230339],[121.399336,31.230326],[121.399338,31.230314],[121.399341,31.230303],[121.399343,31.230296],[121.399347,31.230289],[121.399353,31.230279],[121.399359,31.230268],[121.399366,31.230252],[121.399372,31.230233],[121.399374,31.23022],[121.399377,31.230209],[121.399381,31.230195],[121.399386,31.230183],[121.399392,31.230171],[121.399399,31.230161],[121.399405,31.230151],[121.399412,31.23014],[121.399416,31.23013],[121.39942,31.230121],[121.399424,31.230112],[121.399428,31.230102],[121.399432,31.230091],[121.399435,31.230079],[121.399439,31.230068],[121.399443,31.230058],[121.399446,31.230048],[121.39945,31.230036],[121.399453,31.230023],[121.399457,31.230009],[121.399461,31.229997],[121.399464,31.229985],[121.399468,31.229972],[121.399471,31.229959],[121.399474,31.229946],[121.399476,31.229936],[121.399477,31.229928],[121.399481,31.229918],[121.399485,31.229909],[121.399489,31.229899],[121.399494,31.229887],[121.399499,31.229877],[121.399505,31.229868],[121.399512,31.229857],[121.399519,31.229845],[121.399526,31.229832],[121.399535,31.229818],[121.399544,31.229804],[121.399555,31.229791],[121.399569,31.229776],[121.399582,31.229765],[121.399592,31.229756],[121.399605,31.229747],[121.399619,31.229736],[121.399635,31.229726],[121.39965,31.229719],[121.399665,31.229715],[121.399682,31.229711],[121.3997,31.229708],[121.399719,31.229706],[121.399739,31.229703],[121.399755,31.2297],[121.39977,31.229697],[121.399785,31.229693],[121.399799,31.229689],[121.399813,31.229685],[121.399827,31.229681],[121.399842,31.229677],[121.399853,31.229674],[121.399864,31.229672],[121.399878,31.229669],[121.399891,31.229667],[121.399906,31.229666],[121.399921,31.229665],[121.399934,31.229666],[121.399945,31.229668],[121.39996,31.22967],[121.399973,31.229673],[121.399986,31.229675],[121.399999,31.229678],[121.400009,31.229679],[121.400019,31.22968],[121.400033,31.229682],[121.400049,31.229685],[121.400065,31.229688],[121.40008,31.229691],[121.400095,31.229696],[121.400107,31.229699],[121.400118,31.229703],[121.400131,31.229708],[121.400145,31.229713],[121.400159,31.22972],[121.40017,31.229727],[121.40018,31.229733],[121.400192,31.229741],[121.400204,31.229749],[121.400216,31.229757],[121.400229,31.229765],[121.400241,31.229771],[121.400251,31.229777],[121.400263,31.229785],[121.400275,31.229793],[121.400287,31.229803],[121.400297,31.229815],[121.400307,31.229827],[121.400316,31.229839],[121.400325,31.22985],[121.400334,31.229862],[121.400343,31.229873],[121.400352,31.229883],[121.400362,31.229893],[121.400371,31.229903],[121.400379,31.229911],[121.400385,31.229918],[121.400391,31.229929],[121.400396,31.22994],[121.400399,31.229953],[121.400401,31.229966],[121.400404,31.229977],[121.400406,31.229986],[121.400409,31.229997],[121.400409,31.23001],[121.400408,31.23002],[121.400408,31.23003],[121.400407,31.230043],[121.400407,31.230056],[121.400407,31.230069],[121.400409,31.230082],[121.40041,31.230092],[121.400412,31.230102],[121.400414,31.230113],[121.400414,31.230126],[121.400413,31.23014],[121.400411,31.230155],[121.400409,31.230169],[121.400406,31.230181],[121.400401,31.230196],[121.400396,31.230211],[121.400392,31.230226],[121.400387,31.23024],[121.400382,31.230255],[121.400378,31.230271],[121.400374,31.230284],[121.400371,31.230296],[121.400367,31.230311],[121.400363,31.230326],[121.400359,31.23034],[121.400354,31.230355],[121.400349,31.230369],[121.400344,31.230383],[121.40034,31.230397],[121.400336,31.23041],[121.400331,31.230423],[121.400327,31.230434],[121.400322,31.230444],[121.400317,31.230457],[121.400312,31.230469],[121.400308,31.230481],[121.400304,31.230493],[121.4003,31.230507],[121.400297,31.23052],[121.400293,31.230532],[121.400289,31.230545],[121.400284,31.230559],[121.400279,31.230573],[121.400273,31.230587],[121.400268,31.230601],[121.400262,31.230615],[121.400257,31.230627],[121.400254,31.230638],[121.40025,31.230653],[121.400246,31.230667],[121.40024,31.230683],[121.400235,31.230696],[121.400232,31.230708],[121.40023,31.230723],[121.400229,31.230737],[121.400228,31.23075],[121.400227,31.230763],[121.400225,31.230777],[121.400222,31.230791],[121.40022,31.230804],[121.400219,31.230816],[121.40022,31.230828],[121.400224,31.230838],[121.400234,31.230847],[121.400245,31.230851],[121.400255,31.230852],[121.400267,31.230855],[121.400277,31.230858],[121.400284,31.230861],[121.400291,31.230865],[121.400298,31.230871],[121.400305,31.230878],[121.400311,31.230885],[121.400318,31.230895],[121.400327,31.230906],[121.400335,31.230918],[121.40034,31.230929],[121.400341,31.230939],[121.400339,31.23095],[121.400334,31.230961],[121.400327,31.230973],[121.400319,31.230984],[121.40031,31.230998],[121.400301,31.231012],[121.400292,31.231027],[121.400283,31.231043],[121.400272,31.23106],[121.400261,31.231078],[121.400252,31.231091],[121.400244,31.231103],[121.400235,31.231116],[121.400225,31.231128],[121.400216,31.231141],[121.40021,31.231151],[121.400204,31.23116],[121.400196,31.231169],[121.400188,31.231179],[121.400179,31.231187],[121.400169,31.231196],[121.400159,31.231204],[121.400147,31.231212],[121.400135,31.23122],[121.400124,31.231227],[121.40011,31.231237],[121.400092,31.231251],[121.400079,31.231262],[121.400066,31.231272],[121.400055,31.231282],[121.400044,31.231293],[121.400034,31.231302],[121.400025,31.23131],[121.400015,31.231321],[121.400004,31.231333],[121.399993,31.231344],[121.399982,31.231355],[121.399973,31.231366],[121.399964,31.231378],[121.399955,31.231389],[121.399948,31.231402],[121.399943,31.231417],[121.399938,31.231438],[121.399932,31.231459],[121.399927,31.231475],[121.399922,31.231492],[121.399917,31.231508],[121.399913,31.231524],[121.39991,31.231538],[121.399907,31.23155],[121.399905,31.231561],[121.399904,31.231572],[121.399904,31.231582],[121.399903,31.231593],[121.3999,31.231605],[121.399895,31.231618],[121.399887,31.231633],[121.399877,31.231647],[121.399867,31.231663],[121.399856,31.231679],[121.399846,31.231692],[121.399836,31.231704],[121.399825,31.231715],[121.399811,31.231727],[121.399794,31.23174],[121.399773,31.231753],[121.399753,31.231763],[121.399734,31.231769],[121.399712,31.231772],[121.39969,31.231773],[121.399669,31.231772],[121.399647,31.231771],[121.399627,31.231768],[121.39961,31.231765],[121.399594,31.231761],[121.399577,31.231757],[121.39956,31.231753],[121.399542,31.231749],[121.399529,31.231746],[121.399517,31.231743],[121.399501,31.231738],[121.399484,31.231734],[121.399465,31.231729],[121.399447,31.231724],[121.399429,31.231719],[121.399411,31.231715],[121.399394,31.231711],[121.399377,31.231706],[121.39936,31.231702],[121.399343,31.231698],[121.399326,31.231694],[121.399308,31.23169],[121.399291,31.231686],[121.399274,31.231682],[121.399256,31.231677],[121.399242,31.231675],[121.399231,31.231672],[121.399215,31.231668],[121.399199,31.231664],[121.399181,31.23166],[121.399164,31.231655],[121.399148,31.231651],[121.399131,31.231646],[121.399114,31.231641],[121.399098,31.231636],[121.399082,31.231631],[121.399066,31.231627],[121.39905,31.231622],[121.399034,31.231617],[121.399018,31.231612],[121.399003,31.231607],[121.398987,31.231601],[121.398971,31.231595],[121.398956,31.23159],[121.398941,31.231585],[121.398925,31.23158],[121.39891,31.231575],[121.398896,31.23157],[121.398881,31.231566],[121.398867,31.231561],[121.398852,31.231556],[121.398837,31.231551],[121.398823,31.231547],[121.39881,31.231543],[121.398796,31.231539],[121.398783,31.231535],[121.39877,31.231531],[121.398764,31.231527],[121.398762,31.231525],[121.398758,31.231525],[121.398753,31.231527],[121.398749,31.231533],[121.398745,31.231542],[121.39874,31.23155],[121.398734,31.231557],[121.398729,31.231562],[121.398725,31.231571],[121.398724,31.23158],[121.398724,31.23159],[121.398726,31.231601],[121.398729,31.231612],[121.398734,31.231621],[121.398744,31.231629],[121.398754,31.231637],[121.398765,31.231644],[121.398774,31.231651],[121.398779,31.231659],[121.398779,31.231673],[121.398772,31.231691],[121.398755,31.23171],[121.398735,31.231732],[121.398717,31.231752],[121.398701,31.231768],[121.398684,31.231783],[121.398668,31.231798],[121.398653,31.231808],[121.398642,31.231816],[121.398639,31.231819],[121.398639,31.231818],[121.398642,31.231811],[121.398647,31.231802],[121.398651,31.231789],[121.398653,31.231776],[121.398653,31.231765],[121.398651,31.231756],[121.398647,31.231746],[121.398641,31.231737],[121.398631,31.231729],[121.39862,31.231725],[121.398608,31.231722],[121.398593,31.231718],[121.398578,31.231715],[121.398563,31.231712],[121.398553,31.231713],[121.398548,31.231717],[121.398545,31.231722],[121.398546,31.231727],[121.398548,31.231732],[121.398548,31.231738],[121.398538,31.23174],[121.398519,31.231728],[121.398496,31.231708],[121.398481,31.231691],[121.398475,31.231681],[121.398476,31.231676],[121.398475,31.231675],[121.398471,31.231679],[121.398466,31.231687],[121.398456,31.231699],[121.398443,31.231709],[121.39843,31.231712],[121.398419,31.231707],[121.398414,31.2317],[121.398412,31.231693],[121.398411,31.231686],[121.398415,31.231678],[121.398429,31.231664],[121.398446,31.231643],[121.398458,31.231627],[121.39846,31.231637],[121.398458,31.231673],[121.398458,31.231712],[121.398458,31.23174],[121.398458,31.23176],[121.398457,31.231776],[121.398456,31.231792],[121.398458,31.23181],[121.398462,31.231827],[121.398469,31.231843],[121.39848,31.231859],[121.398494,31.231872],[121.39851,31.231882],[121.398528,31.231889],[121.398548,31.231892],[121.398569,31.23189],[121.398591,31.231886],[121.39861,31.231878],[121.398626,31.23187],[121.398639,31.231862],[121.398651,31.231854],[121.398661,31.231843],[121.39867,31.23183],[121.39868,31.231813],[121.398694,31.231794],[121.398709,31.231771],[121.398717,31.231741],[121.398715,31.2317],[121.398706,31.231652],[121.398701,31.231607],[121.398702,31.231576],[121.398703,31.231559],[121.398704,31.231552],[121.398704,31.231548],[121.398704,31.231547],[121.398704,31.231546],[121.398704,31.231546],[121.398704,31.231546],[121.398701,31.231505],[121.398696,31.231451],[121.398698,31.231435],[121.398702,31.231433]]}}]}