{"type":"FeatureCollection","features":[{"type":"Feature","properties":{"name":"Aichi"},"geometry":{"type":"MultiPolygon","coordinates":[[[[137.56109440738197,35.28882391218587],[137.56730570303444,35.28882391218587],[137.57041135086067,35.28128278084705],[137.5642000552082,35.278769070400784],[137.56109440738197,35.278769070400784],[137.55488311172948,35.27374164950824],[137.5579887595557,35.263686807723154],[137.55177746390325,35.26117309727688],[137.54867181607702,35.25865938683061],[137.5455661682508,35.25363196593807],[137.55177746390325,35.24106341370671],[137.5642000552082,35.23352228236789],[137.57041135086067,35.225981151029075],[137.57662264651313,35.220953730136536],[137.57662264651313,35.21844001969026],[137.57662264651313,35.21089888835145],[137.57662264651313,35.198330336120094],[137.57972829433936,35.198330336120094],[137.58904523781806,35.198330336120094],[137.59525653347055,35.20084404656636],[137.60457347694924,35.205871467458905],[137.61389042042794,35.20838517790518],[137.61699606825417,35.21089888835145],[137.6201017160804,35.21089888835145],[137.62320736390663,35.21089888835145],[137.63252430738535,35.21089888835145],[137.64494689869028,35.20838517790518],[137.64494689869028,35.21341259879772],[137.6480525465165,35.215926309244],[137.65426384216897,35.21844001969026],[137.65426384216897,35.22346744058281],[137.6573694899952,35.228494861475355],[137.6635807856477,35.228494861475355],[137.66979208130016,35.228494861475355],[137.67600337695262,35.23100857192162],[137.67910902477885,35.23100857192162],[137.68221467260508,35.23352228236789],[137.68842596825755,35.23100857192162],[137.69463726391,35.23352228236789],[137.7008485595625,35.23100857192162],[137.70705985521496,35.23352228236789],[137.70705985521496,35.23100857192162],[137.71327115086743,35.228494861475355],[137.71637679869366,35.228494861475355],[137.72258809434612,35.23100857192162],[137.72258809434612,35.22346744058281],[137.7287993899986,35.220953730136536],[137.73501068565108,35.220953730136536],[137.74122198130354,35.220953730136536],[137.74432762912977,35.21844001969026],[137.747433276956,35.220953730136536],[137.75053892478223,35.21844001969026],[137.75053892478223,35.220953730136536],[137.75985586826096,35.220953730136536],[137.76917281173965,35.21844001969026],[137.76917281173965,35.21341259879772],[137.76606716391342,35.20838517790518],[137.76917281173965,35.205871467458905],[137.7753841073921,35.20335775701263],[137.77848975521835,35.20335775701263],[137.7847010508708,35.205871467458905],[137.79091234652327,35.205871467458905],[137.79712364217576,35.205871467458905],[137.80333493782823,35.20838517790518],[137.8219688247856,35.215926309244],[137.8374970639168,35.21341259879772],[137.83128576826434,35.21089888835145],[137.8281801204381,35.21089888835145],[137.8281801204381,35.20838517790518],[137.83128576826434,35.205871467458905],[137.8219688247856,35.20335775701263],[137.81886317695938,35.19581662567382],[137.81575752913315,35.185761783888736],[137.81265188130692,35.185761783888736],[137.80644058565446,35.188275494335],[137.80333493782823,35.18324807344246],[137.8095462334807,35.175706942103645],[137.81265188130692,35.17319323165738],[137.81886317695938,35.175706942103645],[137.8219688247856,35.170679521211106],[137.82507447261185,35.16565210031856],[137.8219688247856,35.15811096897975],[137.8281801204381,35.1530835480872],[137.82507447261185,35.15056983764093],[137.8219688247856,35.148056127194664],[137.81575752913315,35.1530835480872],[137.81265188130692,35.14302870630212],[137.81575752913315,35.140514995855845],[137.8095462334807,35.13800128540957],[137.80333493782823,35.13046015407076],[137.800229290002,35.132973864517034],[137.79712364217576,35.13548757496331],[137.79401799434953,35.13548757496331],[137.79401799434953,35.12794644362449],[137.800229290002,35.125432733178215],[137.800229290002,35.11286418094686],[137.800229290002,35.105323049608046],[137.79401799434953,35.10280933916177],[137.79091234652327,35.09526820782296],[137.77848975521835,35.097781918269234],[137.77848975521835,35.1002956287155],[137.77227845956588,35.090240786930416],[137.77227845956588,35.08772707648414],[137.7753841073921,35.07767223469906],[137.76606716391342,35.07264481380651],[137.75985586826096,35.067617392913974],[137.7567502204347,35.0651036824677],[137.747433276956,35.060076261575155],[137.73501068565108,35.05253513023634],[137.73190503782484,35.0475077093438],[137.7287993899986,35.039966578004986],[137.72258809434612,35.03745286755871],[137.7194824465199,35.03493915711244],[137.71637679869366,35.03493915711244],[137.71327115086743,35.024884315327355],[137.7101655030412,35.02237060488108],[137.70395420738873,35.01482947354227],[137.7008485595625,35.00226092131091],[137.7008485595625,34.99974721086464],[137.70395420738873,34.99723350041837],[137.70705985521496,34.994719789972095],[137.70395420738873,34.989692369079556],[137.7008485595625,34.98466494818701],[137.70705985521496,34.97209639595565],[137.70395420738873,34.96958268550938],[137.69463726391,34.97209639595565],[137.69153161608378,34.96204155417057],[137.68842596825755,34.95701413327802],[137.68532032043132,34.95450042283176],[137.68221467260508,34.95450042283176],[137.67910902477885,34.94947300193921],[137.67600337695262,34.944445581046665],[137.66979208130016,34.94695929149294],[137.66047513782144,34.944445581046665],[137.6573694899952,34.93941816015412],[137.65115819434274,34.93187702881531],[137.65115819434274,34.924335897476496],[137.6480525465165,34.91930847658395],[137.6480525465165,34.91679476613768],[137.6480525465165,34.909253634798866],[137.64494689869028,34.90673992435259],[137.64184125086405,34.90673992435259],[137.64184125086405,34.90171250346005],[137.64184125086405,34.89668508256751],[137.63873560303782,34.89165766167496],[137.63252430738535,34.886630240782424],[137.62320736390663,34.88160281988988],[137.62320736390663,34.879089109443605],[137.61699606825417,34.87657539899733],[137.61389042042794,34.874061688551066],[137.6107847726017,34.874061688551066],[137.60767912477547,34.874061688551066],[137.59836218129678,34.87154797810479],[137.59525653347055,34.86652055721225],[137.5921508856443,34.85646571542716],[137.58593958999182,34.84892458408835],[137.5735169986869,34.85143829453462],[137.5642000552082,34.85143829453462],[137.55488311172948,34.85143829453462],[137.55177746390325,34.85143829453462],[137.54867181607702,34.84892458408835],[137.54246052042456,34.843897163195805],[137.53935487259832,34.84138345274953],[137.53314357694586,34.843897163195805],[137.53003792911963,34.84138345274953],[137.5207209856409,34.83886974230326],[137.51761533781468,34.836356031856994],[137.50208709868352,34.83384232141072],[137.4989814508573,34.8263011900719],[137.50208709868352,34.82127376917936],[137.49587580303103,34.82127376917936],[137.4927701552048,34.81624634828682],[137.48655885955233,34.81121892739428],[137.4927701552048,34.80367779605546],[137.4927701552048,34.798650375162914],[137.4927701552048,34.793622954270376],[137.4927701552048,34.78608182293156],[137.48655885955233,34.783568112485284],[137.48034756389987,34.78105440203902],[137.47724191607364,34.7735132707002],[137.47724191607364,34.77099956025393],[137.47724191607364,34.763458428915115],[137.47724191607364,34.7559172975763],[137.4741362682474,34.75340358713003],[137.4741362682474,34.74586245579121],[137.48034756389987,34.74083503489867],[137.47724191607364,34.733293903559854],[137.48034756389987,34.73078019311359],[137.4834532117261,34.7207253513285],[137.48966450737856,34.71569793043596],[137.48966450737856,34.70061566775833],[137.48655885955233,34.68804711552697],[137.4834532117261,34.683019694634424],[137.4834532117261,34.67799227374188],[137.4834532117261,34.67296485284934],[137.45550238129,34.67045114240307],[137.4368684943326,34.6679374319568],[137.37164988998168,34.65536887972544],[137.34059341171934,34.647827748386625],[137.3188538769357,34.64280032749408],[137.25052962475854,34.62269064392391],[137.2474239769323,34.62269064392391],[137.22257879432243,34.612635802138826],[137.2194731464962,34.61514951258509],[137.18841666823386,34.60509467080001],[137.15114889431905,34.59252611856865],[137.1449375986666,34.59001240812238],[137.12319806388294,34.58749869767611],[137.1200924160567,34.58749869767611],[137.11388112040424,34.58749869767611],[137.10766982475178,34.58749869767611],[137.09524723344683,34.59001240812238],[137.07040205083698,34.58749869767611],[137.0362399247484,34.57744385589102],[137.03313427692217,34.57744385589102],[137.0300286290959,34.57995756633729],[137.01760603779098,34.57744385589102],[137.01450038996475,34.57995756633729],[137.01760603779098,34.58498498722984],[137.02071168561721,34.58498498722984],[137.02381733344345,34.58749869767611],[137.0300286290959,34.60006724990747],[137.05797945953202,34.647827748386625],[137.06419075518448,34.65788259017171],[137.0735076986632,34.662910011064255],[137.07971899431567,34.662910011064255],[137.08903593779436,34.65788259017171],[137.08903593779436,34.652855169279164],[137.08903593779436,34.6503414588329],[137.0828246421419,34.647827748386625],[137.08593028996813,34.647827748386625],[137.0921415856206,34.647827748386625],[137.09524723344683,34.64531403794035],[137.09835288127306,34.64531403794035],[137.10766982475178,34.64280032749408],[137.10145852909932,34.640286617047806],[137.10145852909932,34.632745485708995],[137.10766982475178,34.63525919615527],[137.11388112040424,34.63525919615527],[137.11698676823048,34.63525919615527],[137.12319806388294,34.63525919615527],[137.13251500736166,34.640286617047806],[137.13872630301412,34.64531403794035],[137.13872630301412,34.6503414588329],[137.1294093595354,34.652855169279164],[137.1294093595354,34.65536887972544],[137.1449375986666,34.652855169279164],[137.1573601899715,34.65536887972544],[137.1728884291027,34.65788259017171],[137.1822053725814,34.66542372151052],[137.18841666823386,34.67045114240307],[137.19462796388632,34.6679374319568],[137.19773361171258,34.67045114240307],[137.20394490736504,34.67799227374188],[137.2101562030175,34.67799227374188],[137.22257879432243,34.67547856329561],[137.23189573780115,34.683019694634424],[137.23500138562738,34.68804711552697],[137.24431832910608,34.68804711552697],[137.24431832910608,34.69056082597324],[137.24121268127985,34.69056082597324],[137.23810703345362,34.693074536419516],[137.24121268127985,34.69558824686578],[137.24431832910608,34.693074536419516],[137.2474239769323,34.69558824686578],[137.24431832910608,34.698101957312055],[137.24431832910608,34.70061566775833],[137.24121268127985,34.70564308865087],[137.24431832910608,34.70564308865087],[137.25363527258477,34.70564308865087],[137.256740920411,34.698101957312055],[137.25984656823724,34.69558824686578],[137.26295221606347,34.69558824686578],[137.26295221606347,34.698101957312055],[137.26605786388973,34.70815679909714],[137.26295221606347,34.71569793043596],[137.28469175084712,34.73078019311359],[137.3002199899783,34.728266482667316],[137.3002199899783,34.693074536419516],[137.29090304649958,34.693074536419516],[137.28779739867335,34.6855334050807],[137.28469175084712,34.67799227374188],[137.28779739867335,34.67799227374188],[137.2940086943258,34.68050598418816],[137.2940086943258,34.683019694634424],[137.30643128563077,34.68050598418816],[137.30643128563077,34.67799227374188],[137.309536933457,34.683019694634424],[137.31574822910946,34.68804711552697],[137.309536933457,34.693074536419516],[137.31264258128323,34.69558824686578],[137.32195952476192,34.693074536419516],[137.32506517258815,34.7031293782046],[137.31574822910946,34.7031293782046],[137.31574822910946,34.70061566775833],[137.31264258128323,34.70061566775833],[137.309536933457,34.70061566775833],[137.309536933457,34.72575277222104],[137.3188538769357,34.72575277222104],[137.33127646824065,34.72575277222104],[137.32817082041439,34.7207253513285],[137.33127646824065,34.7207253513285],[137.33127646824065,34.71821164088223],[137.33127646824065,34.7207253513285],[137.34059341171934,34.7207253513285],[137.34369905954557,34.72323906177477],[137.35301600302427,34.728266482667316],[137.3468047073718,34.73078019311359],[137.3374877638931,34.728266482667316],[137.32817082041439,34.73078019311359],[137.3188538769357,34.733293903559854],[137.32195952476192,34.75340358713003],[137.32195952476192,34.77099956025393],[137.32506517258815,34.77099956025393],[137.33127646824065,34.78105440203902],[137.32817082041439,34.78608182293156],[137.32506517258815,34.7911092438241],[137.32195952476192,34.7911092438241],[137.31264258128323,34.80367779605546],[137.30332563780453,34.808705216948],[137.29711434215204,34.81121892739428],[137.2940086943258,34.81121892739428],[137.2940086943258,34.808705216948],[137.2940086943258,34.80619150650173],[137.2940086943258,34.80367779605546],[137.29090304649958,34.80367779605546],[137.29090304649958,34.80619150650173],[137.28469175084712,34.80619150650173],[137.28158610302089,34.80619150650173],[137.28158610302089,34.80367779605546],[137.28158610302089,34.80619150650173],[137.27848045519465,34.80619150650173],[137.27848045519465,34.808705216948],[137.28158610302089,34.808705216948],[137.28158610302089,34.81121892739428],[137.27848045519465,34.81121892739428],[137.27537480736842,34.808705216948],[137.27537480736842,34.80619150650173],[137.2722691595422,34.80367779605546],[137.26916351171596,34.80367779605546],[137.26295221606347,34.80619150650173],[137.256740920411,34.80367779605546],[137.25363527258477,34.80619150650173],[137.25052962475854,34.80619150650173],[137.25052962475854,34.81121892739428],[137.2474239769323,34.813732637840545],[137.24431832910608,34.813732637840545],[137.24121268127985,34.813732637840545],[137.23189573780115,34.81624634828682],[137.23189573780115,34.81876005873309],[137.2287900899749,34.81876005873309],[137.22568444214866,34.81876005873309],[137.21636749866997,34.823787479625636],[137.22257879432243,34.81624634828682],[137.2194731464962,34.81624634828682],[137.21636749866997,34.81624634828682],[137.21326185084374,34.81624634828682],[137.2194731464962,34.813732637840545],[137.2101562030175,34.80367779605546],[137.19773361171258,34.81121892739428],[137.19462796388632,34.808705216948],[137.18841666823386,34.79613666471664],[137.18531102040762,34.7911092438241],[137.18841666823386,34.793622954270376],[137.1915223160601,34.7911092438241],[137.18841666823386,34.78859553337783],[137.18841666823386,34.78608182293156],[137.18841666823386,34.78105440203902],[137.18841666823386,34.77602698114647],[137.17909972475516,34.76597213936139],[137.17599407692893,34.76597213936139],[137.16978278127647,34.76597213936139],[137.16667713345024,34.76848584980766],[137.16978278127647,34.77099956025393],[137.1728884291027,34.77099956025393],[137.1728884291027,34.7735132707002],[137.17599407692893,34.7735132707002],[137.17599407692893,34.778540691592745],[137.17599407692893,34.78105440203902],[137.17599407692893,34.783568112485284],[137.16667713345024,34.78859553337783],[137.16667713345024,34.78608182293156],[137.163571485624,34.78608182293156],[137.16046583779774,34.78608182293156],[137.163571485624,34.78608182293156],[137.16046583779774,34.783568112485284],[137.15425454214528,34.783568112485284],[137.15114889431905,34.78105440203902],[137.1449375986666,34.78859553337783],[137.14183195084036,34.78859553337783],[137.13872630301412,34.78859553337783],[137.1356206551879,34.78859553337783],[137.13251500736166,34.78608182293156],[137.13251500736166,34.783568112485284],[137.12630371170917,34.783568112485284],[137.12319806388294,34.78608182293156],[137.11698676823048,34.78859553337783],[137.11698676823048,34.7911092438241],[137.10456417692555,34.7911092438241],[137.10766982475178,34.78859553337783],[137.10456417692555,34.78608182293156],[137.09835288127306,34.783568112485284],[137.08903593779436,34.77602698114647],[137.08593028996813,34.77602698114647],[137.0828246421419,34.78105440203902],[137.07661334648944,34.78608182293156],[137.07040205083698,34.78608182293156],[137.06108510735825,34.783568112485284],[137.04866251605333,34.778540691592745],[137.04245122040086,34.77602698114647],[137.03313427692217,34.778540691592745],[137.02692298126968,34.778540691592745],[137.02071168561721,34.783568112485284],[137.01450038996475,34.78859553337783],[137.01760603779098,34.78859553337783],[137.01450038996475,34.793622954270376],[137.01139474213852,34.79613666471664],[137.00207779865983,34.80367779605546],[136.9989721508336,34.813732637840545],[136.99586650300733,34.81624634828682],[136.9927608551811,34.81624634828682],[136.98965520735487,34.81624634828682],[136.9834439117024,34.81876005873309],[136.97723261604995,34.81876005873309],[136.97102132039748,34.82127376917936],[136.96791567257125,34.82127376917936],[136.96481002474502,34.823787479625636],[136.96170437691876,34.823787479625636],[136.96170437691876,34.8263011900719],[136.95859872909253,34.828814900518175],[136.95859872909253,34.8263011900719],[136.95238743344007,34.823787479625636],[136.94928178561383,34.823787479625636],[136.94928178561383,34.8263011900719],[136.95238743344007,34.828814900518175],[136.9554930812663,34.828814900518175],[136.95238743344007,34.828814900518175],[136.9554930812663,34.8263011900719],[136.95859872909253,34.8263011900719],[136.95859872909253,34.828814900518175],[136.95859872909253,34.83132861096445],[136.9554930812663,34.83384232141072],[136.9554930812663,34.836356031856994],[136.9554930812663,34.83886974230326],[136.95238743344007,34.843897163195805],[136.95238743344007,34.84892458408835],[136.95238743344007,34.843897163195805],[136.9554930812663,34.843897163195805],[136.9554930812663,34.84641087364208],[136.95238743344007,34.84892458408835],[136.9554930812663,34.84892458408835],[136.9554930812663,34.85395200498089],[136.96481002474502,34.86652055721225],[136.96791567257125,34.87154797810479],[136.96791567257125,34.874061688551066],[136.97412696822371,34.874061688551066],[136.97723261604995,34.874061688551066],[136.97102132039748,34.87657539899733],[136.97723261604995,34.894171372121235],[136.9834439117024,34.894171372121235],[136.9834439117024,34.89668508256751],[136.98033826387618,34.89668508256751],[136.98033826387618,34.894171372121235],[136.97723261604995,34.894171372121235],[136.97723261604995,34.89668508256751],[136.97723261604995,34.90673992435259],[136.98033826387618,34.91930847658395],[136.97723261604995,34.924335897476496],[136.98033826387618,34.924335897476496],[136.9834439117024,34.929363318369035],[136.98033826387618,34.93439073926158],[136.9834439117024,34.94947300193921],[136.98654955952864,34.95701413327802],[136.9834439117024,34.95701413327802],[136.9834439117024,34.959527843724295],[136.98033826387618,34.959527843724295],[136.97723261604995,34.944445581046665],[136.97412696822371,34.944445581046665],[136.97412696822371,34.93187702881531],[136.97412696822371,34.91930847658395],[136.97412696822371,34.91679476613768],[136.97102132039748,34.91679476613768],[136.96791567257125,34.914281055691404],[136.97102132039748,34.91176734524514],[136.97412696822371,34.91176734524514],[136.97102132039748,34.909253634798866],[136.97102132039748,34.90673992435259],[136.96791567257125,34.90171250346005],[136.9554930812663,34.88160281988988],[136.96481002474502,34.87657539899733],[136.96170437691876,34.874061688551066],[136.95859872909253,34.874061688551066],[136.95859872909253,34.87154797810479],[136.9554930812663,34.87154797810479],[136.95859872909253,34.87657539899733],[136.94307048996137,34.88160281988988],[136.93996484213514,34.87657539899733],[136.9368591943089,34.879089109443605],[136.93375354648268,34.874061688551066],[136.9368591943089,34.874061688551066],[136.93996484213514,34.87657539899733],[136.9461761377876,34.874061688551066],[136.9461761377876,34.86903426765852],[136.93996484213514,34.86149313631971],[136.9275422508302,34.86652055721225],[136.9275422508302,34.858979425873436],[136.93064789865642,34.858979425873436],[136.9368591943089,34.85646571542716],[136.9368591943089,34.85395200498089],[136.93375354648268,34.85395200498089],[136.93375354648268,34.84892458408835],[136.93064789865642,34.84892458408835],[136.93064789865642,34.85143829453462],[136.9275422508302,34.85143829453462],[136.9275422508302,34.84641087364208],[136.93064789865642,34.84641087364208],[136.93064789865642,34.836356031856994],[136.93064789865642,34.828814900518175],[136.92443660300395,34.828814900518175],[136.92443660300395,34.83132861096445],[136.92133095517772,34.828814900518175],[136.9275422508302,34.8263011900719],[136.92443660300395,34.813732637840545],[136.92133095517772,34.813732637840545],[136.92133095517772,34.80619150650173],[136.9182253073515,34.798650375162914],[136.92133095517772,34.79613666471664],[136.9182253073515,34.78859553337783],[136.91511965952526,34.77099956025393],[136.9182253073515,34.76597213936139],[136.9275422508302,34.763458428915115],[136.9275422508302,34.75843100802257],[136.9368591943089,34.75340358713003],[136.9368591943089,34.75088987668376],[136.94307048996137,34.748376166237485],[136.94928178561383,34.74083503489867],[136.95238743344007,34.7383213244524],[136.96170437691876,34.73580761400613],[136.96791567257125,34.72575277222104],[136.96791567257125,34.72323906177477],[136.96481002474502,34.72323906177477],[136.96481002474502,34.7207253513285],[136.96170437691876,34.7207253513285],[136.96481002474502,34.71821164088223],[136.96791567257125,34.71821164088223],[136.97102132039748,34.71821164088223],[136.97102132039748,34.71569793043596],[136.96791567257125,34.713184219989685],[136.96791567257125,34.71067050954341],[136.97102132039748,34.71067050954341],[136.97412696822371,34.70564308865087],[136.97723261604995,34.70564308865087],[136.97723261604995,34.70061566775833],[136.97412696822371,34.7031293782046],[136.97412696822371,34.698101957312055],[136.97102132039748,34.698101957312055],[136.97102132039748,34.69558824686578],[136.96481002474502,34.70061566775833],[136.95859872909253,34.70061566775833],[136.94928178561383,34.70061566775833],[136.9461761377876,34.70061566775833],[136.93996484213514,34.7031293782046],[136.93996484213514,34.70564308865087],[136.9368591943089,34.70564308865087],[136.9368591943089,34.70815679909714],[136.93375354648268,34.70564308865087],[136.93375354648268,34.7031293782046],[136.93064789865642,34.7031293782046],[136.93064789865642,34.70564308865087],[136.9275422508302,34.70564308865087],[136.92133095517772,34.70564308865087],[136.92443660300395,34.70815679909714],[136.9182253073515,34.70815679909714],[136.9182253073515,34.71067050954341],[136.91201401169903,34.713184219989685],[136.90269706822033,34.71569793043596],[136.89959142039407,34.71821164088223],[136.89027447691538,34.7207253513285],[136.88406318126292,34.72323906177477],[136.871640589958,34.73078019311359],[136.86853494213176,34.73580761400613],[136.86232364647927,34.7383213244524],[136.85921799865304,34.74083503489867],[136.84990105517434,34.748376166237485],[136.8467954073481,34.75340358713003],[136.8467954073481,34.7559172975763],[136.84058411169565,34.763458428915115],[136.84368975952188,34.76597213936139],[136.85921799865304,34.80367779605546],[136.86232364647927,34.813732637840545],[136.86232364647927,34.81624634828682],[136.8654292943055,34.836356031856994],[136.86232364647927,34.84641087364208],[136.85921799865304,34.85395200498089],[136.8561123508268,34.86149313631971],[136.84990105517434,34.86903426765852],[136.83747846386942,34.87657539899733],[136.84058411169565,34.87657539899733],[136.84058411169565,34.879089109443605],[136.83747846386942,34.879089109443605],[136.84058411169565,34.879089109443605],[136.83747846386942,34.88411653033615],[136.83437281604319,34.88160281988988],[136.83437281604319,34.879089109443605],[136.83126716821693,34.874061688551066],[136.8281615203907,34.87657539899733],[136.8281615203907,34.874061688551066],[136.82505587256446,34.87657539899733],[136.82505587256446,34.879089109443605],[136.82195022473823,34.879089109443605],[136.82195022473823,34.88160281988988],[136.82195022473823,34.88411653033615],[136.82195022473823,34.88914395122869],[136.82195022473823,34.89165766167496],[136.82505587256446,34.89165766167496],[136.82505587256446,34.894171372121235],[136.82195022473823,34.90171250346005],[136.82505587256446,34.90422621390632],[136.82195022473823,34.90422621390632],[136.82195022473823,34.91930847658395],[136.82195022473823,34.93187702881531],[136.82505587256446,34.93941816015412],[136.8281615203907,34.959527843724295],[136.8281615203907,34.96204155417057],[136.818844576912,34.967068975063114],[136.83126716821693,34.97963752729447],[136.83437281604319,34.9771238168482],[136.83747846386942,34.97963752729447],[136.83437281604319,34.98215123774074],[136.84058411169565,34.989692369079556],[136.8467954073481,34.99974721086464],[136.84990105517434,34.99723350041837],[136.85300670300057,34.99974721086464],[136.85300670300057,35.00226092131091],[136.84368975952188,35.004774631757186],[136.8467954073481,35.00728834220345],[136.84990105517434,35.009802052649725],[136.8654292943055,35.009802052649725],[136.8654292943055,35.00728834220345],[136.8654292943055,35.004774631757186],[136.86853494213176,35.00728834220345],[136.871640589958,35.012315763096],[136.8561123508268,35.01482947354227],[136.85300670300057,35.017343183988544],[136.86853494213176,35.04248028845126],[136.871640589958,35.0475077093438],[136.871640589958,35.05002141979007],[136.8654292943055,35.05002141979007],[136.86853494213176,35.06258997202143],[136.871640589958,35.07013110336024],[136.87474623778422,35.07264481380651],[136.88095753343669,35.07264481380651],[136.88095753343669,35.07013110336024],[136.88406318126292,35.07013110336024],[136.88406318126292,35.075158524252785],[136.88716882908915,35.075158524252785],[136.88716882908915,35.07013110336024],[136.89027447691538,35.07013110336024],[136.89027447691538,35.07767223469906],[136.89648577256784,35.075158524252785],[136.89648577256784,35.07767223469906],[136.89027447691538,35.07767223469906],[136.89027447691538,35.0826996555916],[136.89027447691538,35.08521336603788],[136.89648577256784,35.08521336603788],[136.89027447691538,35.08772707648414],[136.8933801247416,35.09275449737669],[136.88716882908915,35.09526820782296],[136.88406318126292,35.08772707648414],[136.88095753343669,35.090240786930416],[136.87785188561045,35.09275449737669],[136.87785188561045,35.090240786930416],[136.87474623778422,35.090240786930416],[136.871640589958,35.08772707648414],[136.871640589958,35.090240786930416],[136.86853494213176,35.09275449737669],[136.86853494213176,35.090240786930416],[136.86853494213176,35.08772707648414],[136.8654292943055,35.08521336603788],[136.86853494213176,35.0826996555916],[136.8654292943055,35.075158524252785],[136.8654292943055,35.07767223469906],[136.86232364647927,35.075158524252785],[136.86232364647927,35.07264481380651],[136.86232364647927,35.07013110336024],[136.85921799865304,35.07264481380651],[136.8561123508268,35.07264481380651],[136.8561123508268,35.075158524252785],[136.85300670300057,35.07013110336024],[136.8561123508268,35.07013110336024],[136.85921799865304,35.067617392913974],[136.85921799865304,35.060076261575155],[136.8561123508268,35.05756255112888],[136.85300670300057,35.055048840682616],[136.85300670300057,35.044993998897525],[136.8467954073481,35.0475077093438],[136.8467954073481,35.044993998897525],[136.84990105517434,35.039966578004986],[136.8467954073481,35.04248028845126],[136.84368975952188,35.04248028845126],[136.8467954073481,35.03745286755871],[136.8467954073481,35.03493915711244],[136.83747846386942,35.05253513023634],[136.84058411169565,35.055048840682616],[136.8467954073481,35.055048840682616],[136.8467954073481,35.05756255112888],[136.84368975952188,35.060076261575155],[136.84990105517434,35.07767223469906],[136.8467954073481,35.0826996555916],[136.83747846386942,35.0826996555916],[136.8281615203907,35.0826996555916],[136.82505587256446,35.08018594514533],[136.82195022473823,35.07767223469906],[136.82195022473823,35.07264481380651],[136.818844576912,35.06258997202143],[136.82195022473823,35.06258997202143],[136.82195022473823,35.067617392913974],[136.83126716821693,35.0651036824677],[136.83437281604319,35.06258997202143],[136.83126716821693,35.05253513023634],[136.83747846386942,35.0299117362199],[136.83437281604319,35.0299117362199],[136.81263328125954,35.024884315327355],[136.8095276334333,35.02739802577363],[136.8095276334333,35.05002141979007],[136.81573892908577,35.05002141979007],[136.81573892908577,35.05253513023634],[136.80642198560707,35.05253513023634],[136.79710504212835,35.05253513023634],[136.79710504212835,35.03745286755871],[136.8002106899546,35.03745286755871],[136.8002106899546,35.0299117362199],[136.78468245082342,35.03493915711244],[136.7815768029972,35.03242544666617],[136.79710504212835,35.02237060488108],[136.79399939430212,35.01482947354227],[136.78468245082342,35.01985689443481],[136.7815768029972,35.017343183988544],[136.77847115517096,35.02237060488108],[136.76915421169227,35.02237060488108],[136.7722598595185,35.024884315327355],[136.76294291603978,35.03493915711244],[136.75362597256108,35.05253513023634],[136.75052032473485,35.060076261575155],[136.75052032473485,35.07767223469906],[136.74741467690862,35.0826996555916],[136.74120338125616,35.08772707648414],[136.7349920856037,35.09526820782296],[136.7194638464725,35.10280933916177],[136.71325255082004,35.105323049608046],[136.7008299595151,35.1178916018394],[136.69461866386263,35.12291902273195],[136.67598477690524,35.12794644362449],[136.672879129079,35.13548757496331],[136.66977348125278,35.14302870630212],[136.672879129079,35.155597258533476],[136.672879129079,35.170679521211106],[136.672879129079,35.188275494335],[136.6821960725577,35.20084404656636],[136.67909042473147,35.228494861475355],[136.67909042473147,35.24106341370671],[136.6821960725577,35.248604545045524],[136.6915130160364,35.25363196593807],[136.7008299595151,35.26620051816943],[136.70393560734135,35.27625535995451],[136.71325255082004,35.286310201739596],[136.72567514212497,35.29636504352468],[136.74120338125616,35.32401585843367],[136.74741467690862,35.33155698977248],[136.75052032473485,35.336584410665026],[136.75362597256108,35.34412554200384],[136.75983726821354,35.359207804681475],[136.76915421169227,35.36926264646656],[136.77536550734473,35.36926264646656],[136.79399939430212,35.36674893602029],[136.79399939430212,35.364235225574014],[136.8095276334333,35.359207804681475],[136.83126716821693,35.356694094235195],[136.83437281604319,35.356694094235195],[136.86232364647927,35.36926264646656],[136.8654292943055,35.37177635691283],[136.871640589958,35.3742900673591],[136.89027447691538,35.379317488251644],[136.8933801247416,35.379317488251644],[136.9182253073515,35.379317488251644],[136.92133095517772,35.379317488251644],[136.93375354648268,35.386858619590456],[136.96170437691876,35.39942717182181],[136.96170437691876,35.409482013606905],[136.96170437691876,35.41450943449944],[136.96170437691876,35.41953685539199],[136.97102132039748,35.42205056583826],[136.97723261604995,35.42205056583826],[136.98965520735487,35.42456427628453],[136.9927608551811,35.42456427628453],[136.98654955952864,35.41953685539199],[136.98654955952864,35.417023144945716],[136.98654955952864,35.41450943449944],[136.97723261604995,35.40445459271436],[136.98033826387618,35.401940882268086],[136.98965520735487,35.401940882268086],[136.9927608551811,35.394399750929274],[136.99586650300733,35.391886040483],[136.9989721508336,35.38937233003673],[136.9989721508336,35.38434490914419],[137.00207779865983,35.38183119869792],[137.01450038996475,35.38183119869792],[137.01760603779098,35.37680377780537],[137.02692298126968,35.3742900673591],[137.02692298126968,35.37680377780537],[137.0300286290959,35.37177635691283],[137.0362399247484,35.36674893602029],[137.0455568682271,35.36674893602029],[137.04866251605333,35.364235225574014],[137.04866251605333,35.359207804681475],[137.0455568682271,35.351666673342656],[137.0455568682271,35.3390981211113],[137.04866251605333,35.336584410665026],[137.04866251605333,35.33407070021875],[137.0548738117058,35.336584410665026],[137.06108510735825,35.3390981211113],[137.06419075518448,35.336584410665026],[137.06729640301074,35.33407070021875],[137.0735076986632,35.32652956887994],[137.06419075518448,35.31898843754112],[137.06729640301074,35.30893359575604],[137.07661334648944,35.306419885309765],[137.07971899431567,35.306419885309765],[137.07971899431567,35.3039061748635],[137.07971899431567,35.29636504352468],[137.0828246421419,35.29133762263214],[137.0921415856206,35.29133762263214],[137.09524723344683,35.29133762263214],[137.09835288127306,35.29385133307841],[137.09835288127306,35.29887875397095],[137.10145852909932,35.301392464417226],[137.11698676823048,35.29887875397095],[137.1200924160567,35.29636504352468],[137.12319806388294,35.29636504352468],[137.1294093595354,35.29385133307841],[137.13251500736166,35.29385133307841],[137.1449375986666,35.278769070400784],[137.15114889431905,35.28128278084705],[137.15425454214528,35.278769070400784],[137.16046583779774,35.28379649129332],[137.16667713345024,35.28379649129332],[137.16978278127647,35.27625535995451],[137.1728884291027,35.27374164950824],[137.17599407692893,35.271227939061966],[137.17599407692893,35.26871422861569],[137.1728884291027,35.263686807723154],[137.17599407692893,35.263686807723154],[137.17909972475516,35.25865938683061],[137.1822053725814,35.25363196593807],[137.18531102040762,35.25363196593807],[137.18841666823386,35.25363196593807],[137.1915223160601,35.25363196593807],[137.19462796388632,35.25363196593807],[137.19773361171258,35.25363196593807],[137.2008392595388,35.2511182554918],[137.20394490736504,35.25363196593807],[137.20394490736504,35.256145676384335],[137.20705055519127,35.25363196593807],[137.2101562030175,35.25865938683061],[137.21326185084374,35.25865938683061],[137.2194731464962,35.25865938683061],[137.22257879432243,35.25865938683061],[137.22257879432243,35.256145676384335],[137.2287900899749,35.25865938683061],[137.23189573780115,35.26117309727688],[137.23810703345362,35.26620051816943],[137.24121268127985,35.263686807723154],[137.24431832910608,35.26871422861569],[137.2474239769323,35.26871422861569],[137.25052962475854,35.26871422861569],[137.25363527258477,35.27374164950824],[137.256740920411,35.27374164950824],[137.25984656823724,35.27374164950824],[137.25984656823724,35.27625535995451],[137.25984656823724,35.28128278084705],[137.26295221606347,35.286310201739596],[137.26916351171596,35.286310201739596],[137.27537480736842,35.28882391218587],[137.27537480736842,35.29133762263214],[137.27848045519465,35.28882391218587],[137.28158610302089,35.28882391218587],[137.2940086943258,35.28882391218587],[137.29711434215204,35.28882391218587],[137.3002199899783,35.28882391218587],[137.30332563780453,35.28882391218587],[137.30643128563077,35.29133762263214],[137.31264258128323,35.28882391218587],[137.32506517258815,35.28128278084705],[137.32817082041439,35.28128278084705],[137.33127646824065,35.278769070400784],[137.33127646824065,35.27625535995451],[137.33438211606688,35.27625535995451],[137.3374877638931,35.27625535995451],[137.34369905954557,35.27374164950824],[137.3468047073718,35.26871422861569],[137.34059341171934,35.263686807723154],[137.34369905954557,35.26117309727688],[137.34369905954557,35.25865938683061],[137.35301600302427,35.25865938683061],[137.36543859432922,35.26117309727688],[137.36854424215545,35.26117309727688],[137.37164988998168,35.263686807723154],[137.37786118563415,35.25865938683061],[137.3840724812866,35.26117309727688],[137.38717812911284,35.25363196593807],[137.3840724812866,35.248604545045524],[137.3840724812866,35.24609083459925],[137.3840724812866,35.24357712415298],[137.39028377693907,35.24106341370671],[137.39649507259156,35.24106341370671],[137.3996007204178,35.24106341370671],[137.40581201607026,35.23854970326044],[137.4089176638965,35.236035992814166],[137.41823460737518,35.24106341370671],[137.42755155085388,35.225981151029075],[137.43065719868014,35.22346744058281],[137.4368684943326,35.225981151029075],[137.43997414215883,35.23100857192162],[137.44307978998506,35.23352228236789],[137.44929108563753,35.236035992814166],[137.45550238129,35.24106341370671],[137.45860802911622,35.24106341370671],[137.46171367694245,35.24106341370671],[137.46792497259494,35.24609083459925],[137.47103062042117,35.24609083459925],[137.47724191607364,35.25363196593807],[137.4834532117261,35.256145676384335],[137.4927701552048,35.25865938683061],[137.49587580303103,35.25865938683061],[137.49587580303103,35.26117309727688],[137.49587580303103,35.263686807723154],[137.50519274650975,35.263686807723154],[137.50829839433598,35.26620051816943],[137.51450968998844,35.271227939061966],[137.51450968998844,35.27374164950824],[137.51761533781468,35.27374164950824],[137.5207209856409,35.27374164950824],[137.5207209856409,35.28379649129332],[137.52693228129337,35.28379649129332],[137.53003792911963,35.28379649129332],[137.53314357694586,35.28128278084705],[137.53935487259832,35.28128278084705],[137.5455661682508,35.28128278084705],[137.54867181607702,35.28379649129332],[137.55177746390325,35.28379649129332],[137.56109440738197,35.28379649129332],[137.56109440738197,35.28882391218587]]],[[[136.81263328125954,34.99723350041837],[136.80642198560707,34.99974721086464],[136.8002106899546,35.004774631757186],[136.80331633778084,35.00728834220345],[136.8095276334333,35.012315763096],[136.81573892908577,35.017343183988544],[136.818844576912,35.017343183988544],[136.82195022473823,35.017343183988544],[136.82195022473823,35.012315763096],[136.82195022473823,35.009802052649725],[136.82195022473823,35.00728834220345],[136.818844576912,35.00226092131091],[136.81573892908577,34.99974721086464],[136.81263328125954,34.99723350041837]]],[[[136.818844576912,34.94947300193921],[136.8095276334333,34.95450042283176],[136.818844576912,34.96455526461684],[136.82195022473823,34.96204155417057],[136.82505587256446,34.959527843724295],[136.82195022473823,34.95450042283176],[136.818844576912,34.94947300193921]]],[[[136.8095276334333,34.83886974230326],[136.80642198560707,34.83886974230326],[136.80642198560707,34.84138345274953],[136.80642198560707,34.843897163195805],[136.80642198560707,34.84641087364208],[136.80642198560707,34.84892458408835],[136.80331633778084,34.86149313631971],[136.80331633778084,34.864006846765975],[136.8002106899546,34.86903426765852],[136.8002106899546,34.87154797810479],[136.8002106899546,34.874061688551066],[136.79710504212835,34.874061688551066],[136.79710504212835,34.87657539899733],[136.8002106899546,34.87657539899733],[136.80331633778084,34.87657539899733],[136.80331633778084,34.879089109443605],[136.80642198560707,34.87657539899733],[136.8095276334333,34.87657539899733],[136.8095276334333,34.874061688551066],[136.81263328125954,34.874061688551066],[136.81573892908577,34.87154797810479],[136.818844576912,34.86903426765852],[136.818844576912,34.86652055721225],[136.82195022473823,34.86652055721225],[136.82195022473823,34.864006846765975],[136.82195022473823,34.86149313631971],[136.818844576912,34.86149313631971],[136.818844576912,34.858979425873436],[136.818844576912,34.85143829453462],[136.82195022473823,34.85143829453462],[136.82505587256446,34.85143829453462],[136.82505587256446,34.84892458408835],[136.818844576912,34.84892458408835],[136.81573892908577,34.84641087364208],[136.81263328125954,34.84641087364208],[136.81263328125954,34.843897163195805],[136.81263328125954,34.84138345274953],[136.81263328125954,34.83886974230326],[136.8095276334333,34.83886974230326]]],[[[137.30643128563077,34.80367779605546],[137.3002199899783,34.80619150650173],[137.3002199899783,34.808705216948],[137.30643128563077,34.80619150650173],[137.30643128563077,34.80367779605546]]],[[[137.30643128563077,34.783568112485284],[137.30332563780453,34.793622954270376],[137.31574822910946,34.79613666471664],[137.3188538769357,34.793622954270376],[137.32195952476192,34.78859553337783],[137.32506517258815,34.78608182293156],[137.32195952476192,34.78105440203902],[137.309536933457,34.778540691592745],[137.30643128563077,34.783568112485284]]],[[[137.2287900899749,34.78608182293156],[137.2287900899749,34.78859553337783],[137.23500138562738,34.7911092438241],[137.23500138562738,34.78859553337783],[137.23500138562738,34.78608182293156],[137.2287900899749,34.78608182293156]]],[[[137.09835288127306,34.763458428915115],[137.09835288127306,34.76848584980766],[137.10145852909932,34.76848584980766],[137.10456417692555,34.76597213936139],[137.09835288127306,34.763458428915115]]],[[[137.3188538769357,34.733293903559854],[137.31264258128323,34.733293903559854],[137.30643128563077,34.73580761400613],[137.30643128563077,34.74083503489867],[137.31264258128323,34.74083503489867],[137.31264258128323,34.743348745344946],[137.31574822910946,34.743348745344946],[137.31574822910946,34.748376166237485],[137.3188538769357,34.748376166237485],[137.3188538769357,34.73580761400613],[137.3188538769357,34.733293903559854]]],[[[137.04866251605333,34.71569793043596],[137.04866251605333,34.71821164088223],[137.04866251605333,34.7207253513285],[137.0455568682271,34.7207253513285],[137.0455568682271,34.72575277222104],[137.03934557257463,34.72575277222104],[137.0362399247484,34.7207253513285],[137.0300286290959,34.72323906177477],[137.03313427692217,34.72575277222104],[137.0300286290959,34.728266482667316],[137.0362399247484,34.728266482667316],[137.0362399247484,34.73078019311359],[137.03934557257463,34.733293903559854],[137.0455568682271,34.728266482667316],[137.04866251605333,34.728266482667316],[137.0548738117058,34.72575277222104],[137.04866251605333,34.72323906177477],[137.0548738117058,34.72323906177477],[137.0548738117058,34.7207253513285],[137.05176816387956,34.71569793043596],[137.04866251605333,34.71569793043596]]],[[[137.34059341171934,34.7207253513285],[137.3374877638931,34.7207253513285],[137.3374877638931,34.72575277222104],[137.34369905954557,34.728266482667316],[137.3468047073718,34.728266482667316],[137.34991035519803,34.72575277222104],[137.34369905954557,34.72323906177477],[137.34059341171934,34.7207253513285]]],[[[137.25052962475854,34.71067050954341],[137.2474239769323,34.71067050954341],[137.2474239769323,34.713184219989685],[137.25052962475854,34.713184219989685],[137.25363527258477,34.713184219989685],[137.25363527258477,34.71067050954341],[137.25052962475854,34.71067050954341]]],[[[136.9989721508336,34.70061566775833],[136.99586650300733,34.70564308865087],[136.9989721508336,34.70815679909714],[136.9989721508336,34.70564308865087],[137.00207779865983,34.70815679909714],[137.00518344648606,34.70815679909714],[137.01139474213852,34.70815679909714],[137.01139474213852,34.70564308865087],[136.9989721508336,34.70061566775833]]],[[[137.00518344648606,34.6679374319568],[137.00207779865983,34.6679374319568],[137.00207779865983,34.67045114240307],[136.9989721508336,34.67045114240307],[136.9989721508336,34.67296485284934],[137.00207779865983,34.67799227374188],[137.00518344648606,34.67799227374188],[137.00518344648606,34.683019694634424],[137.0082890943123,34.6855334050807],[137.0082890943123,34.683019694634424],[137.01139474213852,34.67799227374188],[137.00518344648606,34.67547856329561],[137.00518344648606,34.67045114240307],[137.00518344648606,34.6679374319568]]]]}}]}
