{"type":"FeatureCollection","features":[{"type":"Feature","properties":{"name":"Kanagawa"},"geometry":{"type":"MultiPolygon","coordinates":[[[[139.13255220745643,35.670907900019145],[139.13565785528266,35.670907900019145],[139.14186915093512,35.670907900019145],[139.14808044658758,35.6658804791266],[139.1573973900663,35.6658804791266],[139.16050303789254,35.66839418957287],[139.166714333545,35.66085305823405],[139.166714333545,35.65331192689524],[139.166714333545,35.65079821644897],[139.1760312770237,35.648284506002696],[139.17913692484993,35.64577079555643],[139.18534822050242,35.64577079555643],[139.19155951615488,35.648284506002696],[139.1946651639811,35.65079821644897],[139.20087645963358,35.65331192689524],[139.20708775528604,35.65079821644897],[139.21640469876473,35.64577079555643],[139.21640469876473,35.63571595377134],[139.22261599441723,35.62817482243253],[139.219510346591,35.625661111986254],[139.22572164224346,35.62314740153998],[139.23193293789592,35.61560627020117],[139.23193293789592,35.6130925597549],[139.23503858572215,35.610578849308624],[139.2412498813746,35.60555142841608],[139.2474611770271,35.60555142841608],[139.25367247267957,35.60303771796981],[139.25988376833203,35.60303771796981],[139.2660950639845,35.60303771796981],[139.2660950639845,35.60806513886235],[139.26920071181073,35.60806513886235],[139.28162330311568,35.6130925597549],[139.2940458944206,35.610578849308624],[139.29715154224684,35.60806513886235],[139.30025719007307,35.60555142841608],[139.3033628378993,35.60555142841608],[139.312679781378,35.60555142841608],[139.32199672485672,35.60555142841608],[139.3313136683354,35.60303771796981],[139.3406306118141,35.60555142841608],[139.34684190746657,35.60303771796981],[139.3561588509453,35.598010297077266],[139.36237014659775,35.598010297077266],[139.37168709007645,35.59298287618472],[139.37479273790268,35.59298287618472],[139.38100403355514,35.590469165738455],[139.38721532920763,35.58795545529218],[139.39032097703387,35.58795545529218],[139.39032097703387,35.58544174484591],[139.3934266248601,35.58544174484591],[139.39963792051256,35.58544174484591],[139.4027435683388,35.575386903060824],[139.40895486399126,35.575386903060824],[139.40895486399126,35.57287319261455],[139.41827180746998,35.56281835082947],[139.42448310312244,35.55779092993692],[139.42758875094867,35.55276350904438],[139.43380004660114,35.54773608815184],[139.43690569442737,35.545222377705564],[139.4400113422536,35.54270866725929],[139.44311699007983,35.54270866725929],[139.4493282857323,35.53768124636675],[139.45864522921102,35.52762640458167],[139.45553958138478,35.525112694135395],[139.45553958138478,35.52008527324285],[139.46175087703725,35.52008527324285],[139.46485652486348,35.51505785235031],[139.46485652486348,35.510030431457764],[139.4679621726897,35.50500301056522],[139.4679621726897,35.50248930011895],[139.4772791161684,35.50248930011895],[139.48038476399466,35.50248930011895],[139.4834904118209,35.50500301056522],[139.4772791161684,35.510030431457764],[139.4772791161684,35.51254414190404],[139.4834904118209,35.52008527324285],[139.48659605964713,35.52008527324285],[139.48659605964713,35.53014011502793],[139.48659605964713,35.53516753592048],[139.48659605964713,35.53768124636675],[139.48038476399466,35.545222377705564],[139.4834904118209,35.55024979859811],[139.48038476399466,35.55779092993692],[139.4772791161684,35.56281835082947],[139.47417346834217,35.560304640383194],[139.47106782051594,35.560304640383194],[139.4679621726897,35.56533206127574],[139.47106782051594,35.57035948216828],[139.47417346834217,35.575386903060824],[139.4772791161684,35.58041432395336],[139.48038476399466,35.58041432395336],[139.4834904118209,35.582928034399636],[139.48659605964713,35.58544174484591],[139.48970170747336,35.582928034399636],[139.48659605964713,35.5779006135071],[139.4834904118209,35.57035948216828],[139.48659605964713,35.567845771722006],[139.48970170747336,35.560304640383194],[139.49591300312582,35.56281835082947],[139.49591300312582,35.56533206127574],[139.50212429877828,35.567845771722006],[139.50212429877828,35.57035948216828],[139.50522994660452,35.57035948216828],[139.50833559443075,35.575386903060824],[139.50522994660452,35.575386903060824],[139.49591300312582,35.58041432395336],[139.4928073552996,35.58544174484591],[139.4928073552996,35.58795545529218],[139.48659605964713,35.590469165738455],[139.4834904118209,35.59298287618472],[139.4834904118209,35.59549658663099],[139.48038476399466,35.59549658663099],[139.4772791161684,35.60052400752354],[139.47106782051594,35.60052400752354],[139.4679621726897,35.60806513886235],[139.46485652486348,35.60806513886235],[139.45553958138478,35.60555142841608],[139.45243393355855,35.60555142841608],[139.4493282857323,35.610578849308624],[139.45553958138478,35.618119980647435],[139.46175087703725,35.62314740153998],[139.46175087703725,35.625661111986254],[139.46485652486348,35.625661111986254],[139.4679621726897,35.620633691093715],[139.4772791161684,35.618119980647435],[139.4772791161684,35.6130925597549],[139.48038476399466,35.6130925597549],[139.4834904118209,35.60806513886235],[139.48659605964713,35.60806513886235],[139.48970170747336,35.60555142841608],[139.49591300312582,35.60555142841608],[139.49901865095205,35.60555142841608],[139.49591300312582,35.610578849308624],[139.49591300312582,35.618119980647435],[139.50522994660452,35.62314740153998],[139.50833559443075,35.62314740153998],[139.51144124225698,35.62314740153998],[139.51454689008324,35.625661111986254],[139.51765253790947,35.63068853287879],[139.52386383356193,35.63320224332507],[139.5207581857357,35.63822966421761],[139.52386383356193,35.640743374663884],[139.52696948138816,35.64325708511016],[139.53628642486686,35.640743374663884],[139.5487090161718,35.63571595377134],[139.55181466399804,35.63320224332507],[139.56113160747674,35.63320224332507],[139.5673429031292,35.62817482243253],[139.57976549443413,35.620633691093715],[139.58908243791285,35.620633691093715],[139.58908243791285,35.618119980647435],[139.5952937335653,35.618119980647435],[139.604610677044,35.61560627020117],[139.60771632487024,35.61560627020117],[139.6139276205227,35.61560627020117],[139.61703326834896,35.6130925597549],[139.6201389161752,35.6130925597549],[139.62324456400142,35.610578849308624],[139.63256150748012,35.60555142841608],[139.64498409878507,35.598010297077266],[139.65430104226377,35.590469165738455],[139.6667236335687,35.58795545529218],[139.6667236335687,35.58544174484591],[139.67914622487365,35.56281835082947],[139.68225187269988,35.560304640383194],[139.6946744640048,35.55527721949065],[139.7039914074835,35.55276350904438],[139.7039914074835,35.55024979859811],[139.69778011183104,35.54270866725929],[139.70088575965727,35.53768124636675],[139.7039914074835,35.53768124636675],[139.71641399878845,35.53768124636675],[139.72883659009338,35.54270866725929],[139.73504788574584,35.540194956813025],[139.7412591813983,35.545222377705564],[139.7474704770508,35.54270866725929],[139.7567874205295,35.545222377705564],[139.77542130748688,35.53516753592048],[139.79094954661807,35.52762640458167],[139.78784389879183,35.525112694135395],[139.78784389879183,35.52008527324285],[139.79716084227053,35.517571562796576],[139.79094954661807,35.51254414190404],[139.7940551944443,35.51254414190404],[139.79094954661807,35.50751672101149],[139.78784389879183,35.510030431457764],[139.78163260313937,35.51254414190404],[139.77542130748688,35.510030431457764],[139.77231565966065,35.51254414190404],[139.77542130748688,35.51505785235031],[139.77231565966065,35.51505785235031],[139.77231565966065,35.51254414190404],[139.76610436400819,35.52008527324285],[139.76921001183442,35.52259898368912],[139.76610436400819,35.52259898368912],[139.75989306835572,35.53014011502793],[139.7567874205295,35.53014011502793],[139.75057612487703,35.532653825474206],[139.75057612487703,35.53014011502793],[139.75368177270326,35.53014011502793],[139.7567874205295,35.52762640458167],[139.75368177270326,35.525112694135395],[139.75368177270326,35.52259898368912],[139.7567874205295,35.52762640458167],[139.75989306835572,35.525112694135395],[139.76610436400819,35.51254414190404],[139.75368177270326,35.50751672101149],[139.75057612487703,35.510030431457764],[139.7474704770508,35.517571562796576],[139.75057612487703,35.52259898368912],[139.7474704770508,35.52008527324285],[139.74436482922454,35.52008527324285],[139.74436482922454,35.517571562796576],[139.73815353357207,35.51505785235031],[139.73815353357207,35.51254414190404],[139.74436482922454,35.51505785235031],[139.7474704770508,35.51505785235031],[139.75057612487703,35.50751672101149],[139.7474704770508,35.50500301056522],[139.7412591813983,35.50248930011895],[139.73504788574584,35.49997558967267],[139.7319422379196,35.50248930011895],[139.7319422379196,35.51254414190404],[139.73815353357207,35.51254414190404],[139.73815353357207,35.51505785235031],[139.7319422379196,35.51254414190404],[139.7319422379196,35.51505785235031],[139.72573094226715,35.517571562796576],[139.7319422379196,35.51505785235031],[139.7319422379196,35.51254414190404],[139.72262529444092,35.510030431457764],[139.72262529444092,35.50751672101149],[139.72883659009338,35.510030431457764],[139.7319422379196,35.50248930011895],[139.7319422379196,35.49997558967267],[139.71951964661469,35.494948168780134],[139.71330835096222,35.50248930011895],[139.72262529444092,35.50751672101149],[139.71020270313596,35.50248930011895],[139.71951964661469,35.49243445833386],[139.71020270313596,35.489920747887595],[139.69778011183104,35.48489332699505],[139.6946744640048,35.487407037441315],[139.69778011183104,35.489920747887595],[139.6946744640048,35.489920747887595],[139.69156881617857,35.49243445833386],[139.68846316835234,35.494948168780134],[139.68846316835234,35.49243445833386],[139.69156881617857,35.482379616548776],[139.68846316835234,35.4798659061025],[139.6853575205261,35.4798659061025],[139.68225187269988,35.47735219565623],[139.68225187269988,35.47232477476369],[139.6760405770474,35.47232477476369],[139.6760405770474,35.46981106431742],[139.66982928139493,35.467297353871146],[139.6667236335687,35.47483848520996],[139.67293492922116,35.47483848520996],[139.66982928139493,35.47735219565623],[139.64498409878507,35.47483848520996],[139.6418784509588,35.47232477476369],[139.63877280313258,35.46478364342487],[139.63256150748012,35.46478364342487],[139.63256150748012,35.467297353871146],[139.63256150748012,35.46478364342487],[139.63256150748012,35.4622699329786],[139.63566715530635,35.4622699329786],[139.63566715530635,35.46478364342487],[139.63877280313258,35.46478364342487],[139.63877280313258,35.4622699329786],[139.63877280313258,35.45724251208606],[139.63566715530635,35.45472880163979],[139.63256150748012,35.452215091193516],[139.63566715530635,35.452215091193516],[139.6418784509588,35.44970138074724],[139.64498409878507,35.44970138074724],[139.64808974661128,35.45472880163979],[139.65119539443754,35.452215091193516],[139.64498409878507,35.44718767030098],[139.65119539443754,35.444673959854704],[139.65740669009,35.452215091193516],[139.65740669009,35.44970138074724],[139.66051233791623,35.44718767030098],[139.66361798574246,35.44970138074724],[139.6667236335687,35.44970138074724],[139.66361798574246,35.44718767030098],[139.65740669009,35.444673959854704],[139.66051233791623,35.44216024940843],[139.66361798574246,35.44216024940843],[139.66982928139493,35.44970138074724],[139.66982928139493,35.452215091193516],[139.67293492922116,35.44970138074724],[139.66982928139493,35.43964653896216],[139.6760405770474,35.444673959854704],[139.6760405770474,35.44216024940843],[139.68225187269988,35.44216024940843],[139.6760405770474,35.43210540762335],[139.67914622487365,35.429591697177074],[139.6853575205261,35.44216024940843],[139.69156881617857,35.43964653896216],[139.6853575205261,35.4270779867308],[139.68225187269988,35.4270779867308],[139.68225187269988,35.42456427628453],[139.68225187269988,35.42205056583826],[139.67914622487365,35.42205056583826],[139.6760405770474,35.42456427628453],[139.67914622487365,35.41953685539199],[139.67914622487365,35.417023144945716],[139.67914622487365,35.41450943449944],[139.67914622487365,35.409482013606905],[139.66982928139493,35.401940882268086],[139.6667236335687,35.40445459271436],[139.66982928139493,35.40696830316063],[139.6667236335687,35.409482013606905],[139.66361798574246,35.40696830316063],[139.65119539443754,35.41199572405317],[139.6418784509588,35.41199572405317],[139.63256150748012,35.409482013606905],[139.62635021182766,35.409482013606905],[139.6294558596539,35.40445459271436],[139.63877280313258,35.40696830316063],[139.6418784509588,35.40696830316063],[139.64498409878507,35.40445459271436],[139.64498409878507,35.401940882268086],[139.6418784509588,35.401940882268086],[139.63566715530635,35.39942717182181],[139.63256150748012,35.39942717182181],[139.6294558596539,35.401940882268086],[139.62635021182766,35.401940882268086],[139.62324456400142,35.39691346137555],[139.62324456400142,35.394399750929274],[139.62324456400142,35.391886040483],[139.6294558596539,35.394399750929274],[139.63256150748012,35.394399750929274],[139.63566715530635,35.391886040483],[139.63566715530635,35.38937233003673],[139.62635021182766,35.386858619590456],[139.6294558596539,35.38434490914419],[139.63256150748012,35.38183119869792],[139.63877280313258,35.38434490914419],[139.64498409878507,35.38937233003673],[139.65430104226377,35.386858619590456],[139.64808974661128,35.38434490914419],[139.65119539443754,35.38183119869792],[139.64808974661128,35.38183119869792],[139.64498409878507,35.37680377780537],[139.65119539443754,35.37177635691283],[139.65430104226377,35.3742900673591],[139.65740669009,35.37177635691283],[139.65740669009,35.36674893602029],[139.65119539443754,35.36674893602029],[139.65119539443754,35.359207804681475],[139.65430104226377,35.35418038378893],[139.65740669009,35.35418038378893],[139.65740669009,35.34161183155757],[139.64498409878507,35.3390981211113],[139.63877280313258,35.34161183155757],[139.63566715530635,35.336584410665026],[139.63566715530635,35.33155698977248],[139.6294558596539,35.329043279326214],[139.62324456400142,35.33155698977248],[139.63256150748012,35.32652956887994],[139.63256150748012,35.32401585843367],[139.63256150748012,35.321502147987395],[139.63877280313258,35.32652956887994],[139.63256150748012,35.32401585843367],[139.6294558596539,35.329043279326214],[139.63256150748012,35.33155698977248],[139.63877280313258,35.32652956887994],[139.6418784509588,35.33155698977248],[139.64808974661128,35.32652956887994],[139.66051233791623,35.329043279326214],[139.66051233791623,35.321502147987395],[139.65119539443754,35.321502147987395],[139.64808974661128,35.31898843754112],[139.65119539443754,35.31647472709486],[139.64808974661128,35.31144730620231],[139.64808974661128,35.313961016648584],[139.64498409878507,35.31144730620231],[139.64498409878507,35.30893359575604],[139.63566715530635,35.31144730620231],[139.6418784509588,35.306419885309765],[139.6418784509588,35.3039061748635],[139.63877280313258,35.3039061748635],[139.63877280313258,35.301392464417226],[139.63566715530635,35.301392464417226],[139.63256150748012,35.301392464417226],[139.63566715530635,35.29887875397095],[139.63256150748012,35.29385133307841],[139.63566715530635,35.29636504352468],[139.63877280313258,35.29385133307841],[139.6418784509588,35.29887875397095],[139.64498409878507,35.29887875397095],[139.64808974661128,35.29385133307841],[139.64808974661128,35.29133762263214],[139.65119539443754,35.28882391218587],[139.65430104226377,35.28379649129332],[139.66051233791623,35.28379649129332],[139.66361798574246,35.28379649129332],[139.66051233791623,35.286310201739596],[139.65740669009,35.28882391218587],[139.66051233791623,35.29133762263214],[139.66051233791623,35.29385133307841],[139.66051233791623,35.29133762263214],[139.66361798574246,35.28882391218587],[139.66361798574246,35.29385133307841],[139.66361798574246,35.29636504352468],[139.66051233791623,35.29887875397095],[139.66361798574246,35.301392464417226],[139.67293492922116,35.301392464417226],[139.67914622487365,35.29385133307841],[139.6760405770474,35.29385133307841],[139.67914622487365,35.29133762263214],[139.67293492922116,35.28882391218587],[139.67293492922116,35.286310201739596],[139.67293492922116,35.28379649129332],[139.67914622487365,35.286310201739596],[139.6760405770474,35.278769070400784],[139.67914622487365,35.278769070400784],[139.6853575205261,35.27625535995451],[139.6853575205261,35.27374164950824],[139.68846316835234,35.271227939061966],[139.69156881617857,35.26620051816943],[139.69778011183104,35.263686807723154],[139.72262529444092,35.263686807723154],[139.72883659009338,35.26620051816943],[139.7319422379196,35.26620051816943],[139.7319422379196,35.263686807723154],[139.7319422379196,35.26117309727688],[139.73504788574584,35.26117309727688],[139.73815353357207,35.26117309727688],[139.7412591813983,35.25865938683061],[139.74436482922454,35.25865938683061],[139.7474704770508,35.25363196593807],[139.7412591813983,35.2511182554918],[139.73815353357207,35.248604545045524],[139.73504788574584,35.248604545045524],[139.7319422379196,35.24106341370671],[139.72573094226715,35.23854970326044],[139.72573094226715,35.24106341370671],[139.72262529444092,35.24106341370671],[139.71641399878845,35.24609083459925],[139.71951964661469,35.24106341370671],[139.72262529444092,35.236035992814166],[139.72573094226715,35.236035992814166],[139.72883659009338,35.23352228236789],[139.72883659009338,35.228494861475355],[139.72883659009338,35.22346744058281],[139.72573094226715,35.22346744058281],[139.72262529444092,35.22346744058281],[139.72262529444092,35.225981151029075],[139.71951964661469,35.228494861475355],[139.71641399878845,35.225981151029075],[139.71330835096222,35.220953730136536],[139.71641399878845,35.220953730136536],[139.71641399878845,35.21844001969026],[139.72262529444092,35.21844001969026],[139.72573094226715,35.21089888835145],[139.71641399878845,35.21089888835145],[139.69778011183104,35.21089888835145],[139.6853575205261,35.205871467458905],[139.66361798574246,35.19330291522755],[139.65740669009,35.185761783888736],[139.65430104226377,35.175706942103645],[139.65740669009,35.170679521211106],[139.66051233791623,35.170679521211106],[139.66051233791623,35.16816581076483],[139.66361798574246,35.15811096897975],[139.6667236335687,35.16062467942602],[139.6667236335687,35.15811096897975],[139.66982928139493,35.15811096897975],[139.6760405770474,35.15811096897975],[139.67914622487365,35.15811096897975],[139.68225187269988,35.15056983764093],[139.67914622487365,35.148056127194664],[139.68225187269988,35.14554241674839],[139.6760405770474,35.14554241674839],[139.67914622487365,35.14302870630212],[139.67914622487365,35.140514995855845],[139.67293492922116,35.140514995855845],[139.67293492922116,35.13800128540957],[139.66982928139493,35.140514995855845],[139.6667236335687,35.14554241674839],[139.66361798574246,35.14554241674839],[139.66051233791623,35.14554241674839],[139.66361798574246,35.14302870630212],[139.66361798574246,35.140514995855845],[139.66051233791623,35.140514995855845],[139.65740669009,35.13800128540957],[139.65430104226377,35.140514995855845],[139.65119539443754,35.140514995855845],[139.64808974661128,35.14302870630212],[139.65119539443754,35.140514995855845],[139.64808974661128,35.13800128540957],[139.64498409878507,35.13800128540957],[139.6418784509588,35.13800128540957],[139.6418784509588,35.140514995855845],[139.63877280313258,35.140514995855845],[139.6294558596539,35.13800128540957],[139.6294558596539,35.13548757496331],[139.6294558596539,35.13800128540957],[139.62324456400142,35.13800128540957],[139.62324456400142,35.140514995855845],[139.62324456400142,35.14302870630212],[139.62324456400142,35.140514995855845],[139.6201389161752,35.140514995855845],[139.61703326834896,35.13800128540957],[139.61703326834896,35.140514995855845],[139.6139276205227,35.13800128540957],[139.6139276205227,35.140514995855845],[139.61082197269647,35.140514995855845],[139.61082197269647,35.14302870630212],[139.6139276205227,35.14554241674839],[139.61703326834896,35.148056127194664],[139.6139276205227,35.148056127194664],[139.61703326834896,35.15056983764093],[139.6139276205227,35.15056983764093],[139.61082197269647,35.15056983764093],[139.61082197269647,35.1530835480872],[139.60771632487024,35.155597258533476],[139.61082197269647,35.155597258533476],[139.61703326834896,35.155597258533476],[139.6201389161752,35.155597258533476],[139.61703326834896,35.15811096897975],[139.6139276205227,35.15811096897975],[139.61703326834896,35.15811096897975],[139.61703326834896,35.16062467942602],[139.61082197269647,35.15811096897975],[139.61082197269647,35.16313838987229],[139.61703326834896,35.16062467942602],[139.6201389161752,35.16313838987229],[139.62324456400142,35.16313838987229],[139.62635021182766,35.16062467942602],[139.62635021182766,35.16313838987229],[139.62635021182766,35.16565210031856],[139.62324456400142,35.16565210031856],[139.61703326834896,35.16565210031856],[139.61703326834896,35.170679521211106],[139.6201389161752,35.175706942103645],[139.6139276205227,35.18324807344246],[139.6201389161752,35.18324807344246],[139.61703326834896,35.185761783888736],[139.61703326834896,35.190789204781275],[139.61082197269647,35.190789204781275],[139.60771632487024,35.190789204781275],[139.61082197269647,35.19330291522755],[139.60771632487024,35.19330291522755],[139.604610677044,35.19330291522755],[139.60150502921778,35.19330291522755],[139.59839938139154,35.19581662567382],[139.60150502921778,35.198330336120094],[139.604610677044,35.198330336120094],[139.604610677044,35.20335775701263],[139.60771632487024,35.205871467458905],[139.61082197269647,35.205871467458905],[139.61082197269647,35.20838517790518],[139.60771632487024,35.21089888835145],[139.6201389161752,35.20838517790518],[139.62324456400142,35.20838517790518],[139.62635021182766,35.215926309244],[139.62324456400142,35.215926309244],[139.62324456400142,35.21844001969026],[139.62324456400142,35.220953730136536],[139.6201389161752,35.220953730136536],[139.6139276205227,35.22346744058281],[139.60771632487024,35.22346744058281],[139.604610677044,35.22346744058281],[139.604610677044,35.23100857192162],[139.60150502921778,35.23352228236789],[139.60150502921778,35.23854970326044],[139.5952937335653,35.24106341370671],[139.59839938139154,35.24106341370671],[139.59218808573908,35.24357712415298],[139.59218808573908,35.24609083459925],[139.57976549443413,35.25363196593807],[139.5766598466079,35.25363196593807],[139.57976549443413,35.256145676384335],[139.5766598466079,35.26117309727688],[139.5766598466079,35.263686807723154],[139.5673429031292,35.26620051816943],[139.57044855095543,35.26871422861569],[139.5673429031292,35.271227939061966],[139.57044855095543,35.27374164950824],[139.5673429031292,35.28379649129332],[139.57044855095543,35.28379649129332],[139.57044855095543,35.286310201739596],[139.57355419878166,35.286310201739596],[139.57355419878166,35.28882391218587],[139.57044855095543,35.29385133307841],[139.5580259596505,35.29133762263214],[139.5580259596505,35.29636504352468],[139.55181466399804,35.29385133307841],[139.55181466399804,35.29887875397095],[139.55181466399804,35.301392464417226],[139.54560336834555,35.30893359575604],[139.53628642486686,35.30893359575604],[139.53318077704063,35.3039061748635],[139.52386383356193,35.301392464417226],[139.49591300312582,35.306419885309765],[139.4928073552996,35.306419885309765],[139.48970170747336,35.30893359575604],[139.48659605964713,35.306419885309765],[139.48038476399466,35.3039061748635],[139.48659605964713,35.29887875397095],[139.4834904118209,35.29887875397095],[139.4772791161684,35.29887875397095],[139.4772791161684,35.29636504352468],[139.47417346834217,35.29887875397095],[139.4772791161684,35.301392464417226],[139.48038476399466,35.3039061748635],[139.4772791161684,35.31144730620231],[139.4679621726897,35.313961016648584],[139.43690569442737,35.31898843754112],[139.41827180746998,35.31647472709486],[139.40895486399126,35.31647472709486],[139.39653227268633,35.31647472709486],[139.37479273790268,35.313961016648584],[139.37168709007645,35.313961016648584],[139.36237014659775,35.313961016648584],[139.3313136683354,35.31144730620231],[139.3188910770305,35.30893359575604],[139.3188910770305,35.306419885309765],[139.312679781378,35.306419885309765],[139.26920071181073,35.29636504352468],[139.2474611770271,35.29133762263214],[139.23503858572215,35.286310201739596],[139.21019340311227,35.278769070400784],[139.18845386832865,35.263686807723154],[139.16981998137123,35.25363196593807],[139.15118609441384,35.23854970326044],[139.14808044658758,35.24106341370671],[139.14808044658758,35.23854970326044],[139.14497479876135,35.23352228236789],[139.14186915093512,35.215926309244],[139.14186915093512,35.21089888835145],[139.1387635031089,35.20084404656636],[139.1387635031089,35.19330291522755],[139.1387635031089,35.190789204781275],[139.13565785528266,35.185761783888736],[139.1387635031089,35.17822065254992],[139.14186915093512,35.175706942103645],[139.14497479876135,35.170679521211106],[139.14497479876135,35.16816581076483],[139.1387635031089,35.16313838987229],[139.14186915093512,35.16062467942602],[139.14497479876135,35.1530835480872],[139.14186915093512,35.1530835480872],[139.14497479876135,35.15056983764093],[139.14808044658758,35.148056127194664],[139.1573973900663,35.148056127194664],[139.16050303789254,35.14554241674839],[139.16050303789254,35.140514995855845],[139.1573973900663,35.14302870630212],[139.15429174224008,35.140514995855845],[139.15118609441384,35.140514995855845],[139.14808044658758,35.14302870630212],[139.14497479876135,35.14302870630212],[139.1387635031089,35.148056127194664],[139.13565785528266,35.148056127194664],[139.13255220745643,35.15056983764093],[139.1294465596302,35.15056983764093],[139.12323526397773,35.15056983764093],[139.11702396832527,35.14554241674839],[139.11081267267278,35.140514995855845],[139.10149572919408,35.140514995855845],[139.08596749006293,35.140514995855845],[139.0766505465842,35.14554241674839],[139.0673336031055,35.14554241674839],[139.06112230745305,35.14554241674839],[139.05491101180058,35.148056127194664],[139.05180536397432,35.148056127194664],[139.04248842049563,35.15056983764093],[139.0300658291907,35.15056983764093],[139.0300658291907,35.15811096897975],[139.02696018136447,35.16062467942602],[139.0300658291907,35.16565210031856],[139.0300658291907,35.170679521211106],[139.02696018136447,35.170679521211106],[139.02696018136447,35.175706942103645],[139.02385453353824,35.17822065254992],[139.020748885712,35.18073436299619],[139.01453759005952,35.18324807344246],[139.0114319422333,35.18324807344246],[139.0021149987546,35.190789204781275],[138.99590370310213,35.19330291522755],[138.98969240744967,35.20084404656636],[138.98658675962344,35.20084404656636],[138.98658675962344,35.20838517790518],[138.98658675962344,35.21341259879772],[138.98348111179718,35.21844001969026],[138.98348111179718,35.22346744058281],[138.98037546397094,35.23100857192162],[138.9772698161447,35.23352228236789],[138.9772698161447,35.236035992814166],[138.9772698161447,35.24106341370671],[138.9772698161447,35.24609083459925],[138.97416416831848,35.25363196593807],[138.97416416831848,35.26117309727688],[138.98037546397094,35.26871422861569],[138.98348111179718,35.27374164950824],[138.9927980552759,35.28379649129332],[138.99590370310213,35.28882391218587],[139.00522064658082,35.28882391218587],[139.00522064658082,35.29385133307841],[139.0114319422333,35.31144730620231],[139.0114319422333,35.31898843754112],[139.01453759005952,35.321502147987395],[139.01764323788575,35.329043279326214],[139.0114319422333,35.336584410665026],[139.0114319422333,35.34161183155757],[139.00832629440706,35.34915296289638],[139.01453759005952,35.359207804681475],[139.00832629440706,35.359207804681475],[139.00522064658082,35.3742900673591],[138.99900935092836,35.38183119869792],[139.0021149987546,35.39942717182181],[138.99590370310213,35.401940882268086],[138.98658675962344,35.401940882268086],[138.98348111179718,35.40445459271436],[138.97105852049225,35.40445459271436],[138.96795287266602,35.401940882268086],[138.95242463353486,35.401940882268086],[138.94621333788237,35.39942717182181],[138.9400020422299,35.39942717182181],[138.9306850987512,35.401940882268086],[138.91515685962003,35.39942717182181],[138.9182625074463,35.409482013606905],[138.92447380309875,35.41450943449944],[138.92757945092498,35.41953685539199],[138.9306850987512,35.42205056583826],[138.9306850987512,35.42456427628453],[138.92757945092498,35.429591697177074],[138.92757945092498,35.437132828515885],[138.93689639440368,35.444673959854704],[138.93689639440368,35.44970138074724],[138.9555302813611,35.459756222532334],[138.9648472248398,35.46478364342487],[138.96795287266602,35.46478364342487],[138.97416416831848,35.467297353871146],[138.9772698161447,35.46478364342487],[138.98658675962344,35.46981106431742],[138.98969240744967,35.47483848520996],[138.99590370310213,35.47483848520996],[138.99900935092836,35.47483848520996],[139.0021149987546,35.47483848520996],[139.00522064658082,35.47483848520996],[139.00832629440706,35.47483848520996],[139.01453759005952,35.4798659061025],[139.01764323788575,35.4798659061025],[139.020748885712,35.4798659061025],[139.02385453353824,35.4798659061025],[139.02696018136447,35.4798659061025],[139.0300658291907,35.487407037441315],[139.03627712484317,35.489920747887595],[139.04248842049563,35.49746187922641],[139.04559406832186,35.50248930011895],[139.04559406832186,35.510030431457764],[139.05180536397432,35.510030431457764],[139.06112230745305,35.50751672101149],[139.0673336031055,35.510030431457764],[139.07354489875797,35.510030431457764],[139.07975619441044,35.51254414190404],[139.08596749006293,35.51254414190404],[139.0921787857154,35.52008527324285],[139.10149572919408,35.525112694135395],[139.10770702484655,35.532653825474206],[139.113918320499,35.53768124636675],[139.113918320499,35.540194956813025],[139.113918320499,35.54773608815184],[139.11081267267278,35.55024979859811],[139.113918320499,35.55276350904438],[139.12323526397773,35.55779092993692],[139.1294465596302,35.56281835082947],[139.1294465596302,35.57035948216828],[139.12634091180396,35.58041432395336],[139.12323526397773,35.582928034399636],[139.12634091180396,35.582928034399636],[139.12323526397773,35.582928034399636],[139.12323526397773,35.58544174484591],[139.1201296161515,35.58544174484591],[139.12323526397773,35.58795545529218],[139.12323526397773,35.590469165738455],[139.1294465596302,35.59298287618472],[139.13255220745643,35.60806513886235],[139.1294465596302,35.6130925597549],[139.13565785528266,35.61560627020117],[139.13255220745643,35.618119980647435],[139.12634091180396,35.62314740153998],[139.12323526397773,35.62314740153998],[139.12323526397773,35.63320224332507],[139.12634091180396,35.640743374663884],[139.12634091180396,35.64325708511016],[139.12323526397773,35.648284506002696],[139.11702396832527,35.65331192689524],[139.1201296161515,35.65833934778779],[139.12323526397773,35.66085305823405],[139.12323526397773,35.663366768680326],[139.1294465596302,35.66839418957287],[139.1294465596302,35.670907900019145],[139.13255220745643,35.670907900019145]]],[[[139.74436482922454,35.48489332699505],[139.7412591813983,35.487407037441315],[139.73504788574584,35.494948168780134],[139.74436482922454,35.49746187922641],[139.7474704770508,35.49997558967267],[139.7567874205295,35.50248930011895],[139.75989306835572,35.50500301056522],[139.75989306835572,35.50248930011895],[139.75989306835572,35.50500301056522],[139.76921001183442,35.50500301056522],[139.7785269553131,35.50500301056522],[139.77542130748688,35.50248930011895],[139.7785269553131,35.49997558967267],[139.76299871618195,35.49243445833386],[139.75989306835572,35.494948168780134],[139.7567874205295,35.494948168780134],[139.75989306835572,35.489920747887595],[139.7474704770508,35.48489332699505],[139.74436482922454,35.48489332699505]]],[[[139.71330835096222,35.48489332699505],[139.73504788574584,35.494948168780134],[139.73815353357207,35.489920747887595],[139.73504788574584,35.487407037441315],[139.7412591813983,35.47735219565623],[139.73815353357207,35.47483848520996],[139.72573094226715,35.46981106431742],[139.71330835096222,35.46478364342487],[139.70709705530973,35.47483848520996],[139.70088575965727,35.4798659061025],[139.71330835096222,35.48489332699505]]],[[[139.65430104226377,35.4622699329786],[139.64498409878507,35.46981106431742],[139.6418784509588,35.467297353871146],[139.6418784509588,35.46981106431742],[139.6418784509588,35.47232477476369],[139.64498409878507,35.47483848520996],[139.65119539443754,35.47483848520996],[139.65430104226377,35.47232477476369],[139.65119539443754,35.46981106431742],[139.65430104226377,35.46981106431742],[139.65119539443754,35.467297353871146],[139.65430104226377,35.46478364342487],[139.65430104226377,35.4622699329786]]],[[[139.6946744640048,35.44970138074724],[139.68225187269988,35.45724251208606],[139.67293492922116,35.459756222532334],[139.67293492922116,35.46478364342487],[139.69156881617857,35.47232477476369],[139.6946744640048,35.46478364342487],[139.6853575205261,35.459756222532334],[139.68846316835234,35.45724251208606],[139.69778011183104,35.4622699329786],[139.7039914074835,35.45472880163979],[139.6946744640048,35.44970138074724]]],[[[139.64498409878507,35.452215091193516],[139.6418784509588,35.452215091193516],[139.63877280313258,35.452215091193516],[139.63566715530635,35.45472880163979],[139.63877280313258,35.45724251208606],[139.6418784509588,35.45724251208606],[139.6418784509588,35.45472880163979],[139.64498409878507,35.45724251208606],[139.64498409878507,35.452215091193516]]],[[[139.6760405770474,35.39942717182181],[139.66982928139493,35.401940882268086],[139.67914622487365,35.409482013606905],[139.6853575205261,35.409482013606905],[139.68846316835234,35.41199572405317],[139.69156881617857,35.409482013606905],[139.6853575205261,35.40445459271436],[139.68225187269988,35.40445459271436],[139.6760405770474,35.39942717182181]]],[[[139.64498409878507,35.33407070021875],[139.6418784509588,35.336584410665026],[139.6418784509588,35.3390981211113],[139.64498409878507,35.3390981211113],[139.64808974661128,35.3390981211113],[139.64808974661128,35.336584410665026],[139.64498409878507,35.336584410665026],[139.64498409878507,35.33407070021875],[139.64808974661128,35.33407070021875],[139.64498409878507,35.33407070021875]]],[[[139.65119539443754,35.29385133307841],[139.64498409878507,35.29887875397095],[139.64808974661128,35.3039061748635],[139.65119539443754,35.306419885309765],[139.65430104226377,35.306419885309765],[139.65740669009,35.301392464417226],[139.65119539443754,35.29887875397095],[139.65430104226377,35.29636504352468],[139.65119539443754,35.29385133307841]]],[[[139.6294558596539,35.12794644362449],[139.62324456400142,35.132973864517034],[139.6201389161752,35.13046015407076],[139.61703326834896,35.13046015407076],[139.6139276205227,35.132973864517034],[139.61082197269647,35.132973864517034],[139.61082197269647,35.13548757496331],[139.61082197269647,35.13800128540957],[139.61703326834896,35.13548757496331],[139.62324456400142,35.13548757496331],[139.62635021182766,35.132973864517034],[139.6294558596539,35.13046015407076],[139.6294558596539,35.12794644362449]]]]}}]}
