{"type":"FeatureCollection","features":[{"type":"Feature","properties":{"name":"Kyoto"},"geometry":{"type":"MultiPolygon","coordinates":[[[[134.86849774203696,35.65833934778779],[134.8716033898632,35.66085305823405],[134.8716033898632,35.65833934778779],[134.87781468551566,35.66085305823405],[134.88092033334192,35.65833934778779],[134.88092033334192,35.655825637341515],[134.88402598116815,35.65833934778779],[134.88402598116815,35.65079821644897],[134.88402598116815,35.64577079555643],[134.88713162899438,35.64577079555643],[134.88713162899438,35.648284506002696],[134.8902372768206,35.648284506002696],[134.89334292464684,35.64577079555643],[134.8995542202993,35.648284506002696],[134.90576551595177,35.64577079555643],[134.9243994029092,35.64577079555643],[134.93371634638788,35.65079821644897],[134.9368219942141,35.65079821644897],[134.94303328986658,35.65331192689524],[134.94924458551907,35.655825637341515],[134.95545588117153,35.65833934778779],[134.96477282465023,35.6658804791266],[134.96477282465023,35.670907900019145],[134.96477282465023,35.67342161046541],[134.96477282465023,35.675935320911684],[134.96787847247646,35.675935320911684],[134.9709841203027,35.675935320911684],[134.97408976812892,35.6834764522505],[134.97719541595515,35.6834764522505],[134.98030106378138,35.6834764522505],[134.98340671160764,35.68850387314304],[134.98340671160764,35.69353129403559],[134.9896180072601,35.691017583589314],[134.99272365508634,35.691017583589314],[134.99582930291257,35.691017583589314],[134.9989349507388,35.691017583589314],[134.9989349507388,35.69353129403559],[135.00204059856503,35.69353129403559],[135.00514624639126,35.69353129403559],[135.0082518942175,35.69353129403559],[135.01135754204373,35.69353129403559],[135.01446318986999,35.691017583589314],[135.01756883769622,35.691017583589314],[135.02067448552245,35.68850387314304],[135.02999142900114,35.691017583589314],[135.02999142900114,35.69604500448186],[135.0362027246536,35.7010724253744],[135.03930837247984,35.7010724253744],[135.04241402030607,35.7010724253744],[135.04551966813233,35.70358613582067],[135.0610479072635,35.70861355671322],[135.0610479072635,35.713640977605756],[135.06415355508972,35.71112726715948],[135.07036485074218,35.7186683984983],[135.0734704985684,35.7186683984983],[135.08278744204713,35.72369581939084],[135.08589308987337,35.73123695072966],[135.08278744204713,35.7362643716222],[135.08589308987337,35.73877808206847],[135.0889987376996,35.73877808206847],[135.09210438552583,35.73877808206847],[135.09210438552583,35.741291792514744],[135.09521003335206,35.74380550296102],[135.09521003335206,35.741291792514744],[135.10452697683075,35.741291792514744],[135.10452697683075,35.74380550296102],[135.11073827248322,35.74631921340729],[135.11073827248322,35.74380550296102],[135.12316086378817,35.74631921340729],[135.1355834550931,35.7538603447461],[135.13247780726687,35.7538603447461],[135.13247780726687,35.756374055192374],[135.13868910291933,35.75888776563865],[135.13868910291933,35.7538603447461],[135.1449003985718,35.75134663429983],[135.15111169422428,35.75134663429983],[135.15421734205052,35.7538603447461],[135.15732298987675,35.7538603447461],[135.1635342855292,35.7538603447461],[135.16663993335544,35.75888776563865],[135.1728512290079,35.75888776563865],[135.1728512290079,35.76140147608491],[135.17906252466037,35.76140147608491],[135.18527382031286,35.76391518653119],[135.18527382031286,35.76642889697746],[135.1883794681391,35.76391518653119],[135.19148511596532,35.76391518653119],[135.19459076379155,35.76642889697746],[135.19769641161778,35.76391518653119],[135.20390770727025,35.76391518653119],[135.22254159422766,35.771456317870005],[135.21943594640143,35.77397002831628],[135.21943594640143,35.77648373876255],[135.22254159422766,35.778997449208816],[135.2256472420539,35.77648373876255],[135.22875288988013,35.77397002831628],[135.2349641855326,35.76894260742373],[135.2349641855326,35.76642889697746],[135.23806983335882,35.76642889697746],[135.2442811290113,35.76140147608491],[135.24738677683754,35.756374055192374],[135.25049242466378,35.756374055192374],[135.25049242466378,35.75888776563865],[135.25359807249,35.75888776563865],[135.25359807249,35.756374055192374],[135.25049242466378,35.7538603447461],[135.25049242466378,35.75134663429983],[135.25670372031624,35.74380550296102],[135.25980936814247,35.74380550296102],[135.2629150159687,35.74380550296102],[135.26602066379493,35.741291792514744],[135.2722319594474,35.741291792514744],[135.2722319594474,35.73375066117593],[135.27533760727363,35.73123695072966],[135.2784432550999,35.73123695072966],[135.28154890292612,35.72872324028339],[135.28465455075235,35.72872324028339],[135.28776019857858,35.726209529837114],[135.28776019857858,35.721182108944575],[135.28776019857858,35.71615468805203],[135.28776019857858,35.71112726715948],[135.28776019857858,35.70861355671322],[135.28465455075235,35.706099846266945],[135.28776019857858,35.706099846266945],[135.2908658464048,35.706099846266945],[135.29707714205728,35.70358613582067],[135.30328843770974,35.698558714928126],[135.3094997333622,35.69353129403559],[135.30639408553597,35.69353129403559],[135.30328843770974,35.68850387314304],[135.3001827898835,35.68096274180423],[135.3001827898835,35.67844903135796],[135.3001827898835,35.675935320911684],[135.3001827898835,35.670907900019145],[135.30328843770974,35.663366768680326],[135.3001827898835,35.663366768680326],[135.3001827898835,35.66085305823405],[135.29397149423104,35.66085305823405],[135.2908658464048,35.663366768680326],[135.28776019857858,35.6658804791266],[135.2908658464048,35.6658804791266],[135.29397149423104,35.670907900019145],[135.29397149423104,35.67342161046541],[135.2908658464048,35.67342161046541],[135.28776019857858,35.675935320911684],[135.28154890292612,35.670907900019145],[135.28154890292612,35.66839418957287],[135.2784432550999,35.66839418957287],[135.2784432550999,35.670907900019145],[135.27533760727363,35.670907900019145],[135.27533760727363,35.66839418957287],[135.2722319594474,35.6658804791266],[135.26912631162116,35.6658804791266],[135.26912631162116,35.66839418957287],[135.2629150159687,35.663366768680326],[135.25359807249,35.65079821644897],[135.24738677683754,35.63320224332507],[135.2442811290113,35.620633691093715],[135.23806983335882,35.618119980647435],[135.2349641855326,35.6130925597549],[135.22875288988013,35.60806513886235],[135.2256472420539,35.60303771796981],[135.21322465074897,35.598010297077266],[135.20701335509648,35.58544174484591],[135.19148511596532,35.57035948216828],[135.1883794681391,35.55779092993692],[135.1883794681391,35.54773608815184],[135.1883794681391,35.545222377705564],[135.19459076379155,35.53768124636675],[135.19769641161778,35.540194956813025],[135.19769641161778,35.53768124636675],[135.20080205944402,35.53768124636675],[135.20080205944402,35.540194956813025],[135.20390770727025,35.540194956813025],[135.20701335509648,35.54270866725929],[135.2101190029227,35.55276350904438],[135.20390770727025,35.55527721949065],[135.20390770727025,35.55779092993692],[135.20701335509648,35.56281835082947],[135.2101190029227,35.56281835082947],[135.21322465074897,35.56281835082947],[135.21943594640143,35.567845771722006],[135.22254159422766,35.567845771722006],[135.22875288988013,35.575386903060824],[135.22875288988013,35.58544174484591],[135.2349641855326,35.58041432395336],[135.24117548118505,35.58544174484591],[135.24117548118505,35.58795545529218],[135.2442811290113,35.58795545529218],[135.2442811290113,35.590469165738455],[135.24738677683754,35.590469165738455],[135.25049242466378,35.59298287618472],[135.25049242466378,35.60052400752354],[135.25359807249,35.598010297077266],[135.25670372031624,35.58795545529218],[135.25049242466378,35.58795545529218],[135.24738677683754,35.58544174484591],[135.25049242466378,35.58544174484591],[135.24738677683754,35.582928034399636],[135.24738677683754,35.58041432395336],[135.25359807249,35.5779006135071],[135.25049242466378,35.575386903060824],[135.25049242466378,35.57035948216828],[135.25670372031624,35.567845771722006],[135.25980936814247,35.567845771722006],[135.26602066379493,35.567845771722006],[135.26912631162116,35.56533206127574],[135.27533760727363,35.560304640383194],[135.26912631162116,35.55779092993692],[135.2629150159687,35.55527721949065],[135.25359807249,35.55779092993692],[135.25359807249,35.55276350904438],[135.25049242466378,35.55527721949065],[135.25049242466378,35.55779092993692],[135.25049242466378,35.560304640383194],[135.24738677683754,35.56281835082947],[135.2442811290113,35.560304640383194],[135.23806983335882,35.55527721949065],[135.23806983335882,35.545222377705564],[135.2442811290113,35.53516753592048],[135.24738677683754,35.53516753592048],[135.25359807249,35.53516753592048],[135.25670372031624,35.53516753592048],[135.25980936814247,35.532653825474206],[135.2629150159687,35.532653825474206],[135.26602066379493,35.532653825474206],[135.26912631162116,35.532653825474206],[135.2722319594474,35.53014011502793],[135.2722319594474,35.525112694135395],[135.28776019857858,35.51505785235031],[135.2908658464048,35.51505785235031],[135.3094997333622,35.51254414190404],[135.31260538118846,35.51505785235031],[135.3157110290147,35.52259898368912],[135.31881667684092,35.525112694135395],[135.32192232466716,35.525112694135395],[135.3250279724934,35.517571562796576],[135.33123926814585,35.517571562796576],[135.33123926814585,35.510030431457764],[135.33434491597208,35.50500301056522],[135.33123926814585,35.50248930011895],[135.33123926814585,35.49243445833386],[135.3250279724934,35.489920747887595],[135.32192232466716,35.48489332699505],[135.3250279724934,35.482379616548776],[135.3250279724934,35.4798659061025],[135.31881667684092,35.4798659061025],[135.3157110290147,35.47735219565623],[135.31881667684092,35.47735219565623],[135.32192232466716,35.47735219565623],[135.31881667684092,35.47232477476369],[135.3157110290147,35.47232477476369],[135.31881667684092,35.46981106431742],[135.3157110290147,35.46478364342487],[135.31260538118846,35.459756222532334],[135.31260538118846,35.452215091193516],[135.3157110290147,35.452215091193516],[135.31881667684092,35.452215091193516],[135.31881667684092,35.45472880163979],[135.31881667684092,35.452215091193516],[135.32192232466716,35.452215091193516],[135.32192232466716,35.45724251208606],[135.32192232466716,35.45472880163979],[135.32192232466716,35.45724251208606],[135.3250279724934,35.45724251208606],[135.3250279724934,35.459756222532334],[135.3250279724934,35.46478364342487],[135.32813362031962,35.46478364342487],[135.33123926814585,35.46981106431742],[135.33434491597208,35.47232477476369],[135.34676750727704,35.47483848520996],[135.34676750727704,35.47735219565623],[135.34676750727704,35.4798659061025],[135.34676750727704,35.482379616548776],[135.34055621162454,35.4798659061025],[135.34366185945078,35.482379616548776],[135.34987315510327,35.487407037441315],[135.34987315510327,35.489920747887595],[135.34676750727704,35.494948168780134],[135.34987315510327,35.49243445833386],[135.3529788029295,35.49243445833386],[135.3529788029295,35.489920747887595],[135.35608445075573,35.489920747887595],[135.35919009858196,35.487407037441315],[135.36540139423442,35.489920747887595],[135.36850704206066,35.489920747887595],[135.3716126898869,35.489920747887595],[135.3716126898869,35.49243445833386],[135.37782398553935,35.489920747887595],[135.3809296333656,35.48489332699505],[135.3809296333656,35.482379616548776],[135.37782398553935,35.482379616548776],[135.3716126898869,35.482379616548776],[135.3716126898869,35.4798659061025],[135.3716126898869,35.47735219565623],[135.37782398553935,35.47735219565623],[135.3809296333656,35.47483848520996],[135.38403528119184,35.47735219565623],[135.38403528119184,35.47483848520996],[135.38714092901807,35.47735219565623],[135.38403528119184,35.47735219565623],[135.38714092901807,35.4798659061025],[135.3902465768443,35.4798659061025],[135.3902465768443,35.47735219565623],[135.39645787249677,35.4798659061025],[135.39335222467054,35.48489332699505],[135.39645787249677,35.489920747887595],[135.399563520323,35.49243445833386],[135.39645787249677,35.49746187922641],[135.399563520323,35.49997558967267],[135.399563520323,35.50248930011895],[135.39645787249677,35.49997558967267],[135.39335222467054,35.49997558967267],[135.39645787249677,35.50248930011895],[135.39335222467054,35.50500301056522],[135.3902465768443,35.50751672101149],[135.39335222467054,35.510030431457764],[135.39645787249677,35.51505785235031],[135.3902465768443,35.517571562796576],[135.38403528119184,35.51254414190404],[135.38403528119184,35.50500301056522],[135.3809296333656,35.50248930011895],[135.37782398553935,35.50248930011895],[135.3716126898869,35.50751672101149],[135.3716126898869,35.50500301056522],[135.36850704206066,35.50500301056522],[135.36540139423442,35.50500301056522],[135.35919009858196,35.50500301056522],[135.35608445075573,35.50248930011895],[135.3529788029295,35.50248930011895],[135.3529788029295,35.50500301056522],[135.34366185945078,35.50500301056522],[135.34366185945078,35.50751672101149],[135.34366185945078,35.510030431457764],[135.34676750727704,35.510030431457764],[135.34366185945078,35.51505785235031],[135.34676750727704,35.517571562796576],[135.34987315510327,35.52008527324285],[135.34366185945078,35.52259898368912],[135.34366185945078,35.52762640458167],[135.34055621162454,35.525112694135395],[135.34366185945078,35.52259898368912],[135.3374505637983,35.525112694135395],[135.3374505637983,35.53516753592048],[135.3374505637983,35.545222377705564],[135.34366185945078,35.55276350904438],[135.34366185945078,35.545222377705564],[135.34676750727704,35.54270866725929],[135.34987315510327,35.54270866725929],[135.35608445075573,35.54773608815184],[135.36540139423442,35.55276350904438],[135.3716126898869,35.55527721949065],[135.37782398553935,35.560304640383194],[135.38403528119184,35.560304640383194],[135.38714092901807,35.55779092993692],[135.39335222467054,35.55779092993692],[135.399563520323,35.56281835082947],[135.39645787249677,35.56533206127574],[135.39645787249677,35.567845771722006],[135.399563520323,35.56281835082947],[135.40266916814923,35.560304640383194],[135.41198611162795,35.57035948216828],[135.4275143507591,35.56533206127574],[135.4275143507591,35.57035948216828],[135.42440870293288,35.57287319261455],[135.4275143507591,35.575386903060824],[135.42440870293288,35.58041432395336],[135.4275143507591,35.58041432395336],[135.43061999858534,35.58041432395336],[135.43372564641157,35.58041432395336],[135.43372564641157,35.582928034399636],[135.43372564641157,35.58544174484591],[135.43372564641157,35.590469165738455],[135.4368312942378,35.590469165738455],[135.43993694206404,35.590469165738455],[135.4430425898903,35.590469165738455],[135.44614823771653,35.59298287618472],[135.44925388554276,35.59298287618472],[135.44925388554276,35.598010297077266],[135.452359533369,35.598010297077266],[135.45546518119522,35.60052400752354],[135.46167647684769,35.60303771796981],[135.46167647684769,35.60052400752354],[135.46167647684769,35.598010297077266],[135.46167647684769,35.59298287618472],[135.45857082902145,35.59549658663099],[135.45546518119522,35.59298287618472],[135.452359533369,35.590469165738455],[135.45546518119522,35.58544174484591],[135.44925388554276,35.5779006135071],[135.44925388554276,35.575386903060824],[135.452359533369,35.567845771722006],[135.45546518119522,35.57035948216828],[135.45857082902145,35.57035948216828],[135.46478212467392,35.57035948216828],[135.46788777250015,35.567845771722006],[135.46478212467392,35.56533206127574],[135.46478212467392,35.56281835082947],[135.47099342032638,35.56533206127574],[135.47099342032638,35.56281835082947],[135.4740990681526,35.55779092993692],[135.4803103638051,35.55779092993692],[135.48341601163133,35.55779092993692],[135.48652165945757,35.55779092993692],[135.46478212467392,35.55024979859811],[135.45857082902145,35.54773608815184],[135.45857082902145,35.54270866725929],[135.45546518119522,35.53516753592048],[135.44925388554276,35.52259898368912],[135.452359533369,35.52008527324285],[135.46167647684769,35.51254414190404],[135.46788777250015,35.510030431457764],[135.4740990681526,35.50751672101149],[135.4740990681526,35.50500301056522],[135.4740990681526,35.50248930011895],[135.47099342032638,35.49997558967267],[135.4740990681526,35.489920747887595],[135.4740990681526,35.487407037441315],[135.47099342032638,35.489920747887595],[135.46788777250015,35.48489332699505],[135.45857082902145,35.47232477476369],[135.45857082902145,35.467297353871146],[135.46478212467392,35.4622699329786],[135.47099342032638,35.45472880163979],[135.4803103638051,35.44970138074724],[135.48652165945757,35.44970138074724],[135.4896273072838,35.43964653896216],[135.49583860293626,35.437132828515885],[135.4989442507625,35.43210540762335],[135.49583860293626,35.43210540762335],[135.49583860293626,35.429591697177074],[135.49583860293626,35.42456427628453],[135.4989442507625,35.42205056583826],[135.50204989858872,35.41953685539199],[135.51136684206745,35.42456427628453],[135.5175781377199,35.42205056583826],[135.52068378554614,35.42205056583826],[135.52378943337237,35.41953685539199],[135.5268950811986,35.41953685539199],[135.53000072902483,35.41199572405317],[135.5268950811986,35.40696830316063],[135.52378943337237,35.401940882268086],[135.5268950811986,35.39691346137555],[135.53000072902483,35.39691346137555],[135.53000072902483,35.391886040483],[135.5268950811986,35.38434490914419],[135.53000072902483,35.379317488251644],[135.53310637685107,35.37680377780537],[135.55174026380848,35.37680377780537],[135.55795155946095,35.37680377780537],[135.5641628551134,35.37680377780537],[135.56726850293964,35.3742900673591],[135.5734797985921,35.3742900673591],[135.5796910942446,35.3742900673591],[135.5890080377233,35.36926264646656],[135.59521933337575,35.37177635691283],[135.60143062902821,35.37177635691283],[135.60764192468068,35.37177635691283],[135.61074757250694,35.36674893602029],[135.61385322033317,35.37177635691283],[135.62317016381186,35.36926264646656],[135.63869840294302,35.364235225574014],[135.64180405076928,35.36674893602029],[135.65112099424798,35.359207804681475],[135.66043793772667,35.359207804681475],[135.66043793772667,35.356694094235195],[135.66975488120536,35.356694094235195],[135.66975488120536,35.35418038378893],[135.67596617685786,35.351666673342656],[135.68528312033655,35.34915296289638],[135.691494415989,35.34663925245011],[135.7008113594677,35.34412554200384],[135.70702265512017,35.34663925245011],[135.71012830294643,35.34915296289638],[135.71323395077266,35.35418038378893],[135.7163395985989,35.35418038378893],[135.71944524642512,35.35418038378893],[135.7256565420776,35.351666673342656],[135.72876218990382,35.351666673342656],[135.73497348555628,35.351666673342656],[135.74118478120874,35.356694094235195],[135.74118478120874,35.359207804681475],[135.744290429035,35.359207804681475],[135.74739607686124,35.359207804681475],[135.75981866816616,35.35418038378893],[135.7629243159924,35.356694094235195],[135.76602996381862,35.356694094235195],[135.76913561164486,35.356694094235195],[135.76913561164486,35.35418038378893],[135.7629243159924,35.34412554200384],[135.77845255512358,35.34161183155757],[135.77845255512358,35.3390981211113],[135.7815582029498,35.336584410665026],[135.78776949860227,35.329043279326214],[135.7908751464285,35.32401585843367],[135.79398079425474,35.32401585843367],[135.79398079425474,35.321502147987395],[135.8064033855597,35.31647472709486],[135.80950903338592,35.31647472709486],[135.80950903338592,35.30893359575604],[135.81261468121215,35.30893359575604],[135.81572032903838,35.306419885309765],[135.81572032903838,35.301392464417226],[135.81882597686462,35.29887875397095],[135.82193162469085,35.28882391218587],[135.82503727251708,35.28379649129332],[135.83124856816954,35.27625535995451],[135.83435421599577,35.27374164950824],[135.84056551164826,35.27625535995451],[135.84056551164826,35.278769070400784],[135.84988245512696,35.28128278084705],[135.8529881029532,35.286310201739596],[135.85919939860565,35.28882391218587],[135.85919939860565,35.28379649129332],[135.85609375077942,35.27625535995451],[135.85609375077942,35.27374164950824],[135.84988245512696,35.26871422861569],[135.8436711594745,35.26117309727688],[135.8436711594745,35.256145676384335],[135.84056551164826,35.25363196593807],[135.8436711594745,35.2511182554918],[135.84056551164826,35.24609083459925],[135.837459863822,35.24106341370671],[135.83435421599577,35.24106341370671],[135.837459863822,35.23352228236789],[135.837459863822,35.225981151029075],[135.8281429203433,35.220953730136536],[135.83124856816954,35.215926309244],[135.83124856816954,35.21089888835145],[135.83435421599577,35.205871467458905],[135.84056551164826,35.190789204781275],[135.84056551164826,35.188275494335],[135.84056551164826,35.18073436299619],[135.8436711594745,35.17822065254992],[135.8436711594745,35.170679521211106],[135.84677680730073,35.16062467942602],[135.85609375077942,35.16062467942602],[135.85609375077942,35.1530835480872],[135.8529881029532,35.148056127194664],[135.84988245512696,35.140514995855845],[135.84988245512696,35.13548757496331],[135.84988245512696,35.13046015407076],[135.84988245512696,35.12291902273195],[135.84677680730073,35.1178916018394],[135.84677680730073,35.11286418094686],[135.8436711594745,35.11286418094686],[135.84056551164826,35.1002956287155],[135.837459863822,35.09526820782296],[135.83435421599577,35.090240786930416],[135.84056551164826,35.08772707648414],[135.837459863822,35.08018594514533],[135.83124856816954,35.07013110336024],[135.83435421599577,35.060076261575155],[135.83124856816954,35.05253513023634],[135.82503727251708,35.05253513023634],[135.82193162469085,35.05002141979007],[135.81572032903838,35.044993998897525],[135.81572032903838,35.039966578004986],[135.82193162469085,35.03493915711244],[135.8281429203433,35.02739802577363],[135.8281429203433,35.02237060488108],[135.83435421599577,35.02237060488108],[135.83435421599577,35.012315763096],[135.82503727251708,35.012315763096],[135.82193162469085,35.01482947354227],[135.81882597686462,35.012315763096],[135.82503727251708,35.00728834220345],[135.83124856816954,35.009802052649725],[135.83435421599577,35.00226092131091],[135.83435421599577,34.99974721086464],[135.83124856816954,34.99974721086464],[135.8281429203433,34.99220607952583],[135.8436711594745,34.989692369079556],[135.84988245512696,34.99220607952583],[135.84988245512696,34.98466494818701],[135.85609375077942,34.98466494818701],[135.85609375077942,34.9771238168482],[135.8529881029532,34.974610106401926],[135.8529881029532,34.96958268550938],[135.85609375077942,34.96958268550938],[135.85919939860565,34.96204155417057],[135.86230504643189,34.959527843724295],[135.86541069425812,34.95701413327802],[135.87162198991058,34.95450042283176],[135.87472763773684,34.95450042283176],[135.87783328556307,34.94695929149294],[135.87472763773684,34.9419318706004],[135.87783328556307,34.93439073926158],[135.87162198991058,34.92684960792276],[135.87162198991058,34.924335897476496],[135.86851634208435,34.91930847658395],[135.87162198991058,34.91176734524514],[135.86541069425812,34.90673992435259],[135.86230504643189,34.90171250346005],[135.86851634208435,34.894171372121235],[135.86541069425812,34.89165766167496],[135.87162198991058,34.88914395122869],[135.87472763773684,34.88914395122869],[135.87783328556307,34.886630240782424],[135.8809389333893,34.88411653033615],[135.88715022904177,34.88411653033615],[135.88715022904177,34.879089109443605],[135.88404458121553,34.87657539899733],[135.88715022904177,34.87657539899733],[135.89646717252046,34.87154797810479],[135.90578411599915,34.874061688551066],[135.9088897638254,34.87657539899733],[135.91199541165165,34.88411653033615],[135.92131235513034,34.88411653033615],[135.92441800295657,34.88411653033615],[135.93062929860903,34.88914395122869],[135.93373494643527,34.88914395122869],[135.93994624208773,34.894171372121235],[135.93994624208773,34.886630240782424],[135.93994624208773,34.879089109443605],[135.943051889914,34.879089109443605],[135.943051889914,34.86903426765852],[135.93994624208773,34.864006846765975],[135.94615753774022,34.85395200498089],[135.94615753774022,34.85143829453462],[135.9554744812189,34.85395200498089],[135.95858012904515,34.85395200498089],[135.96168577687138,34.85395200498089],[135.96168577687138,34.85143829453462],[135.96789707252384,34.84892458408835],[135.96789707252384,34.84641087364208],[135.97100272035007,34.84641087364208],[135.97100272035007,34.83886974230326],[135.98342531165503,34.83886974230326],[135.98653095948126,34.84138345274953],[135.9896366073075,34.84138345274953],[135.99584790295995,34.843897163195805],[136.00205919861241,34.843897163195805],[136.00516484643867,34.843897163195805],[136.00205919861241,34.836356031856994],[136.00516484643867,34.828814900518175],[136.0082704942649,34.8263011900719],[136.01137614209114,34.8263011900719],[136.01448178991737,34.828814900518175],[136.0175874377436,34.828814900518175],[136.0269043812223,34.82127376917936],[136.0269043812223,34.81876005873309],[136.0269043812223,34.813732637840545],[136.02379873339606,34.813732637840545],[136.0175874377436,34.813732637840545],[136.01137614209114,34.80116408560919],[136.01137614209114,34.79613666471664],[136.01448178991737,34.798650375162914],[136.0175874377436,34.793622954270376],[136.02069308556983,34.7911092438241],[136.02069308556983,34.78859553337783],[136.02069308556983,34.783568112485284],[136.02379873339606,34.78105440203902],[136.03001002904853,34.78105440203902],[136.03311567687476,34.778540691592745],[136.03311567687476,34.77099956025393],[136.03001002904853,34.763458428915115],[136.03001002904853,34.76094471846884],[136.03001002904853,34.75843100802257],[136.03001002904853,34.7559172975763],[136.03932697252725,34.7559172975763],[136.03932697252725,34.75340358713003],[136.03932697252725,34.748376166237485],[136.04864391600594,34.743348745344946],[136.05174956383217,34.74083503489867],[136.0548552116584,34.7383213244524],[136.05174956383217,34.7383213244524],[136.04243262035348,34.73580761400613],[136.03932697252725,34.7207253513285],[136.036221324701,34.71821164088223],[136.03311567687476,34.71569793043596],[136.03001002904853,34.713184219989685],[136.03001002904853,34.70564308865087],[136.02069308556983,34.70815679909714],[136.01448178991737,34.70815679909714],[136.01448178991737,34.71067050954341],[136.01137614209114,34.71569793043596],[136.00516484643867,34.71569793043596],[135.99895355078618,34.713184219989685],[135.99584790295995,34.713184219989685],[135.99274225513372,34.713184219989685],[135.98653095948126,34.71569793043596],[135.98342531165503,34.728266482667316],[135.98342531165503,34.733293903559854],[135.9803196638288,34.73580761400613],[135.97410836817633,34.74083503489867],[135.97100272035007,34.74083503489867],[135.9647914246976,34.743348745344946],[135.96168577687138,34.74083503489867],[135.95858012904515,34.74083503489867],[135.9554744812189,34.748376166237485],[135.94615753774022,34.74083503489867],[135.943051889914,34.7383213244524],[135.9368405942615,34.74083503489867],[135.93373494643527,34.7383213244524],[135.92441800295657,34.74083503489867],[135.92441800295657,34.743348745344946],[135.9275236507828,34.75340358713003],[135.9275236507828,34.7559172975763],[135.92441800295657,34.75843100802257],[135.92131235513034,34.7559172975763],[135.92131235513034,34.75340358713003],[135.9182067073041,34.75340358713003],[135.91510105947788,34.75340358713003],[135.91199541165165,34.748376166237485],[135.90578411599915,34.73580761400613],[135.90267846817292,34.73078019311359],[135.8995728203467,34.73078019311359],[135.89646717252046,34.72575277222104],[135.890255876868,34.70815679909714],[135.88715022904177,34.713184219989685],[135.8809389333893,34.713184219989685],[135.87783328556307,34.713184219989685],[135.87162198991058,34.71067050954341],[135.86230504643189,34.70815679909714],[135.86541069425812,34.70564308865087],[135.86230504643189,34.70564308865087],[135.84988245512696,34.70564308865087],[135.84988245512696,34.70815679909714],[135.8436711594745,34.70815679909714],[135.84056551164826,34.71067050954341],[135.83124856816954,34.713184219989685],[135.8281429203433,34.713184219989685],[135.82193162469085,34.71067050954341],[135.81572032903838,34.713184219989685],[135.80950903338592,34.71569793043596],[135.81261468121215,34.71569793043596],[135.8064033855597,34.71821164088223],[135.80329773773343,34.7207253513285],[135.8001920899072,34.72323906177477],[135.79708644208097,34.7207253513285],[135.79398079425474,34.72323906177477],[135.78466385077604,34.72323906177477],[135.77845255512358,34.72323906177477],[135.77534690729735,34.72323906177477],[135.77534690729735,34.72575277222104],[135.76602996381862,34.72575277222104],[135.75671302033993,34.728266482667316],[135.7536073725137,34.728266482667316],[135.75671302033993,34.73580761400613],[135.74739607686124,34.74083503489867],[135.74739607686124,34.74586245579121],[135.73497348555628,34.75088987668376],[135.73497348555628,34.75340358713003],[135.73497348555628,34.7559172975763],[135.73186783773005,34.7559172975763],[135.73186783773005,34.76597213936139],[135.72876218990382,34.778540691592745],[135.7380791333825,34.78859553337783],[135.7380791333825,34.7911092438241],[135.74118478120874,34.793622954270376],[135.744290429035,34.798650375162914],[135.744290429035,34.80367779605546],[135.7380791333825,34.81121892739428],[135.73497348555628,34.81876005873309],[135.73186783773005,34.823787479625636],[135.7256565420776,34.823787479625636],[135.72255089425136,34.8263011900719],[135.71944524642512,34.83132861096445],[135.7163395985989,34.836356031856994],[135.71323395077266,34.84138345274953],[135.71012830294643,34.84641087364208],[135.70391700729394,34.85143829453462],[135.69460006381524,34.84892458408835],[135.691494415989,34.85646571542716],[135.69460006381524,34.86149313631971],[135.691494415989,34.86149313631971],[135.691494415989,34.86903426765852],[135.68217747251032,34.87154797810479],[135.68217747251032,34.87657539899733],[135.6790718246841,34.88160281988988],[135.68217747251032,34.886630240782424],[135.67596617685786,34.894171372121235],[135.67596617685786,34.89919879301378],[135.66664923337913,34.90422621390632],[135.6635435855529,34.90422621390632],[135.6542266420742,34.909253634798866],[135.64801534642174,34.909253634798866],[135.64801534642174,34.91679476613768],[135.65112099424798,34.91679476613768],[135.65112099424798,34.91930847658395],[135.65112099424798,34.92182218703022],[135.64180405076928,34.929363318369035],[135.64180405076928,34.93187702881531],[135.6355927551168,34.93187702881531],[135.62938145946433,34.93439073926158],[135.6262758116381,34.93439073926158],[135.62317016381186,34.93439073926158],[135.6169588681594,34.929363318369035],[135.60764192468068,34.929363318369035],[135.60143062902821,34.92684960792276],[135.60143062902821,34.93690444970785],[135.60453627685445,34.93439073926158],[135.60764192468068,34.93690444970785],[135.61074757250694,34.93941816015412],[135.61074757250694,34.9419318706004],[135.61074757250694,34.944445581046665],[135.61385322033317,34.94695929149294],[135.6169588681594,34.95701413327802],[135.6169588681594,34.96204155417057],[135.61385322033317,34.97209639595565],[135.60764192468068,34.96958268550938],[135.60453627685445,34.96958268550938],[135.60453627685445,34.97209639595565],[135.59521933337575,34.96958268550938],[135.59211368554952,34.967068975063114],[135.5890080377233,34.967068975063114],[135.58279674207083,34.9771238168482],[135.5734797985921,34.97209639595565],[135.57037415076587,34.967068975063114],[135.5734797985921,34.96204155417057],[135.57658544641833,34.96204155417057],[135.5796910942446,34.95450042283176],[135.57037415076587,34.95450042283176],[135.56726850293964,34.95198671238548],[135.5641628551134,34.95450042283176],[135.56105720728718,34.944445581046665],[135.55795155946095,34.93690444970785],[135.55795155946095,34.93187702881531],[135.55795155946095,34.93439073926158],[135.5641628551134,34.9419318706004],[135.5641628551134,34.93941816015412],[135.56105720728718,34.93439073926158],[135.5641628551134,34.93439073926158],[135.57037415076587,34.93941816015412],[135.5796910942446,34.93690444970785],[135.5796910942446,34.924335897476496],[135.57658544641833,34.91930847658395],[135.5734797985921,34.91679476613768],[135.56105720728718,34.91679476613768],[135.55484591163471,34.91679476613768],[135.55174026380848,34.91679476613768],[135.54863461598225,34.91679476613768],[135.54552896815602,34.91679476613768],[135.54242332032976,34.914281055691404],[135.5362120246773,34.91930847658395],[135.5362120246773,34.924335897476496],[135.52378943337237,34.929363318369035],[135.52068378554614,34.93187702881531],[135.5175781377199,34.93439073926158],[135.51447248989368,34.944445581046665],[135.50515554641495,34.94695929149294],[135.50204989858872,34.944445581046665],[135.49583860293626,34.9419318706004],[135.4896273072838,34.9419318706004],[135.4896273072838,34.94695929149294],[135.48341601163133,34.94695929149294],[135.4803103638051,34.94947300193921],[135.48652165945757,34.95701413327802],[135.48341601163133,34.959527843724295],[135.4803103638051,34.96204155417057],[135.48341601163133,34.96455526461684],[135.48652165945757,34.967068975063114],[135.48652165945757,34.96455526461684],[135.4896273072838,34.967068975063114],[135.48652165945757,34.974610106401926],[135.48341601163133,34.98215123774074],[135.48341601163133,34.98466494818701],[135.49273295511003,34.98717865863328],[135.49273295511003,34.989692369079556],[135.48652165945757,34.99220607952583],[135.48341601163133,34.99220607952583],[135.48341601163133,34.994719789972095],[135.47099342032638,34.994719789972095],[135.46167647684769,34.99974721086464],[135.452359533369,35.00226092131091],[135.44925388554276,35.00226092131091],[135.4430425898903,35.00728834220345],[135.4368312942378,35.00728834220345],[135.42440870293288,35.00226092131091],[135.41819740728042,35.00226092131091],[135.4088804638017,35.009802052649725],[135.40266916814923,35.00728834220345],[135.39645787249677,35.009802052649725],[135.3902465768443,35.012315763096],[135.3809296333656,35.009802052649725],[135.3809296333656,35.01482947354227],[135.37782398553935,35.01985689443481],[135.3809296333656,35.024884315327355],[135.3809296333656,35.0299117362199],[135.3809296333656,35.03745286755871],[135.37471833771312,35.04248028845126],[135.3716126898869,35.044993998897525],[135.36850704206066,35.05253513023634],[135.3716126898869,35.060076261575155],[135.37782398553935,35.060076261575155],[135.37471833771312,35.0651036824677],[135.38714092901807,35.07264481380651],[135.39335222467054,35.07264481380651],[135.39645787249677,35.075158524252785],[135.399563520323,35.075158524252785],[135.399563520323,35.08018594514533],[135.399563520323,35.08772707648414],[135.40266916814923,35.08772707648414],[135.40266916814923,35.090240786930416],[135.399563520323,35.09275449737669],[135.3902465768443,35.097781918269234],[135.38714092901807,35.097781918269234],[135.3902465768443,35.10783676005432],[135.39335222467054,35.11035047050059],[135.3902465768443,35.11537789139313],[135.38714092901807,35.1178916018394],[135.3902465768443,35.125432733178215],[135.3902465768443,35.12794644362449],[135.3716126898869,35.12794644362449],[135.3716126898869,35.13046015407076],[135.36850704206066,35.132973864517034],[135.35919009858196,35.132973864517034],[135.35608445075573,35.13548757496331],[135.34366185945078,35.13548757496331],[135.34055621162454,35.13800128540957],[135.3374505637983,35.14302870630212],[135.34055621162454,35.14554241674839],[135.34055621162454,35.15056983764093],[135.32813362031962,35.148056127194664],[135.32192232466716,35.14554241674839],[135.30639408553597,35.14302870630212],[135.3001827898835,35.14302870630212],[135.29397149423104,35.14302870630212],[135.2908658464048,35.14302870630212],[135.28465455075235,35.14302870630212],[135.28154890292612,35.14554241674839],[135.2784432550999,35.15056983764093],[135.28154890292612,35.15056983764093],[135.28776019857858,35.15811096897975],[135.2908658464048,35.16062467942602],[135.2908658464048,35.170679521211106],[135.28776019857858,35.17319323165738],[135.28465455075235,35.170679521211106],[135.28154890292612,35.17319323165738],[135.2784432550999,35.175706942103645],[135.27533760727363,35.17822065254992],[135.26602066379493,35.175706942103645],[135.25670372031624,35.17822065254992],[135.25359807249,35.175706942103645],[135.25049242466378,35.17822065254992],[135.24738677683754,35.17822065254992],[135.23806983335882,35.17822065254992],[135.23185853770636,35.17822065254992],[135.22875288988013,35.170679521211106],[135.22875288988013,35.16816581076483],[135.2256472420539,35.16313838987229],[135.2163302985752,35.16313838987229],[135.20701335509648,35.16062467942602],[135.20390770727025,35.16313838987229],[135.20080205944402,35.16565210031856],[135.19459076379155,35.170679521211106],[135.1883794681391,35.170679521211106],[135.1883794681391,35.18324807344246],[135.18527382031286,35.190789204781275],[135.19148511596532,35.19330291522755],[135.19459076379155,35.19330291522755],[135.19769641161778,35.19330291522755],[135.19769641161778,35.20335775701263],[135.19148511596532,35.20335775701263],[135.1883794681391,35.20838517790518],[135.18216817248663,35.215926309244],[135.17595687683414,35.21341259879772],[135.16974558118167,35.220953730136536],[135.16663993335544,35.21844001969026],[135.15421734205052,35.225981151029075],[135.15421734205052,35.228494861475355],[135.16042863770298,35.23100857192162],[135.16663993335544,35.24106341370671],[135.1635342855292,35.25363196593807],[135.16042863770298,35.25865938683061],[135.15732298987675,35.26117309727688],[135.14800604639805,35.263686807723154],[135.14179475074556,35.26117309727688],[135.1355834550931,35.26620051816943],[135.12937215944063,35.26117309727688],[135.12316086378817,35.263686807723154],[135.1169495681357,35.263686807723154],[135.107632624657,35.26620051816943],[135.0983156811783,35.25865938683061],[135.09521003335206,35.26117309727688],[135.09210438552583,35.256145676384335],[135.08589308987337,35.25363196593807],[135.0796817942209,35.24609083459925],[135.07657614639464,35.24357712415298],[135.0734704985684,35.24106341370671],[135.06725920291595,35.236035992814166],[135.06725920291595,35.24106341370671],[135.06415355508972,35.24609083459925],[135.0610479072635,35.248604545045524],[135.05794225943725,35.25363196593807],[135.05794225943725,35.25865938683061],[135.05794225943725,35.263686807723154],[135.05483661161102,35.263686807723154],[135.0517309637848,35.263686807723154],[135.04241402030607,35.263686807723154],[135.03930837247984,35.26117309727688],[135.0362027246536,35.26117309727688],[135.0268857811749,35.26620051816943],[135.01756883769622,35.26871422861569],[135.01135754204373,35.26871422861569],[135.01135754204373,35.27625535995451],[135.0082518942175,35.28379649129332],[135.00204059856503,35.286310201739596],[134.9989349507388,35.28882391218587],[134.9989349507388,35.29133762263214],[134.99582930291257,35.29133762263214],[134.99582930291257,35.28882391218587],[134.99272365508634,35.28882391218587],[134.97408976812892,35.29385133307841],[134.96787847247646,35.29636504352468],[134.961667176824,35.29887875397095],[134.94924458551907,35.3039061748635],[134.9461389376928,35.306419885309765],[134.94303328986658,35.30893359575604],[134.9368219942141,35.306419885309765],[134.9243994029092,35.31144730620231],[134.92129375508296,35.31647472709486],[134.9243994029092,35.321502147987395],[134.9243994029092,35.32652956887994],[134.92750505073542,35.329043279326214],[134.9243994029092,35.336584410665026],[134.91818810725673,35.3390981211113],[134.91818810725673,35.34915296289638],[134.92129375508296,35.351666673342656],[134.91818810725673,35.364235225574014],[134.92750505073542,35.37680377780537],[134.9243994029092,35.386858619590456],[134.9243994029092,35.394399750929274],[134.92750505073542,35.39691346137555],[134.93061069856165,35.401940882268086],[134.93371634638788,35.40696830316063],[134.9461389376928,35.41199572405317],[134.95545588117153,35.409482013606905],[134.95856152899776,35.409482013606905],[134.96787847247646,35.39942717182181],[134.97719541595515,35.39942717182181],[134.98030106378138,35.39942717182181],[134.98651235943387,35.394399750929274],[134.98651235943387,35.391886040483],[134.9896180072601,35.386858619590456],[134.99582930291257,35.386858619590456],[134.9989349507388,35.386858619590456],[135.00514624639126,35.38937233003673],[135.0082518942175,35.391886040483],[135.01135754204373,35.394399750929274],[135.01446318986999,35.394399750929274],[135.02067448552245,35.394399750929274],[135.02067448552245,35.39691346137555],[135.0268857811749,35.40445459271436],[135.02999142900114,35.409482013606905],[135.04241402030607,35.409482013606905],[135.04551966813233,35.40696830316063],[135.04862531595856,35.40696830316063],[135.04862531595856,35.41953685539199],[135.04862531595856,35.42205056583826],[135.04862531595856,35.4270779867308],[135.04862531595856,35.43210540762335],[135.0517309637848,35.44216024940843],[135.04862531595856,35.452215091193516],[135.04241402030607,35.4622699329786],[135.04241402030607,35.467297353871146],[135.03930837247984,35.47232477476369],[135.0362027246536,35.47483848520996],[135.0362027246536,35.4798659061025],[135.03930837247984,35.4798659061025],[135.04241402030607,35.49243445833386],[135.03309707682737,35.49746187922641],[135.03930837247984,35.50248930011895],[135.04551966813233,35.50751672101149],[135.04241402030607,35.510030431457764],[135.04241402030607,35.52008527324285],[135.03930837247984,35.52762640458167],[135.0362027246536,35.53014011502793],[135.0362027246536,35.53768124636675],[135.0362027246536,35.540194956813025],[135.02999142900114,35.540194956813025],[135.02067448552245,35.53768124636675],[135.0082518942175,35.53516753592048],[135.00514624639126,35.53516753592048],[135.00204059856503,35.53516753592048],[134.9989349507388,35.53516753592048],[134.99582930291257,35.53516753592048],[134.98651235943387,35.53014011502793],[134.98340671160764,35.52762640458167],[134.98030106378138,35.525112694135395],[134.97408976812892,35.525112694135395],[134.96787847247646,35.52008527324285],[134.96477282465023,35.51505785235031],[134.95856152899776,35.51254414190404],[134.95545588117153,35.51505785235031],[134.9523502333453,35.51505785235031],[134.94924458551907,35.51505785235031],[134.94303328986658,35.51505785235031],[134.93371634638788,35.51254414190404],[134.93061069856165,35.51254414190404],[134.92750505073542,35.51254414190404],[134.9243994029092,35.51505785235031],[134.92129375508296,35.52008527324285],[134.9150824594305,35.52762640458167],[134.9150824594305,35.53014011502793],[134.91818810725673,35.532653825474206],[134.91818810725673,35.53768124636675],[134.9150824594305,35.54270866725929],[134.9150824594305,35.545222377705564],[134.908871163778,35.54773608815184],[134.90265986812554,35.55024979859811],[134.8995542202993,35.55527721949065],[134.89644857247308,35.55779092993692],[134.8902372768206,35.560304640383194],[134.88713162899438,35.560304640383194],[134.88092033334192,35.56281835082947],[134.88092033334192,35.567845771722006],[134.8716033898632,35.575386903060824],[134.86849774203696,35.575386903060824],[134.86849774203696,35.5779006135071],[134.8622864463845,35.582928034399636],[134.8622864463845,35.58544174484591],[134.85918079855827,35.58795545529218],[134.8529695029058,35.58795545529218],[134.85607515073204,35.59298287618472],[134.8622864463845,35.598010297077266],[134.86539209421073,35.60052400752354],[134.86539209421073,35.6130925597549],[134.86849774203696,35.61560627020117],[134.8716033898632,35.618119980647435],[134.8716033898632,35.620633691093715],[134.8716033898632,35.625661111986254],[134.8716033898632,35.62817482243253],[134.8716033898632,35.63571595377134],[134.86539209421073,35.63571595377134],[134.86539209421073,35.64325708511016],[134.86849774203696,35.648284506002696],[134.86539209421073,35.65079821644897],[134.86849774203696,35.65833934778779]]],[[[135.42440870293288,35.675935320911684],[135.42130305510665,35.68096274180423],[135.42440870293288,35.6834764522505],[135.42440870293288,35.68850387314304],[135.4275143507591,35.6834764522505],[135.42440870293288,35.675935320911684]]],[[[135.47720471597887,35.59298287618472],[135.4740990681526,35.59549658663099],[135.47720471597887,35.598010297077266],[135.47720471597887,35.60303771796981],[135.47720471597887,35.60555142841608],[135.4803103638051,35.60303771796981],[135.4803103638051,35.59549658663099],[135.47720471597887,35.59298287618472]]],[[[135.3374505637983,35.49243445833386],[135.3374505637983,35.49746187922641],[135.34055621162454,35.49746187922641],[135.34676750727704,35.49746187922641],[135.34676750727704,35.494948168780134],[135.3374505637983,35.49243445833386]]]]}}]}
