{"type":"FeatureCollection","features":[{"type":"Feature","properties":{"name":"Nara"},"geometry":{"type":"Polygon","coordinates":[[[135.72876218990382,34.778540691592745],[135.73186783773005,34.76597213936139],[135.73186783773005,34.7559172975763],[135.73497348555628,34.7559172975763],[135.73497348555628,34.75340358713003],[135.73497348555628,34.75088987668376],[135.74739607686124,34.74586245579121],[135.74739607686124,34.74083503489867],[135.75671302033993,34.73580761400613],[135.7536073725137,34.728266482667316],[135.75671302033993,34.728266482667316],[135.76602996381862,34.72575277222104],[135.77534690729735,34.72575277222104],[135.77534690729735,34.72323906177477],[135.77845255512358,34.72323906177477],[135.78466385077604,34.72323906177477],[135.79398079425474,34.72323906177477],[135.79708644208097,34.7207253513285],[135.8001920899072,34.72323906177477],[135.80329773773343,34.7207253513285],[135.8064033855597,34.71821164088223],[135.81261468121215,34.71569793043596],[135.80950903338592,34.71569793043596],[135.81572032903838,34.713184219989685],[135.82193162469085,34.71067050954341],[135.8281429203433,34.713184219989685],[135.83124856816954,34.713184219989685],[135.84056551164826,34.71067050954341],[135.8436711594745,34.70815679909714],[135.84988245512696,34.70815679909714],[135.84988245512696,34.70564308865087],[135.86230504643189,34.70564308865087],[135.86541069425812,34.70564308865087],[135.86230504643189,34.70815679909714],[135.87162198991058,34.71067050954341],[135.87783328556307,34.713184219989685],[135.8809389333893,34.713184219989685],[135.88715022904177,34.713184219989685],[135.890255876868,34.70815679909714],[135.89646717252046,34.72575277222104],[135.8995728203467,34.73078019311359],[135.90267846817292,34.73078019311359],[135.90578411599915,34.73580761400613],[135.91199541165165,34.748376166237485],[135.91510105947788,34.75340358713003],[135.9182067073041,34.75340358713003],[135.92131235513034,34.75340358713003],[135.92131235513034,34.7559172975763],[135.92441800295657,34.75843100802257],[135.9275236507828,34.7559172975763],[135.9275236507828,34.75340358713003],[135.92441800295657,34.743348745344946],[135.92441800295657,34.74083503489867],[135.93373494643527,34.7383213244524],[135.9368405942615,34.74083503489867],[135.943051889914,34.7383213244524],[135.94615753774022,34.74083503489867],[135.9554744812189,34.748376166237485],[135.95858012904515,34.74083503489867],[135.96168577687138,34.74083503489867],[135.9647914246976,34.743348745344946],[135.97100272035007,34.74083503489867],[135.97410836817633,34.74083503489867],[135.9803196638288,34.73580761400613],[135.98342531165503,34.733293903559854],[135.98342531165503,34.728266482667316],[135.98653095948126,34.71569793043596],[135.99274225513372,34.713184219989685],[135.99584790295995,34.713184219989685],[135.99895355078618,34.713184219989685],[136.00516484643867,34.71569793043596],[136.01137614209114,34.71569793043596],[136.01448178991737,34.71067050954341],[136.01448178991737,34.70815679909714],[136.02069308556983,34.70815679909714],[136.03001002904853,34.70564308865087],[136.03001002904853,34.713184219989685],[136.03311567687476,34.71569793043596],[136.036221324701,34.71821164088223],[136.03932697252725,34.7207253513285],[136.04243262035348,34.73580761400613],[136.05174956383217,34.7383213244524],[136.0548552116584,34.7383213244524],[136.06106650731087,34.728266482667316],[136.0641721551371,34.72575277222104],[136.06727780296333,34.72323906177477],[136.06727780296333,34.71821164088223],[136.07038345078956,34.713184219989685],[136.0641721551371,34.70815679909714],[136.0548552116584,34.70564308865087],[136.0548552116584,34.7031293782046],[136.05796085948464,34.7031293782046],[136.06106650731087,34.70061566775833],[136.07038345078956,34.698101957312055],[136.07348909861582,34.698101957312055],[136.0797003942683,34.683019694634424],[136.08280604209452,34.68050598418816],[136.08280604209452,34.67799227374188],[136.08591168992075,34.67547856329561],[136.08280604209452,34.67045114240307],[136.08280604209452,34.66542372151052],[136.07659474644205,34.662910011064255],[136.07659474644205,34.65788259017171],[136.07038345078956,34.65536887972544],[136.0641721551371,34.652855169279164],[136.04243262035348,34.66039630061798],[136.03932697252725,34.662910011064255],[136.03932697252725,34.66039630061798],[136.05174956383217,34.652855169279164],[136.05796085948464,34.652855169279164],[136.0641721551371,34.6503414588329],[136.07038345078956,34.640286617047806],[136.07348909861582,34.63777290660154],[136.07348909861582,34.632745485708995],[136.07038345078956,34.63023177526272],[136.07038345078956,34.62520435437018],[136.06727780296333,34.62269064392391],[136.06106650731087,34.62017693347764],[136.06106650731087,34.61514951258509],[136.05174956383217,34.60760838124628],[136.0455382681797,34.60006724990747],[136.04864391600594,34.59503982901492],[136.05174956383217,34.59252611856865],[136.04864391600594,34.58749869767611],[136.0455382681797,34.58749869767611],[136.04864391600594,34.582471276783565],[136.04864391600594,34.57995756633729],[136.05174956383217,34.57995756633729],[136.05174956383217,34.57744385589102],[136.05796085948464,34.57744385589102],[136.06106650731087,34.57241643499848],[136.06106650731087,34.56990272455221],[136.06727780296333,34.567389014105935],[136.07348909861582,34.567389014105935],[136.0797003942683,34.562361593213396],[136.08280604209452,34.55984788276712],[136.08901733774698,34.55984788276712],[136.0921229855732,34.55733417232085],[136.09522863339944,34.55733417232085],[136.1014399290519,34.55733417232085],[136.10454557687814,34.55733417232085],[136.1076512247044,34.55733417232085],[136.11075687253063,34.55482046187458],[136.11386252035686,34.54476562008949],[136.12007381600932,34.547279330535765],[136.12317946383556,34.547279330535765],[136.12317946383556,34.54979304098204],[136.13560205514048,34.55733417232085],[136.1387077029667,34.55984788276712],[136.14802464644544,34.55482046187458],[136.15113029427167,34.55482046187458],[136.15113029427167,34.55984788276712],[136.1542359420979,34.55984788276712],[136.15734158992413,34.55482046187458],[136.16044723775036,34.54979304098204],[136.16044723775036,34.547279330535765],[136.16976418122906,34.53973819919695],[136.17286982905532,34.5347107783044],[136.16976418122906,34.52716964696559],[136.16665853340282,34.51962851562678],[136.17908112470778,34.517114805180505],[136.182186772534,34.517114805180505],[136.18839806818647,34.524655936519316],[136.19771501166517,34.524655936519316],[136.21013760297012,34.52968335741186],[136.21634889862258,34.52716964696559],[136.21634889862258,34.52214222607304],[136.21945454644882,34.51208738428796],[136.21634889862258,34.509573673841686],[136.21324325079635,34.502032542502874],[136.21634889862258,34.4995188320566],[136.21945454644882,34.49700512161033],[136.2287714899275,34.49449141116406],[136.2287714899275,34.48946399027152],[136.21945454644882,34.48443656937897],[136.21634889862258,34.47689543804016],[136.21324325079635,34.471868017147614],[136.21013760297012,34.466840596255075],[136.2070319551439,34.459299464916256],[136.2070319551439,34.44924462313117],[136.18839806818647,34.44924462313117],[136.17908112470778,34.44421720223863],[136.16665853340282,34.44924462313117],[136.15734158992413,34.44924462313117],[136.15113029427167,34.44421720223863],[136.14802464644544,34.44170349179236],[136.1449189986192,34.44170349179236],[136.14181335079297,34.44170349179236],[136.13249640731425,34.44421720223863],[136.12939075948802,34.44421720223863],[136.12317946383556,34.44421720223863],[136.1169681681831,34.44170349179236],[136.11075687253063,34.436676070899814],[136.1076512247044,34.436676070899814],[136.10454557687814,34.436676070899814],[136.1014399290519,34.436676070899814],[136.09833428122568,34.436676070899814],[136.09522863339944,34.43416236045354],[136.08901733774698,34.429134939561],[136.08901733774698,34.421593808222184],[136.08901733774698,34.41908009777592],[136.08901733774698,34.41405267688337],[136.08280604209452,34.40902525599083],[136.0797003942683,34.40902525599083],[136.07659474644205,34.40399783509828],[136.07348909861582,34.39645670375947],[136.06727780296333,34.3939429933132],[136.07038345078956,34.38891557242066],[136.0797003942683,34.386401861974385],[136.08591168992075,34.378860730635566],[136.08901733774698,34.37383330974303],[136.0921229855732,34.36880588885048],[136.08901733774698,34.36126475751167],[136.09522863339944,34.3587510470654],[136.09833428122568,34.351209915726585],[136.09833428122568,34.34618249483404],[136.1014399290519,34.34115507394149],[136.1014399290519,34.336127653048955],[136.11075687253063,34.328586521710136],[136.1169681681831,34.32607281126387],[136.12007381600932,34.32607281126387],[136.12317946383556,34.32607281126387],[136.12939075948802,34.31601796947878],[136.12317946383556,34.31099054858624],[136.12007381600932,34.31099054858624],[136.11075687253063,34.305963127693694],[136.10454557687814,34.305963127693694],[136.09833428122568,34.305963127693694],[136.09522863339944,34.300935706801155],[136.09833428122568,34.2883671545698],[136.11075687253063,34.28082602323098],[136.11386252035686,34.278312312784706],[136.12007381600932,34.270771181445895],[136.12007381600932,34.26574376055335],[136.1169681681831,34.26323005010708],[136.1169681681831,34.2607163396608],[136.12317946383556,34.25820262921454],[136.1262851116618,34.255688918768264],[136.12939075948802,34.25317520832199],[136.13249640731425,34.25066149787572],[136.12939075948802,34.248147787429446],[136.12939075948802,34.24312036653691],[136.12317946383556,34.23809294564436],[136.1169681681831,34.23055181430555],[136.11386252035686,34.22803810385928],[136.11075687253063,34.22803810385928],[136.11075687253063,34.22301068296673],[136.1169681681831,34.22301068296673],[136.1169681681831,34.21546955162792],[136.1169681681831,34.212955841181646],[136.11386252035686,34.21044213073537],[136.11075687253063,34.21044213073537],[136.1076512247044,34.21044213073537],[136.10454557687814,34.205414709842834],[136.09833428122568,34.20290099939656],[136.09522863339944,34.197873578504016],[136.0921229855732,34.19535986805775],[136.0921229855732,34.190332447165204],[136.1014399290519,34.18530502627266],[136.1076512247044,34.18530502627266],[136.10454557687814,34.175250184487574],[136.10454557687814,34.1727364740413],[136.1076512247044,34.170222763595035],[136.11075687253063,34.16770905314876],[136.11075687253063,34.16519534270249],[136.11386252035686,34.16016792180994],[136.1076512247044,34.15262679047113],[136.10454557687814,34.15011308002486],[136.10454557687814,34.14257194868605],[136.1014399290519,34.140058238239774],[136.10454557687814,34.1375445277935],[136.1076512247044,34.12748968600842],[136.1014399290519,34.12246226511587],[136.09833428122568,34.119948554669605],[136.10454557687814,34.11492113377706],[136.10454557687814,34.109893712884514],[136.10454557687814,34.10486629199197],[136.1076512247044,34.1023525815457],[136.10454557687814,34.097325160653156],[136.10454557687814,34.09481145020688],[136.11386252035686,34.08727031886807],[136.1169681681831,34.082242897975526],[136.11386252035686,34.082242897975526],[136.1014399290519,34.0847566084218],[136.09833428122568,34.08727031886807],[136.0921229855732,34.082242897975526],[136.09522863339944,34.07721547708299],[136.09522863339944,34.07218805619044],[136.09522863339944,34.06464692485163],[136.09522863339944,34.05710579351281],[136.0921229855732,34.047050951727726],[136.09833428122568,34.04453724128145],[136.1014399290519,34.03448239949637],[136.10454557687814,34.024427557711284],[136.1014399290519,34.024427557711284],[136.09833428122568,34.024427557711284],[136.09833428122568,34.02191384726501],[136.08901733774698,34.024427557711284],[136.08591168992075,34.02945497860382],[136.08280604209452,34.02694126815756],[136.08280604209452,34.02945497860382],[136.0797003942683,34.02945497860382],[136.0797003942683,34.031968689050096],[136.07348909861582,34.03448239949637],[136.06727780296333,34.03448239949637],[136.0641721551371,34.031968689050096],[136.0548552116584,34.03448239949637],[136.05174956383217,34.031968689050096],[136.04243262035348,34.03448239949637],[136.04243262035348,34.039509820388915],[136.03932697252725,34.039509820388915],[136.03932697252725,34.03699610994264],[136.036221324701,34.039509820388915],[136.03311567687476,34.031968689050096],[136.03001002904853,34.031968689050096],[136.02379873339606,34.03448239949637],[136.0175874377436,34.03699610994264],[136.01448178991737,34.024427557711284],[136.0082704942649,34.02191384726501],[136.00516484643867,34.0143727159262],[136.00205919861241,34.009345295033654],[136.00205919861241,34.00683158458738],[135.99584790295995,34.00431787414111],[135.9896366073075,34.00431787414111],[135.98653095948126,33.9967767428023],[135.98342531165503,33.99174932190975],[135.9803196638288,33.99174932190975],[135.97410836817633,33.986721901017205],[135.9647914246976,33.98420819057094],[135.9554744812189,33.981694480124666],[135.94615753774022,33.981694480124666],[135.93994624208773,33.97415334878585],[135.93994624208773,33.97918076967839],[135.9368405942615,33.97918076967839],[135.9275236507828,33.981694480124666],[135.91510105947788,33.97163963833958],[135.91510105947788,33.96912592789331],[135.91510105947788,33.966612217447036],[135.90578411599915,33.96409850700076],[135.90578411599915,33.959071086108224],[135.90267846817292,33.95404366521568],[135.89646717252046,33.95404366521568],[135.89646717252046,33.951529954769406],[135.89336152469423,33.94901624432313],[135.89336152469423,33.94147511298432],[135.89646717252046,33.93393398164551],[135.89646717252046,33.92639285030669],[135.8995728203467,33.92387913986042],[135.90267846817292,33.92639285030669],[135.9088897638254,33.92387913986042],[135.9088897638254,33.91885171896788],[135.90267846817292,33.91885171896788],[135.89646717252046,33.92136542941415],[135.89336152469423,33.91885171896788],[135.89646717252046,33.91131058762906],[135.89336152469423,33.90628316673652],[135.8809389333893,33.908796877182795],[135.8809389333893,33.91382429807533],[135.8809389333893,33.916338008521606],[135.87783328556307,33.916338008521606],[135.87162198991058,33.91885171896788],[135.86851634208435,33.91885171896788],[135.86541069425812,33.92136542941415],[135.86541069425812,33.91885171896788],[135.86851634208435,33.91382429807533],[135.86230504643189,33.90628316673652],[135.85919939860565,33.90376945629025],[135.85919939860565,33.8987420353977],[135.85919939860565,33.886173483166345],[135.86541069425812,33.88868719361262],[135.87162198991058,33.88868719361262],[135.87162198991058,33.886173483166345],[135.87472763773684,33.88365977272008],[135.87783328556307,33.88365977272008],[135.8809389333893,33.878632351827534],[135.87783328556307,33.87360493093499],[135.87472763773684,33.87109122048872],[135.87472763773684,33.86103637870363],[135.87162198991058,33.86103637870363],[135.87162198991058,33.858522668257365],[135.86541069425812,33.86103637870363],[135.85919939860565,33.866063799596176],[135.86230504643189,33.87611864138126],[135.85609375077942,33.87360493093499],[135.8529881029532,33.87611864138126],[135.8529881029532,33.88365977272008],[135.8529881029532,33.88868719361262],[135.8529881029532,33.89120090405889],[135.84677680730073,33.89622832495144],[135.8436711594745,33.89622832495144],[135.837459863822,33.89622832495144],[135.8281429203433,33.8987420353977],[135.81572032903838,33.90376945629025],[135.80950903338592,33.90628316673652],[135.80329773773343,33.90376945629025],[135.8001920899072,33.89622832495144],[135.78776949860227,33.893714614505164],[135.77845255512358,33.88868719361262],[135.77534690729735,33.88868719361262],[135.76602996381862,33.89120090405889],[135.7629243159924,33.886173483166345],[135.75671302033993,33.886173483166345],[135.75050172468747,33.88868719361262],[135.74739607686124,33.88868719361262],[135.744290429035,33.89120090405889],[135.74118478120874,33.89120090405889],[135.7380791333825,33.893714614505164],[135.73497348555628,33.893714614505164],[135.73497348555628,33.89622832495144],[135.72876218990382,33.901255745843976],[135.72255089425136,33.90376945629025],[135.7163395985989,33.90376945629025],[135.71012830294643,33.90376945629025],[135.68528312033655,33.90376945629025],[135.68217747251032,33.901255745843976],[135.6790718246841,33.8987420353977],[135.66975488120536,33.8987420353977],[135.66043793772667,33.8987420353977],[135.66043793772667,33.89120090405889],[135.65733228990044,33.886173483166345],[135.6542266420742,33.88114606227381],[135.64801534642174,33.87611864138126],[135.64180405076928,33.87611864138126],[135.63869840294302,33.87611864138126],[135.62938145946433,33.87360493093499],[135.62317016381186,33.87360493093499],[135.6169588681594,33.87109122048872],[135.6169588681594,33.87360493093499],[135.62317016381186,33.878632351827534],[135.6262758116381,33.88365977272008],[135.6262758116381,33.886173483166345],[135.62317016381186,33.8987420353977],[135.62006451598563,33.8987420353977],[135.60764192468068,33.8987420353977],[135.60143062902821,33.90376945629025],[135.59832498120198,33.908796877182795],[135.61074757250694,33.91131058762906],[135.61074757250694,33.91885171896788],[135.61385322033317,33.92639285030669],[135.61074757250694,33.93142027119924],[135.61074757250694,33.936447692091775],[135.61385322033317,33.936447692091775],[135.6169588681594,33.94147511298432],[135.6169588681594,33.94650253387687],[135.6169588681594,33.95404366521568],[135.62006451598563,33.95404366521568],[135.62317016381186,33.95404366521568],[135.62317016381186,33.951529954769406],[135.62938145946433,33.94901624432313],[135.6355927551168,33.951529954769406],[135.6355927551168,33.959071086108224],[135.63869840294302,33.966612217447036],[135.63869840294302,33.97415334878585],[135.63869840294302,33.981694480124666],[135.6355927551168,33.99174932190975],[135.62938145946433,33.99174932190975],[135.62938145946433,33.9967767428023],[135.62317016381186,33.99929045324856],[135.62317016381186,34.00431787414111],[135.6262758116381,34.00431787414111],[135.62317016381186,34.009345295033654],[135.61385322033317,34.009345295033654],[135.60764192468068,34.01185900547993],[135.59521933337575,34.01185900547993],[135.59211368554952,34.01940013681874],[135.59521933337575,34.02191384726501],[135.59521933337575,34.02694126815756],[135.59832498120198,34.031968689050096],[135.59521933337575,34.039509820388915],[135.59211368554952,34.04453724128145],[135.5890080377233,34.047050951727726],[135.5796910942446,34.05710579351281],[135.57658544641833,34.05710579351281],[135.56726850293964,34.05710579351281],[135.5641628551134,34.06213321440536],[135.55484591163471,34.06464692485163],[135.55174026380848,34.067160635297896],[135.54863461598225,34.067160635297896],[135.53931767250353,34.074701766636714],[135.54242332032976,34.082242897975526],[135.54863461598225,34.082242897975526],[135.54863461598225,34.08727031886807],[135.54863461598225,34.09481145020688],[135.54552896815602,34.097325160653156],[135.54552896815602,34.09983887109943],[135.55174026380848,34.09983887109943],[135.55795155946095,34.1023525815457],[135.55795155946095,34.10738000243824],[135.56726850293964,34.11240742333079],[135.57658544641833,34.11492113377706],[135.58279674207083,34.13000339645468],[135.58590238989706,34.140058238239774],[135.5890080377233,34.14508565913232],[135.5890080377233,34.15011308002486],[135.59211368554952,34.15011308002486],[135.60453627685445,34.155140500917405],[135.61385322033317,34.155140500917405],[135.62317016381186,34.16016792180994],[135.62317016381186,34.162681632256216],[135.62006451598563,34.16770905314876],[135.62317016381186,34.16770905314876],[135.62317016381186,34.170222763595035],[135.6262758116381,34.175250184487574],[135.6355927551168,34.17776389493385],[135.63869840294302,34.18279131582639],[135.6449096985955,34.18781873671893],[135.6449096985955,34.190332447165204],[135.6355927551168,34.197873578504016],[135.6355927551168,34.20290099939656],[135.63869840294302,34.20792842028911],[135.64180405076928,34.212955841181646],[135.64801534642174,34.21798326207419],[135.6542266420742,34.21546955162792],[135.66043793772667,34.21798326207419],[135.66664923337913,34.22301068296673],[135.6728605290316,34.22301068296673],[135.67596617685786,34.22301068296673],[135.68217747251032,34.220496972520465],[135.68528312033655,34.21798326207419],[135.68838876816278,34.21798326207419],[135.691494415989,34.21798326207419],[135.69770571164148,34.212955841181646],[135.7008113594677,34.212955841181646],[135.70702265512017,34.20792842028911],[135.71012830294643,34.20792842028911],[135.71012830294643,34.21044213073537],[135.71323395077266,34.21546955162792],[135.7256565420776,34.220496972520465],[135.72876218990382,34.22803810385928],[135.72876218990382,34.23306552475182],[135.7256565420776,34.23809294564436],[135.71944524642512,34.25317520832199],[135.71944524642512,34.2607163396608],[135.7163395985989,34.26574376055335],[135.71012830294643,34.26825747099962],[135.70702265512017,34.270771181445895],[135.70391700729394,34.270771181445895],[135.7008113594677,34.27579860233844],[135.691494415989,34.278312312784706],[135.68838876816278,34.270771181445895],[135.68217747251032,34.270771181445895],[135.6790718246841,34.270771181445895],[135.6790718246841,34.27328489189217],[135.6728605290316,34.28082602323098],[135.67596617685786,34.2883671545698],[135.66975488120536,34.29590828590861],[135.66664923337913,34.300935706801155],[135.66664923337913,34.30344941724742],[135.66664923337913,34.305963127693694],[135.66664923337913,34.31350425903251],[135.66664923337913,34.32607281126387],[135.66043793772667,34.32607281126387],[135.66043793772667,34.33110023215641],[135.66043793772667,34.336127653048955],[135.66043793772667,34.343668784387766],[135.66043793772667,34.34618249483404],[135.6635435855529,34.356237336619124],[135.6542266420742,34.36880588885048],[135.65112099424798,34.38388815152811],[135.6542266420742,34.38388815152811],[135.66043793772667,34.39142928286692],[135.6635435855529,34.39645670375947],[135.67596617685786,34.39897041420574],[135.67596617685786,34.40651154554456],[135.6790718246841,34.40902525599083],[135.67596617685786,34.41405267688337],[135.66975488120536,34.41405267688337],[135.66664923337913,34.41908009777592],[135.6635435855529,34.42410751866846],[135.66975488120536,34.42662122911473],[135.6728605290316,34.42662122911473],[135.6790718246841,34.436676070899814],[135.68217747251032,34.44421720223863],[135.68528312033655,34.451758333577445],[135.68217747251032,34.45678575446999],[135.68217747251032,34.4643268858088],[135.68217747251032,34.47689543804016],[135.68217747251032,34.481922858932705],[135.68528312033655,34.48443656937897],[135.6790718246841,34.48946399027152],[135.6790718246841,34.49700512161033],[135.67596617685786,34.502032542502874],[135.6728605290316,34.502032542502874],[135.67596617685786,34.50705996339542],[135.67596617685786,34.51460109473423],[135.67596617685786,34.524655936519316],[135.66975488120536,34.52968335741186],[135.66664923337913,34.52968335741186],[135.66043793772667,34.52968335741186],[135.66043793772667,34.53722448875068],[135.66043793772667,34.54225190964322],[135.65733228990044,34.54476562008949],[135.6542266420742,34.54225190964322],[135.65112099424798,34.54476562008949],[135.6542266420742,34.547279330535765],[135.65733228990044,34.552306751428304],[135.6542266420742,34.55482046187458],[135.65733228990044,34.55984788276712],[135.65733228990044,34.562361593213396],[135.66975488120536,34.56990272455221],[135.6728605290316,34.56990272455221],[135.66975488120536,34.57744385589102],[135.6728605290316,34.57995756633729],[135.67596617685786,34.57995756633729],[135.68217747251032,34.58498498722984],[135.6790718246841,34.58749869767611],[135.67596617685786,34.59001240812238],[135.6790718246841,34.59252611856865],[135.67596617685786,34.60006724990747],[135.66975488120536,34.602580960353734],[135.66043793772667,34.602580960353734],[135.65112099424798,34.60509467080001],[135.65112099424798,34.60760838124628],[135.6542266420742,34.612635802138826],[135.65733228990044,34.61514951258509],[135.66043793772667,34.62520435437018],[135.6635435855529,34.632745485708995],[135.66043793772667,34.63525919615527],[135.6635435855529,34.64280032749408],[135.6635435855529,34.6503414588329],[135.66664923337913,34.652855169279164],[135.66975488120536,34.66039630061798],[135.6728605290316,34.6679374319568],[135.6728605290316,34.67045114240307],[135.6790718246841,34.68050598418816],[135.67596617685786,34.6855334050807],[135.6728605290316,34.693074536419516],[135.6728605290316,34.70061566775833],[135.68217747251032,34.71067050954341],[135.68838876816278,34.713184219989685],[135.7008113594677,34.7207253513285],[135.70391700729394,34.72323906177477],[135.7008113594677,34.73580761400613],[135.69770571164148,34.743348745344946],[135.69770571164148,34.74586245579121],[135.69770571164148,34.748376166237485],[135.7008113594677,34.75088987668376],[135.70702265512017,34.748376166237485],[135.71012830294643,34.75340358713003],[135.70702265512017,34.76094471846884],[135.71012830294643,34.77099956025393],[135.70702265512017,34.77099956025393],[135.71012830294643,34.78105440203902],[135.7163395985989,34.778540691592745],[135.72255089425136,34.7735132707002],[135.72876218990382,34.778540691592745]]]}}]}
