{"type":"FeatureCollection","features":[{"type":"Feature","properties":{"name":"Osaka"},"geometry":{"type":"MultiPolygon","coordinates":[[[[135.3716126898869,35.044993998897525],[135.37471833771312,35.04248028845126],[135.3809296333656,35.03745286755871],[135.3809296333656,35.0299117362199],[135.3809296333656,35.024884315327355],[135.37782398553935,35.01985689443481],[135.3809296333656,35.01482947354227],[135.3809296333656,35.009802052649725],[135.3902465768443,35.012315763096],[135.39645787249677,35.009802052649725],[135.40266916814923,35.00728834220345],[135.4088804638017,35.009802052649725],[135.41819740728042,35.00226092131091],[135.42440870293288,35.00226092131091],[135.4368312942378,35.00728834220345],[135.4430425898903,35.00728834220345],[135.44925388554276,35.00226092131091],[135.452359533369,35.00226092131091],[135.46167647684769,34.99974721086464],[135.47099342032638,34.994719789972095],[135.48341601163133,34.994719789972095],[135.48341601163133,34.99220607952583],[135.48652165945757,34.99220607952583],[135.49273295511003,34.989692369079556],[135.49273295511003,34.98717865863328],[135.48341601163133,34.98466494818701],[135.48341601163133,34.98215123774074],[135.48652165945757,34.974610106401926],[135.4896273072838,34.967068975063114],[135.48652165945757,34.96455526461684],[135.48652165945757,34.967068975063114],[135.48341601163133,34.96455526461684],[135.4803103638051,34.96204155417057],[135.48341601163133,34.959527843724295],[135.48652165945757,34.95701413327802],[135.4803103638051,34.94947300193921],[135.48341601163133,34.94695929149294],[135.4896273072838,34.94695929149294],[135.4896273072838,34.9419318706004],[135.49583860293626,34.9419318706004],[135.50204989858872,34.944445581046665],[135.50515554641495,34.94695929149294],[135.51447248989368,34.944445581046665],[135.5175781377199,34.93439073926158],[135.52068378554614,34.93187702881531],[135.52378943337237,34.929363318369035],[135.5362120246773,34.924335897476496],[135.5362120246773,34.91930847658395],[135.54242332032976,34.914281055691404],[135.54552896815602,34.91679476613768],[135.54863461598225,34.91679476613768],[135.55174026380848,34.91679476613768],[135.55484591163471,34.91679476613768],[135.56105720728718,34.91679476613768],[135.5734797985921,34.91679476613768],[135.57658544641833,34.91930847658395],[135.5796910942446,34.924335897476496],[135.5796910942446,34.93690444970785],[135.57037415076587,34.93941816015412],[135.5641628551134,34.93439073926158],[135.56105720728718,34.93439073926158],[135.5641628551134,34.93941816015412],[135.5641628551134,34.9419318706004],[135.55795155946095,34.93439073926158],[135.55795155946095,34.93187702881531],[135.55795155946095,34.93690444970785],[135.56105720728718,34.944445581046665],[135.5641628551134,34.95450042283176],[135.56726850293964,34.95198671238548],[135.57037415076587,34.95450042283176],[135.5796910942446,34.95450042283176],[135.57658544641833,34.96204155417057],[135.5734797985921,34.96204155417057],[135.57037415076587,34.967068975063114],[135.5734797985921,34.97209639595565],[135.58279674207083,34.9771238168482],[135.5890080377233,34.967068975063114],[135.59211368554952,34.967068975063114],[135.59521933337575,34.96958268550938],[135.60453627685445,34.97209639595565],[135.60453627685445,34.96958268550938],[135.60764192468068,34.96958268550938],[135.61385322033317,34.97209639595565],[135.6169588681594,34.96204155417057],[135.6169588681594,34.95701413327802],[135.61385322033317,34.94695929149294],[135.61074757250694,34.944445581046665],[135.61074757250694,34.9419318706004],[135.61074757250694,34.93941816015412],[135.60764192468068,34.93690444970785],[135.60453627685445,34.93439073926158],[135.60143062902821,34.93690444970785],[135.60143062902821,34.92684960792276],[135.60764192468068,34.929363318369035],[135.6169588681594,34.929363318369035],[135.62317016381186,34.93439073926158],[135.6262758116381,34.93439073926158],[135.62938145946433,34.93439073926158],[135.6355927551168,34.93187702881531],[135.64180405076928,34.93187702881531],[135.64180405076928,34.929363318369035],[135.65112099424798,34.92182218703022],[135.65112099424798,34.91930847658395],[135.65112099424798,34.91679476613768],[135.64801534642174,34.91679476613768],[135.64801534642174,34.909253634798866],[135.6542266420742,34.909253634798866],[135.6635435855529,34.90422621390632],[135.66664923337913,34.90422621390632],[135.67596617685786,34.89919879301378],[135.67596617685786,34.894171372121235],[135.68217747251032,34.886630240782424],[135.6790718246841,34.88160281988988],[135.68217747251032,34.87657539899733],[135.68217747251032,34.87154797810479],[135.691494415989,34.86903426765852],[135.691494415989,34.86149313631971],[135.69460006381524,34.86149313631971],[135.691494415989,34.85646571542716],[135.69460006381524,34.84892458408835],[135.70391700729394,34.85143829453462],[135.71012830294643,34.84641087364208],[135.71323395077266,34.84138345274953],[135.7163395985989,34.836356031856994],[135.71944524642512,34.83132861096445],[135.72255089425136,34.8263011900719],[135.7256565420776,34.823787479625636],[135.73186783773005,34.823787479625636],[135.73497348555628,34.81876005873309],[135.7380791333825,34.81121892739428],[135.744290429035,34.80367779605546],[135.744290429035,34.798650375162914],[135.74118478120874,34.793622954270376],[135.7380791333825,34.7911092438241],[135.7380791333825,34.78859553337783],[135.72876218990382,34.778540691592745],[135.72255089425136,34.7735132707002],[135.7163395985989,34.778540691592745],[135.71012830294643,34.78105440203902],[135.70702265512017,34.77099956025393],[135.71012830294643,34.77099956025393],[135.70702265512017,34.76094471846884],[135.71012830294643,34.75340358713003],[135.70702265512017,34.748376166237485],[135.7008113594677,34.75088987668376],[135.69770571164148,34.748376166237485],[135.69770571164148,34.74586245579121],[135.69770571164148,34.743348745344946],[135.7008113594677,34.73580761400613],[135.70391700729394,34.72323906177477],[135.7008113594677,34.7207253513285],[135.68838876816278,34.713184219989685],[135.68217747251032,34.71067050954341],[135.6728605290316,34.70061566775833],[135.6728605290316,34.693074536419516],[135.67596617685786,34.6855334050807],[135.6790718246841,34.68050598418816],[135.6728605290316,34.67045114240307],[135.6728605290316,34.6679374319568],[135.66975488120536,34.66039630061798],[135.66664923337913,34.652855169279164],[135.6635435855529,34.6503414588329],[135.6635435855529,34.64280032749408],[135.66043793772667,34.63525919615527],[135.6635435855529,34.632745485708995],[135.66043793772667,34.62520435437018],[135.65733228990044,34.61514951258509],[135.6542266420742,34.612635802138826],[135.65112099424798,34.60760838124628],[135.65112099424798,34.60509467080001],[135.66043793772667,34.602580960353734],[135.66975488120536,34.602580960353734],[135.67596617685786,34.60006724990747],[135.6790718246841,34.59252611856865],[135.67596617685786,34.59001240812238],[135.6790718246841,34.58749869767611],[135.68217747251032,34.58498498722984],[135.67596617685786,34.57995756633729],[135.6728605290316,34.57995756633729],[135.66975488120536,34.57744385589102],[135.6728605290316,34.56990272455221],[135.66975488120536,34.56990272455221],[135.65733228990044,34.562361593213396],[135.65733228990044,34.55984788276712],[135.6542266420742,34.55482046187458],[135.65733228990044,34.552306751428304],[135.6542266420742,34.547279330535765],[135.65112099424798,34.54476562008949],[135.6542266420742,34.54225190964322],[135.65733228990044,34.54476562008949],[135.66043793772667,34.54225190964322],[135.66043793772667,34.53722448875068],[135.66043793772667,34.52968335741186],[135.66664923337913,34.52968335741186],[135.66975488120536,34.52968335741186],[135.67596617685786,34.524655936519316],[135.67596617685786,34.51460109473423],[135.67596617685786,34.50705996339542],[135.6728605290316,34.502032542502874],[135.67596617685786,34.502032542502874],[135.6790718246841,34.49700512161033],[135.6790718246841,34.48946399027152],[135.68528312033655,34.48443656937897],[135.68217747251032,34.481922858932705],[135.68217747251032,34.47689543804016],[135.68217747251032,34.4643268858088],[135.68217747251032,34.45678575446999],[135.68528312033655,34.451758333577445],[135.68217747251032,34.44421720223863],[135.6790718246841,34.436676070899814],[135.6728605290316,34.42662122911473],[135.66975488120536,34.42662122911473],[135.6635435855529,34.42410751866846],[135.66664923337913,34.41908009777592],[135.66975488120536,34.41405267688337],[135.67596617685786,34.41405267688337],[135.6790718246841,34.40902525599083],[135.67596617685786,34.40651154554456],[135.67596617685786,34.39897041420574],[135.6635435855529,34.39645670375947],[135.66043793772667,34.39142928286692],[135.6542266420742,34.38388815152811],[135.65112099424798,34.38388815152811],[135.63869840294302,34.38388815152811],[135.63869840294302,34.38137444108184],[135.62317016381186,34.38388815152811],[135.62006451598563,34.38388815152811],[135.61385322033317,34.3763470201893],[135.60453627685445,34.3763470201893],[135.60143062902821,34.378860730635566],[135.59832498120198,34.38137444108184],[135.59521933337575,34.3763470201893],[135.58279674207083,34.3763470201893],[135.5796910942446,34.3763470201893],[135.57037415076587,34.371319599296754],[135.56726850293964,34.371319599296754],[135.56105720728718,34.36629217840421],[135.55174026380848,34.3587510470654],[135.54552896815602,34.356237336619124],[135.53931767250353,34.3587510470654],[135.5362120246773,34.35372362617285],[135.53000072902483,34.351209915726585],[135.52378943337237,34.34869620528031],[135.5082611942412,34.336127653048955],[135.50204989858872,34.336127653048955],[135.50204989858872,34.33864136349523],[135.50515554641495,34.33864136349523],[135.50204989858872,34.343668784387766],[135.50204989858872,34.34618249483404],[135.4989442507625,34.351209915726585],[135.49583860293626,34.35372362617285],[135.4896273072838,34.35372362617285],[135.48652165945757,34.36377846795794],[135.4803103638051,34.3587510470654],[135.47720471597887,34.35372362617285],[135.4740990681526,34.35372362617285],[135.46478212467392,34.34869620528031],[135.45857082902145,34.34618249483404],[135.452359533369,34.34869620528031],[135.44925388554276,34.34869620528031],[135.4430425898903,34.34869620528031],[135.43372564641157,34.34869620528031],[135.43061999858534,34.34618249483404],[135.4275143507591,34.34115507394149],[135.41819740728042,34.34115507394149],[135.41509175945419,34.34115507394149],[135.4088804638017,34.34115507394149],[135.40577481597546,34.336127653048955],[135.399563520323,34.33361394260268],[135.39645787249677,34.33110023215641],[135.39335222467054,34.33110023215641],[135.3902465768443,34.33361394260268],[135.38714092901807,34.328586521710136],[135.3809296333656,34.328586521710136],[135.37471833771312,34.33110023215641],[135.3716126898869,34.33110023215641],[135.36850704206066,34.33110023215641],[135.3622957464082,34.328586521710136],[135.35919009858196,34.33361394260268],[135.3529788029295,34.33361394260268],[135.34676750727704,34.33110023215641],[135.34366185945078,34.33361394260268],[135.3374505637983,34.336127653048955],[135.3374505637983,34.33110023215641],[135.33434491597208,34.32607281126387],[135.32813362031962,34.3235591008176],[135.33123926814585,34.31601796947878],[135.3250279724934,34.31853167992505],[135.31260538118846,34.31350425903251],[135.30639408553597,34.31350425903251],[135.30328843770974,34.31350425903251],[135.3001827898835,34.30344941724742],[135.29707714205728,34.300935706801155],[135.29397149423104,34.29842199635488],[135.2908658464048,34.300935706801155],[135.28465455075235,34.31099054858624],[135.28154890292612,34.31853167992505],[135.2722319594474,34.31099054858624],[135.2629150159687,34.31350425903251],[135.25670372031624,34.31601796947878],[135.24738677683754,34.31350425903251],[135.2349641855326,34.30344941724742],[135.2256472420539,34.300935706801155],[135.22254159422766,34.30344941724742],[135.20701335509648,34.30847683813997],[135.20701335509648,34.30344941724742],[135.20390770727025,34.300935706801155],[135.20390770727025,34.2883671545698],[135.20080205944402,34.2883671545698],[135.19769641161778,34.285853444123525],[135.19459076379155,34.285853444123525],[135.1883794681391,34.28333973367725],[135.18527382031286,34.278312312784706],[135.17906252466037,34.278312312784706],[135.1728512290079,34.28082602323098],[135.16042863770298,34.278312312784706],[135.15421734205052,34.27328489189217],[135.15421734205052,34.28082602323098],[135.14800604639805,34.28333973367725],[135.1449003985718,34.28082602323098],[135.13868910291933,34.28082602323098],[135.13868910291933,34.27579860233844],[135.13247780726687,34.27328489189217],[135.12937215944063,34.27328489189217],[135.1262665116144,34.27579860233844],[135.12316086378817,34.27579860233844],[135.1169495681357,34.27328489189217],[135.11384392030948,34.27328489189217],[135.11073827248322,34.270771181445895],[135.107632624657,34.278312312784706],[135.107632624657,34.28333973367725],[135.10142132900452,34.285853444123525],[135.0983156811783,34.2883671545698],[135.0983156811783,34.29339457546234],[135.09521003335206,34.29590828590861],[135.10142132900452,34.300935706801155],[135.10452697683075,34.30847683813997],[135.10452697683075,34.31099054858624],[135.0983156811783,34.30847683813997],[135.09210438552583,34.31099054858624],[135.09210438552583,34.31350425903251],[135.09521003335206,34.31350425903251],[135.0983156811783,34.31350425903251],[135.10142132900452,34.31853167992505],[135.11384392030948,34.321045390371324],[135.1169495681357,34.321045390371324],[135.12005521596194,34.321045390371324],[135.12316086378817,34.321045390371324],[135.12316086378817,34.3235591008176],[135.12316086378817,34.32607281126387],[135.1262665116144,34.3235591008176],[135.12937215944063,34.32607281126387],[135.13247780726687,34.3235591008176],[135.12937215944063,34.321045390371324],[135.13868910291933,34.31853167992505],[135.14179475074556,34.31853167992505],[135.14179475074556,34.321045390371324],[135.14800604639805,34.3235591008176],[135.15421734205052,34.33110023215641],[135.16042863770298,34.33110023215641],[135.16974558118167,34.336127653048955],[135.1728512290079,34.336127653048955],[135.17595687683414,34.33864136349523],[135.17906252466037,34.336127653048955],[135.1883794681391,34.336127653048955],[135.19148511596532,34.33864136349523],[135.19148511596532,34.336127653048955],[135.19459076379155,34.336127653048955],[135.19769641161778,34.33864136349523],[135.20080205944402,34.34115507394149],[135.20390770727025,34.34115507394149],[135.20390770727025,34.343668784387766],[135.20701335509648,34.343668784387766],[135.21943594640143,34.34618249483404],[135.22875288988013,34.35372362617285],[135.24117548118505,34.36629217840421],[135.24117548118505,34.36880588885048],[135.24738677683754,34.37383330974303],[135.24738677683754,34.3763470201893],[135.25049242466378,34.3763470201893],[135.25359807249,34.3763470201893],[135.25049242466378,34.3763470201893],[135.25670372031624,34.38137444108184],[135.25980936814247,34.38137444108184],[135.2629150159687,34.38137444108184],[135.2722319594474,34.38891557242066],[135.2722319594474,34.39142928286692],[135.2722319594474,34.38891557242066],[135.2784432550999,34.3939429933132],[135.2784432550999,34.39645670375947],[135.28776019857858,34.401484124652015],[135.28776019857858,34.40399783509828],[135.29397149423104,34.40651154554456],[135.29397149423104,34.41405267688337],[135.30328843770974,34.416566387329645],[135.30639408553597,34.41908009777592],[135.3094997333622,34.416566387329645],[135.31260538118846,34.41908009777592],[135.3157110290147,34.421593808222184],[135.3157110290147,34.41908009777592],[135.31881667684092,34.41908009777592],[135.3157110290147,34.421593808222184],[135.31881667684092,34.41908009777592],[135.31881667684092,34.421593808222184],[135.32192232466716,34.421593808222184],[135.31881667684092,34.421593808222184],[135.31260538118846,34.42662122911473],[135.31881667684092,34.431648650007276],[135.32192232466716,34.429134939561],[135.32192232466716,34.42662122911473],[135.32192232466716,34.42410751866846],[135.32813362031962,34.429134939561],[135.3250279724934,34.431648650007276],[135.3250279724934,34.429134939561],[135.32192232466716,34.431648650007276],[135.3250279724934,34.436676070899814],[135.33123926814585,34.431648650007276],[135.33434491597208,34.43918978134609],[135.3374505637983,34.44170349179236],[135.3374505637983,34.44421720223863],[135.34366185945078,34.44924462313117],[135.34676750727704,34.44924462313117],[135.34987315510327,34.451758333577445],[135.3529788029295,34.45678575446999],[135.3529788029295,34.451758333577445],[135.35919009858196,34.459299464916256],[135.3622957464082,34.46181317536253],[135.35919009858196,34.46181317536253],[135.3529788029295,34.46181317536253],[135.35608445075573,34.4643268858088],[135.3622957464082,34.471868017147614],[135.36540139423442,34.471868017147614],[135.3622957464082,34.46935430670135],[135.3622957464082,34.466840596255075],[135.36540139423442,34.46935430670135],[135.36540139423442,34.466840596255075],[135.36850704206066,34.466840596255075],[135.3716126898869,34.466840596255075],[135.3716126898869,34.471868017147614],[135.36850704206066,34.471868017147614],[135.36540139423442,34.47689543804016],[135.3622957464082,34.47689543804016],[135.36540139423442,34.481922858932705],[135.36540139423442,34.47940914848643],[135.3716126898869,34.47689543804016],[135.37471833771312,34.47689543804016],[135.37471833771312,34.47438172759389],[135.37782398553935,34.47438172759389],[135.37782398553935,34.47940914848643],[135.37471833771312,34.47940914848643],[135.3716126898869,34.481922858932705],[135.3716126898869,34.48443656937897],[135.37471833771312,34.481922858932705],[135.37782398553935,34.486950279825244],[135.3716126898869,34.48946399027152],[135.3716126898869,34.49449141116406],[135.3716126898869,34.4995188320566],[135.3716126898869,34.502032542502874],[135.3716126898869,34.50454625294915],[135.37471833771312,34.50705996339542],[135.37782398553935,34.509573673841686],[135.37782398553935,34.51208738428796],[135.37471833771312,34.51208738428796],[135.36850704206066,34.517114805180505],[135.37782398553935,34.532197067858135],[135.3716126898869,34.52214222607304],[135.37782398553935,34.51962851562678],[135.37782398553935,34.517114805180505],[135.3809296333656,34.51460109473423],[135.3809296333656,34.517114805180505],[135.3809296333656,34.51962851562678],[135.3809296333656,34.52214222607304],[135.3809296333656,34.524655936519316],[135.38403528119184,34.51962851562678],[135.38714092901807,34.517114805180505],[135.38403528119184,34.51460109473423],[135.3809296333656,34.51208738428796],[135.38403528119184,34.509573673841686],[135.38714092901807,34.51460109473423],[135.3902465768443,34.51208738428796],[135.38714092901807,34.509573673841686],[135.3902465768443,34.50454625294915],[135.39335222467054,34.50705996339542],[135.3902465768443,34.509573673841686],[135.39335222467054,34.51208738428796],[135.39645787249677,34.51208738428796],[135.39645787249677,34.509573673841686],[135.399563520323,34.509573673841686],[135.399563520323,34.51208738428796],[135.39645787249677,34.51460109473423],[135.399563520323,34.51460109473423],[135.40266916814923,34.51962851562678],[135.40266916814923,34.517114805180505],[135.40266916814923,34.51460109473423],[135.40266916814923,34.51208738428796],[135.40577481597546,34.517114805180505],[135.40577481597546,34.51460109473423],[135.40266916814923,34.51208738428796],[135.40577481597546,34.509573673841686],[135.4088804638017,34.51460109473423],[135.40577481597546,34.517114805180505],[135.4088804638017,34.52214222607304],[135.41819740728042,34.51962851562678],[135.42130305510665,34.52214222607304],[135.42440870293288,34.52716964696559],[135.43061999858534,34.532197067858135],[135.4368312942378,34.53973819919695],[135.4368312942378,34.54225190964322],[135.4430425898903,34.547279330535765],[135.4430425898903,34.552306751428304],[135.44614823771653,34.55733417232085],[135.43993694206404,34.55733417232085],[135.4368312942378,34.55984788276712],[135.43061999858534,34.55984788276712],[135.42130305510665,34.55984788276712],[135.41198611162795,34.55984788276712],[135.4088804638017,34.562361593213396],[135.4088804638017,34.56487530365966],[135.40577481597546,34.58749869767611],[135.40266916814923,34.60006724990747],[135.41509175945419,34.59252611856865],[135.41819740728042,34.58749869767611],[135.42130305510665,34.57241643499848],[135.42130305510665,34.56990272455221],[135.43061999858534,34.56990272455221],[135.43061999858534,34.57241643499848],[135.4275143507591,34.57995756633729],[135.4275143507591,34.58749869767611],[135.4275143507591,34.59001240812238],[135.43372564641157,34.58749869767611],[135.43372564641157,34.58498498722984],[135.43372564641157,34.582471276783565],[135.4430425898903,34.582471276783565],[135.4430425898903,34.57744385589102],[135.44614823771653,34.56990272455221],[135.4430425898903,34.56990272455221],[135.4430425898903,34.567389014105935],[135.44614823771653,34.567389014105935],[135.44925388554276,34.56487530365966],[135.452359533369,34.56487530365966],[135.452359533369,34.567389014105935],[135.44925388554276,34.567389014105935],[135.44925388554276,34.57241643499848],[135.452359533369,34.57493014544475],[135.45546518119522,34.57493014544475],[135.45546518119522,34.57241643499848],[135.45857082902145,34.57241643499848],[135.45857082902145,34.57493014544475],[135.45546518119522,34.57744385589102],[135.452359533369,34.57744385589102],[135.44925388554276,34.582471276783565],[135.44925388554276,34.58498498722984],[135.452359533369,34.58498498722984],[135.452359533369,34.582471276783565],[135.45546518119522,34.582471276783565],[135.45857082902145,34.582471276783565],[135.46167647684769,34.582471276783565],[135.46478212467392,34.582471276783565],[135.46788777250015,34.58498498722984],[135.46478212467392,34.58498498722984],[135.46478212467392,34.582471276783565],[135.44925388554276,34.58749869767611],[135.452359533369,34.59001240812238],[135.46167647684769,34.58749869767611],[135.46167647684769,34.59001240812238],[135.46167647684769,34.59252611856865],[135.46167647684769,34.59503982901492],[135.45857082902145,34.59503982901492],[135.45857082902145,34.59001240812238],[135.452359533369,34.59252611856865],[135.44925388554276,34.59001240812238],[135.4430425898903,34.59001240812238],[135.4368312942378,34.58749869767611],[135.42440870293288,34.59252611856865],[135.42440870293288,34.60509467080001],[135.43061999858534,34.602580960353734],[135.43372564641157,34.602580960353734],[135.43372564641157,34.60006724990747],[135.43993694206404,34.60006724990747],[135.44614823771653,34.597553539461195],[135.44614823771653,34.60006724990747],[135.44614823771653,34.602580960353734],[135.4368312942378,34.60509467080001],[135.4368312942378,34.60760838124628],[135.4368312942378,34.61012209169255],[135.42440870293288,34.61012209169255],[135.42440870293288,34.62017693347764],[135.4275143507591,34.617663223031364],[135.4275143507591,34.612635802138826],[135.43372564641157,34.612635802138826],[135.43372564641157,34.61514951258509],[135.43061999858534,34.61514951258509],[135.43061999858534,34.617663223031364],[135.43061999858534,34.62017693347764],[135.43061999858534,34.62269064392391],[135.43372564641157,34.62269064392391],[135.43993694206404,34.62520435437018],[135.4430425898903,34.62520435437018],[135.4430425898903,34.617663223031364],[135.44614823771653,34.61514951258509],[135.44614823771653,34.62269064392391],[135.44925388554276,34.62520435437018],[135.44925388554276,34.63023177526272],[135.452359533369,34.63023177526272],[135.452359533369,34.632745485708995],[135.452359533369,34.63525919615527],[135.44925388554276,34.63525919615527],[135.44614823771653,34.63777290660154],[135.44614823771653,34.640286617047806],[135.44925388554276,34.64280032749408],[135.44925388554276,34.640286617047806],[135.44925388554276,34.63525919615527],[135.44925388554276,34.640286617047806],[135.452359533369,34.640286617047806],[135.452359533369,34.64280032749408],[135.44925388554276,34.64531403794035],[135.44925388554276,34.647827748386625],[135.44925388554276,34.64531403794035],[135.44614823771653,34.64531403794035],[135.4430425898903,34.64531403794035],[135.44614823771653,34.647827748386625],[135.4430425898903,34.647827748386625],[135.43993694206404,34.64531403794035],[135.4368312942378,34.647827748386625],[135.43993694206404,34.6503414588329],[135.4368312942378,34.6503414588329],[135.43372564641157,34.6503414588329],[135.43061999858534,34.6503414588329],[135.4275143507591,34.6503414588329],[135.42440870293288,34.6503414588329],[135.4275143507591,34.652855169279164],[135.4275143507591,34.65536887972544],[135.42440870293288,34.65788259017171],[135.42130305510665,34.65788259017171],[135.42130305510665,34.65536887972544],[135.42130305510665,34.652855169279164],[135.41819740728042,34.652855169279164],[135.42130305510665,34.65788259017171],[135.42130305510665,34.66039630061798],[135.41819740728042,34.66039630061798],[135.41509175945419,34.652855169279164],[135.41509175945419,34.6503414588329],[135.41509175945419,34.652855169279164],[135.41509175945419,34.66039630061798],[135.41819740728042,34.662910011064255],[135.42130305510665,34.662910011064255],[135.42440870293288,34.662910011064255],[135.42440870293288,34.66542372151052],[135.4275143507591,34.6679374319568],[135.42440870293288,34.6679374319568],[135.42440870293288,34.66542372151052],[135.41819740728042,34.662910011064255],[135.41819740728042,34.66542372151052],[135.41819740728042,34.6679374319568],[135.41819740728042,34.67045114240307],[135.41819740728042,34.67296485284934],[135.41198611162795,34.67296485284934],[135.4088804638017,34.67045114240307],[135.4088804638017,34.67296485284934],[135.4088804638017,34.67547856329561],[135.41819740728042,34.67799227374188],[135.41509175945419,34.683019694634424],[135.41819740728042,34.6855334050807],[135.42440870293288,34.693074536419516],[135.41509175945419,34.6855334050807],[135.41198611162795,34.68804711552697],[135.4088804638017,34.69056082597324],[135.40266916814923,34.693074536419516],[135.4088804638017,34.70061566775833],[135.42440870293288,34.70564308865087],[135.4275143507591,34.71067050954341],[135.4368312942378,34.71569793043596],[135.44614823771653,34.7207253513285],[135.44614823771653,34.728266482667316],[135.44614823771653,34.733293903559854],[135.45546518119522,34.73580761400613],[135.45857082902145,34.733293903559854],[135.45857082902145,34.73580761400613],[135.45857082902145,34.75088987668376],[135.45546518119522,34.75088987668376],[135.45546518119522,34.75340358713003],[135.45546518119522,34.76094471846884],[135.452359533369,34.75843100802257],[135.44925388554276,34.76848584980766],[135.4430425898903,34.76848584980766],[135.44614823771653,34.77602698114647],[135.4430425898903,34.783568112485284],[135.43993694206404,34.7911092438241],[135.43372564641157,34.79613666471664],[135.43372564641157,34.798650375162914],[135.43061999858534,34.80367779605546],[135.42440870293288,34.80116408560919],[135.41509175945419,34.81876005873309],[135.42130305510665,34.8263011900719],[135.42440870293288,34.836356031856994],[135.41819740728042,34.85143829453462],[135.42130305510665,34.85143829453462],[135.43061999858534,34.85646571542716],[135.43061999858534,34.858979425873436],[135.43372564641157,34.86903426765852],[135.4368312942378,34.87657539899733],[135.43993694206404,34.886630240782424],[135.4430425898903,34.89165766167496],[135.44614823771653,34.894171372121235],[135.44614823771653,34.89919879301378],[135.4368312942378,34.89668508256751],[135.43372564641157,34.89165766167496],[135.43061999858534,34.89165766167496],[135.43061999858534,34.894171372121235],[135.4275143507591,34.90673992435259],[135.42130305510665,34.90673992435259],[135.41819740728042,34.909253634798866],[135.42130305510665,34.91176734524514],[135.42440870293288,34.914281055691404],[135.43372564641157,34.91679476613768],[135.4368312942378,34.91930847658395],[135.452359533369,34.91930847658395],[135.45546518119522,34.91930847658395],[135.45857082902145,34.91930847658395],[135.46478212467392,34.91930847658395],[135.46478212467392,34.92182218703022],[135.46788777250015,34.924335897476496],[135.46788777250015,34.929363318369035],[135.46167647684769,34.92684960792276],[135.452359533369,34.93187702881531],[135.4430425898903,34.93941816015412],[135.43993694206404,34.93690444970785],[135.4368312942378,34.93690444970785],[135.4275143507591,34.93690444970785],[135.42440870293288,34.93690444970785],[135.41819740728042,34.93439073926158],[135.41819740728042,34.9419318706004],[135.41198611162795,34.93941816015412],[135.4088804638017,34.9419318706004],[135.41198611162795,34.9419318706004],[135.41198611162795,34.944445581046665],[135.4088804638017,34.944445581046665],[135.39645787249677,34.944445581046665],[135.39335222467054,34.9419318706004],[135.3902465768443,34.9419318706004],[135.38714092901807,34.94695929149294],[135.38403528119184,34.95450042283176],[135.37782398553935,34.95701413327802],[135.3716126898869,34.95450042283176],[135.36850704206066,34.95450042283176],[135.36540139423442,34.95701413327802],[135.35919009858196,34.95450042283176],[135.35608445075573,34.96204155417057],[135.34987315510327,34.96455526461684],[135.34676750727704,34.96455526461684],[135.34676750727704,34.96958268550938],[135.34987315510327,34.97963752729447],[135.35919009858196,34.98215123774074],[135.3529788029295,34.98717865863328],[135.3529788029295,34.99974721086464],[135.3529788029295,35.00226092131091],[135.3529788029295,35.004774631757186],[135.3529788029295,35.00728834220345],[135.3529788029295,35.01482947354227],[135.3529788029295,35.024884315327355],[135.34987315510327,35.02739802577363],[135.34676750727704,35.02739802577363],[135.34055621162454,35.024884315327355],[135.33434491597208,35.03493915711244],[135.33123926814585,35.03493915711244],[135.3374505637983,35.04248028845126],[135.34055621162454,35.04248028845126],[135.34366185945078,35.04248028845126],[135.34676750727704,35.044993998897525],[135.34987315510327,35.05002141979007],[135.35919009858196,35.05002141979007],[135.3622957464082,35.0475077093438],[135.36540139423442,35.044993998897525],[135.3716126898869,35.044993998897525]]],[[[135.4088804638017,34.65788259017171],[135.4088804638017,34.66039630061798],[135.40266916814923,34.66039630061798],[135.39335222467054,34.66039630061798],[135.38714092901807,34.662910011064255],[135.38714092901807,34.6679374319568],[135.3902465768443,34.6679374319568],[135.39335222467054,34.67045114240307],[135.40266916814923,34.67296485284934],[135.4088804638017,34.67045114240307],[135.4088804638017,34.6679374319568],[135.41198611162795,34.66542372151052],[135.4088804638017,34.65788259017171]]],[[[135.39335222467054,34.64280032749408],[135.37782398553935,34.64280032749408],[135.3716126898869,34.652855169279164],[135.3809296333656,34.66039630061798],[135.38714092901807,34.65788259017171],[135.399563520323,34.65788259017171],[135.40577481597546,34.652855169279164],[135.40266916814923,34.652855169279164],[135.399563520323,34.647827748386625],[135.39335222467054,34.64531403794035],[135.39335222467054,34.647827748386625],[135.39335222467054,34.64531403794035],[135.39335222467054,34.64280032749408]]],[[[135.42130305510665,34.62269064392391],[135.42130305510665,34.62520435437018],[135.41819740728042,34.62520435437018],[135.41509175945419,34.62520435437018],[135.4088804638017,34.62520435437018],[135.4088804638017,34.63023177526272],[135.41509175945419,34.63525919615527],[135.41198611162795,34.63777290660154],[135.40577481597546,34.63023177526272],[135.399563520323,34.63023177526272],[135.399563520323,34.63777290660154],[135.40266916814923,34.640286617047806],[135.40577481597546,34.640286617047806],[135.41509175945419,34.64531403794035],[135.41819740728042,34.64531403794035],[135.42440870293288,34.64280032749408],[135.4275143507591,34.64280032749408],[135.43372564641157,34.64280032749408],[135.43993694206404,34.640286617047806],[135.4430425898903,34.63023177526272],[135.4430425898903,34.62771806481645],[135.43061999858534,34.62520435437018],[135.42130305510665,34.62269064392391]]],[[[135.41819740728042,34.61012209169255],[135.41819740728042,34.612635802138826],[135.40266916814923,34.612635802138826],[135.399563520323,34.617663223031364],[135.399563520323,34.62017693347764],[135.40266916814923,34.62017693347764],[135.40577481597546,34.62017693347764],[135.41198611162795,34.62017693347764],[135.41509175945419,34.62017693347764],[135.41819740728042,34.62017693347764],[135.42130305510665,34.612635802138826],[135.41819740728042,34.61012209169255]]],[[[135.4275143507591,34.547279330535765],[135.43061999858534,34.55482046187458],[135.43372564641157,34.552306751428304],[135.4368312942378,34.55482046187458],[135.43993694206404,34.55482046187458],[135.43993694206404,34.54979304098204],[135.43993694206404,34.547279330535765],[135.4368312942378,34.54225190964322],[135.43061999858534,34.5347107783044],[135.42130305510665,34.524655936519316],[135.41819740728042,34.524655936519316],[135.40577481597546,34.52968335741186],[135.40577481597546,34.5347107783044],[135.40577481597546,34.53722448875068],[135.399563520323,34.5347107783044],[135.399563520323,34.53722448875068],[135.40577481597546,34.547279330535765],[135.40577481597546,34.54979304098204],[135.4088804638017,34.55482046187458],[135.41509175945419,34.54979304098204],[135.41198611162795,34.54476562008949],[135.41198611162795,34.54225190964322],[135.41509175945419,34.53973819919695],[135.42130305510665,34.53722448875068],[135.42130305510665,34.54225190964322],[135.42440870293288,34.54476562008949],[135.4275143507591,34.547279330535765]]],[[[135.39335222467054,34.532197067858135],[135.39645787249677,34.532197067858135],[135.399563520323,34.52968335741186],[135.40266916814923,34.52716964696559],[135.40266916814923,34.524655936519316],[135.399563520323,34.51962851562678],[135.39645787249677,34.517114805180505],[135.39335222467054,34.51962851562678],[135.39645787249677,34.52214222607304],[135.39335222467054,34.51962851562678],[135.3902465768443,34.52214222607304],[135.39335222467054,34.524655936519316],[135.3902465768443,34.52214222607304],[135.38714092901807,34.524655936519316],[135.39335222467054,34.532197067858135]]],[[[135.33434491597208,34.4467309126849],[135.32813362031962,34.44924462313117],[135.3374505637983,34.4643268858088],[135.34055621162454,34.466840596255075],[135.34676750727704,34.459299464916256],[135.34676750727704,34.45427204402372],[135.33434491597208,34.4467309126849]]],[[[135.22875288988013,34.4467309126849],[135.2349641855326,34.44924462313117],[135.24117548118505,34.45427204402372],[135.2442811290113,34.451758333577445],[135.25049242466378,34.451758333577445],[135.25049242466378,34.44924462313117],[135.25359807249,34.4467309126849],[135.24117548118505,34.43918978134609],[135.23185853770636,34.43416236045354],[135.23185853770636,34.431648650007276],[135.24117548118505,34.436676070899814],[135.24738677683754,34.44170349179236],[135.25049242466378,34.44421720223863],[135.25980936814247,34.44421720223863],[135.26602066379493,34.436676070899814],[135.2629150159687,34.436676070899814],[135.25049242466378,34.429134939561],[135.24738677683754,34.42662122911473],[135.24117548118505,34.421593808222184],[135.2349641855326,34.41908009777592],[135.23806983335882,34.41908009777592],[135.2349641855326,34.41908009777592],[135.2349641855326,34.416566387329645],[135.2349641855326,34.41908009777592],[135.2256472420539,34.41405267688337],[135.21943594640143,34.41908009777592],[135.21943594640143,34.421593808222184],[135.22875288988013,34.429134939561],[135.22875288988013,34.431648650007276],[135.2256472420539,34.429134939561],[135.22254159422766,34.43416236045354],[135.20701335509648,34.42410751866846],[135.20080205944402,34.429134939561],[135.20390770727025,34.431648650007276],[135.2101190029227,34.431648650007276],[135.21943594640143,34.43918978134609],[135.22875288988013,34.4467309126849]]]]}}]}
