{"type":"FeatureCollection","features":[{"type":"Feature","properties":{"name":"Shizuoka"},"geometry":{"type":"MultiPolygon","coordinates":[[[[138.21949174654358,35.64325708511016],[138.2288086900223,35.64577079555643],[138.23191433784854,35.63822966421761],[138.2288086900223,35.625661111986254],[138.238125633501,35.620633691093715],[138.23501998567477,35.61560627020117],[138.23501998567477,35.6130925597549],[138.23501998567477,35.60555142841608],[138.24123128132723,35.60555142841608],[138.24433692915346,35.590469165738455],[138.238125633501,35.58544174484591],[138.238125633501,35.582928034399636],[138.24123128132723,35.57287319261455],[138.24433692915346,35.57035948216828],[138.24433692915346,35.56281835082947],[138.2474425769797,35.560304640383194],[138.25365387263216,35.55527721949065],[138.25986516828465,35.55276350904438],[138.25986516828465,35.53768124636675],[138.25986516828465,35.53014011502793],[138.26297081611088,35.52762640458167],[138.26297081611088,35.525112694135395],[138.26918211176334,35.51505785235031],[138.26918211176334,35.51254414190404],[138.25986516828465,35.50500301056522],[138.25986516828465,35.50248930011895],[138.2567595204584,35.47483848520996],[138.25365387263216,35.46478364342487],[138.2474425769797,35.4622699329786],[138.24433692915346,35.45472880163979],[138.2474425769797,35.44970138074724],[138.25054822480593,35.44718767030098],[138.2567595204584,35.444673959854704],[138.2567595204584,35.437132828515885],[138.25986516828465,35.4270779867308],[138.25986516828465,35.41953685539199],[138.2567595204584,35.40696830316063],[138.2474425769797,35.39942717182181],[138.2474425769797,35.39691346137555],[138.2474425769797,35.394399750929274],[138.24433692915346,35.38937233003673],[138.238125633501,35.386858619590456],[138.23191433784854,35.37680377780537],[138.23191433784854,35.37177635691283],[138.24123128132723,35.36674893602029],[138.24433692915346,35.36674893602029],[138.2474425769797,35.36674893602029],[138.25054822480593,35.36172151512774],[138.25365387263216,35.351666673342656],[138.25365387263216,35.34915296289638],[138.2567595204584,35.34161183155757],[138.2567595204584,35.3390981211113],[138.25365387263216,35.336584410665026],[138.2474425769797,35.33155698977248],[138.25054822480593,35.329043279326214],[138.25365387263216,35.32652956887994],[138.25365387263216,35.32401585843367],[138.2567595204584,35.31898843754112],[138.25986516828465,35.313961016648584],[138.27228775958957,35.313961016648584],[138.27849905524204,35.306419885309765],[138.2847103508945,35.3039061748635],[138.29402729437322,35.313961016648584],[138.29713294219945,35.31647472709486],[138.30955553350438,35.31898843754112],[138.31887247698307,35.32401585843367],[138.3281894204618,35.32652956887994],[138.33440071611426,35.32652956887994],[138.34682330741919,35.31647472709486],[138.35303460307165,35.31647472709486],[138.35924589872414,35.31647472709486],[138.35924589872414,35.313961016648584],[138.3654571943766,35.31144730620231],[138.37166849002907,35.301392464417226],[138.37166849002907,35.29887875397095],[138.3654571943766,35.28882391218587],[138.36856284220283,35.278769070400784],[138.36856284220283,35.271227939061966],[138.36856284220283,35.26871422861569],[138.37166849002907,35.26620051816943],[138.37787978568153,35.25363196593807],[138.38098543350776,35.25363196593807],[138.38719672916022,35.24609083459925],[138.38719672916022,35.236035992814166],[138.39030237698648,35.22346744058281],[138.39340802481271,35.215926309244],[138.39651367263895,35.205871467458905],[138.39961932046518,35.20084404656636],[138.40893626394387,35.20335775701263],[138.41825320742257,35.198330336120094],[138.43067579872752,35.18073436299619],[138.43999274220621,35.17822065254992],[138.44309839003245,35.17822065254992],[138.45862662916363,35.17822065254992],[138.46173227698986,35.17822065254992],[138.47104922046856,35.175706942103645],[138.47726051612102,35.17822065254992],[138.48347181177348,35.17319323165738],[138.48657745959972,35.17319323165738],[138.48657745959972,35.170679521211106],[138.4927887552522,35.16816581076483],[138.4927887552522,35.170679521211106],[138.49589440307844,35.17319323165738],[138.49589440307844,35.175706942103645],[138.5021056987309,35.17822065254992],[138.50831699438336,35.185761783888736],[138.51452829003583,35.190789204781275],[138.51452829003583,35.19330291522755],[138.51763393786206,35.19581662567382],[138.51452829003583,35.19581662567382],[138.51763393786206,35.198330336120094],[138.52073958568832,35.198330336120094],[138.52384523351455,35.198330336120094],[138.530056529167,35.198330336120094],[138.53316217699324,35.20084404656636],[138.530056529167,35.21089888835145],[138.52695088134078,35.215926309244],[138.53316217699324,35.22346744058281],[138.530056529167,35.23100857192162],[138.52695088134078,35.236035992814166],[138.52073958568832,35.2511182554918],[138.52073958568832,35.25363196593807],[138.51452829003583,35.263686807723154],[138.51763393786206,35.26871422861569],[138.52073958568832,35.27374164950824],[138.52073958568832,35.286310201739596],[138.51763393786206,35.29636504352468],[138.51452829003583,35.3039061748635],[138.5114226422096,35.313961016648584],[138.52695088134078,35.32401585843367],[138.530056529167,35.32652956887994],[138.53626782481948,35.33155698977248],[138.53316217699324,35.336584410665026],[138.53316217699324,35.34412554200384],[138.530056529167,35.34915296289638],[138.530056529167,35.359207804681475],[138.530056529167,35.37680377780537],[138.52695088134078,35.379317488251644],[138.53626782481948,35.38937233003673],[138.53316217699324,35.39691346137555],[138.53316217699324,35.40696830316063],[138.53316217699324,35.409482013606905],[138.54247912047194,35.41450943449944],[138.54558476829817,35.417023144945716],[138.5486904161244,35.41953685539199],[138.55800735960312,35.4270779867308],[138.55800735960312,35.43461911806962],[138.56732430308182,35.437132828515885],[138.57353559873428,35.43964653896216],[138.5766412465605,35.44216024940843],[138.58285254221298,35.444673959854704],[138.58906383786547,35.437132828515885],[138.59527513351793,35.43461911806962],[138.59838078134416,35.429591697177074],[138.6014864291704,35.41953685539199],[138.6108033726491,35.394399750929274],[138.62322596395404,35.394399750929274],[138.6387542030852,35.39942717182181],[138.66359938569508,35.39942717182181],[138.66981068134754,35.391886040483],[138.67912762482624,35.356694094235195],[138.69776151178365,35.359207804681475],[138.70086715960988,35.36172151512774],[138.71639539874104,35.364235225574014],[138.72571234221977,35.364235225574014],[138.728817990046,35.364235225574014],[138.74745187700339,35.36674893602029],[138.78782529874445,35.3742900673591],[138.8033535378756,35.37680377780537],[138.81888177700677,35.37680377780537],[138.82198742483303,35.3742900673591],[138.83130436831172,35.379317488251644],[138.83441001613795,35.38434490914419],[138.84683260744288,35.38937233003673],[138.85304390309537,35.38937233003673],[138.8561495509216,35.386858619590456],[138.86236084657406,35.38937233003673],[138.87167779005276,35.38183119869792],[138.88099473353145,35.386858619590456],[138.88720602918394,35.386858619590456],[138.8934173248364,35.391886040483],[138.89962862048887,35.391886040483],[138.90583991614133,35.39691346137555],[138.9120512117938,35.39942717182181],[138.91515685962003,35.39942717182181],[138.9306850987512,35.401940882268086],[138.9400020422299,35.39942717182181],[138.94621333788237,35.39942717182181],[138.95242463353486,35.401940882268086],[138.96795287266602,35.401940882268086],[138.97105852049225,35.40445459271436],[138.98348111179718,35.40445459271436],[138.98658675962344,35.401940882268086],[138.99590370310213,35.401940882268086],[139.0021149987546,35.39942717182181],[138.99900935092836,35.38183119869792],[139.00522064658082,35.3742900673591],[139.00832629440706,35.359207804681475],[139.01453759005952,35.359207804681475],[139.00832629440706,35.34915296289638],[139.0114319422333,35.34161183155757],[139.0114319422333,35.336584410665026],[139.01764323788575,35.329043279326214],[139.01453759005952,35.321502147987395],[139.0114319422333,35.31898843754112],[139.0114319422333,35.31144730620231],[139.00522064658082,35.29385133307841],[139.00522064658082,35.28882391218587],[138.99590370310213,35.28882391218587],[138.9927980552759,35.28379649129332],[138.98348111179718,35.27374164950824],[138.98037546397094,35.26871422861569],[138.97416416831848,35.26117309727688],[138.97416416831848,35.25363196593807],[138.9772698161447,35.24609083459925],[138.9772698161447,35.24106341370671],[138.9772698161447,35.236035992814166],[138.9772698161447,35.23352228236789],[138.98037546397094,35.23100857192162],[138.98348111179718,35.22346744058281],[138.98348111179718,35.21844001969026],[138.98658675962344,35.21341259879772],[138.98658675962344,35.20838517790518],[138.98658675962344,35.20084404656636],[138.98969240744967,35.20084404656636],[138.99590370310213,35.19330291522755],[139.0021149987546,35.190789204781275],[139.0114319422333,35.18324807344246],[139.01453759005952,35.18324807344246],[139.020748885712,35.18073436299619],[139.02385453353824,35.17822065254992],[139.02696018136447,35.175706942103645],[139.02696018136447,35.170679521211106],[139.0300658291907,35.170679521211106],[139.0300658291907,35.16565210031856],[139.02696018136447,35.16062467942602],[139.0300658291907,35.15811096897975],[139.0300658291907,35.15056983764093],[139.04248842049563,35.15056983764093],[139.05180536397432,35.148056127194664],[139.05491101180058,35.148056127194664],[139.06112230745305,35.14554241674839],[139.0673336031055,35.14554241674839],[139.0766505465842,35.14554241674839],[139.08596749006293,35.140514995855845],[139.10149572919408,35.140514995855845],[139.11081267267278,35.140514995855845],[139.10770702484655,35.13046015407076],[139.09839008136785,35.1178916018394],[139.08907313788916,35.11286418094686],[139.08596749006293,35.10783676005432],[139.0828618422367,35.1002956287155],[139.07975619441044,35.1002956287155],[139.07354489875797,35.09275449737669],[139.0828618422367,35.08772707648414],[139.0828618422367,35.08521336603788],[139.07354489875797,35.08018594514533],[139.07975619441044,35.07013110336024],[139.07975619441044,35.067617392913974],[139.07354489875797,35.06258997202143],[139.0673336031055,35.05756255112888],[139.07354489875797,35.0475077093438],[139.07975619441044,35.0475077093438],[139.08596749006293,35.044993998897525],[139.08907313788916,35.0475077093438],[139.0921787857154,35.05002141979007],[139.09839008136785,35.044993998897525],[139.09839008136785,35.03242544666617],[139.09839008136785,35.01985689443481],[139.09839008136785,35.009802052649725],[139.09839008136785,35.00728834220345],[139.0921787857154,35.00728834220345],[139.08907313788916,35.009802052649725],[139.0828618422367,35.00226092131091],[139.0828618422367,34.99974721086464],[139.08596749006293,34.99723350041837],[139.0921787857154,34.989692369079556],[139.0921787857154,34.99220607952583],[139.09528443354162,34.98215123774074],[139.09528443354162,34.974610106401926],[139.10460137702032,34.96958268550938],[139.10770702484655,34.97209639595565],[139.11081267267278,34.97209639595565],[139.12323526397773,34.97209639595565],[139.12634091180396,34.96958268550938],[139.12634091180396,34.967068975063114],[139.1294465596302,34.96204155417057],[139.1294465596302,34.959527843724295],[139.1294465596302,34.95701413327802],[139.13565785528266,34.95198671238548],[139.1387635031089,34.95198671238548],[139.14497479876135,34.95701413327802],[139.14497479876135,34.95450042283176],[139.14497479876135,34.94947300193921],[139.14497479876135,34.94695929149294],[139.14497479876135,34.9419318706004],[139.14186915093512,34.9419318706004],[139.14808044658758,34.93690444970785],[139.14808044658758,34.93439073926158],[139.14808044658758,34.93187702881531],[139.14808044658758,34.929363318369035],[139.1387635031089,34.91930847658395],[139.1387635031089,34.91176734524514],[139.1387635031089,34.90673992435259],[139.13565785528266,34.90422621390632],[139.13255220745643,34.89668508256751],[139.1387635031089,34.894171372121235],[139.14186915093512,34.89165766167496],[139.1387635031089,34.88914395122869],[139.13565785528266,34.886630240782424],[139.13255220745643,34.879089109443605],[139.12323526397773,34.87657539899733],[139.12323526397773,34.874061688551066],[139.11702396832527,34.87154797810479],[139.11081267267278,34.87154797810479],[139.10770702484655,34.87154797810479],[139.10149572919408,34.86903426765852],[139.09839008136785,34.864006846765975],[139.09839008136785,34.858979425873436],[139.09528443354162,34.85646571542716],[139.08907313788916,34.858979425873436],[139.08596749006293,34.85395200498089],[139.0828618422367,34.85143829453462],[139.0828618422367,34.84892458408835],[139.0766505465842,34.843897163195805],[139.0766505465842,34.836356031856994],[139.0766505465842,34.83132861096445],[139.07975619441044,34.8263011900719],[139.0766505465842,34.82127376917936],[139.0766505465842,34.81876005873309],[139.07043925093174,34.813732637840545],[139.06422795527928,34.80116408560919],[139.06112230745305,34.79613666471664],[139.05801665962682,34.783568112485284],[139.05801665962682,34.78608182293156],[139.05491101180058,34.78105440203902],[139.04248842049563,34.7735132707002],[139.04248842049563,34.77099956025393],[139.04869971614812,34.77099956025393],[139.04869971614812,34.76848584980766],[139.0393827726694,34.76597213936139],[139.0300658291907,34.76848584980766],[139.02696018136447,34.763458428915115],[139.02385453353824,34.763458428915115],[139.020748885712,34.7559172975763],[139.01453759005952,34.75340358713003],[139.01453759005952,34.75088987668376],[139.00832629440706,34.75340358713003],[139.00522064658082,34.75340358713003],[138.99900935092836,34.743348745344946],[138.99900935092836,34.73580761400613],[138.99590370310213,34.728266482667316],[138.9927980552759,34.728266482667316],[138.9927980552759,34.72575277222104],[138.9927980552759,34.72323906177477],[138.98969240744967,34.72323906177477],[138.9927980552759,34.71821164088223],[138.98658675962344,34.713184219989685],[138.98348111179718,34.71067050954341],[138.9772698161447,34.70815679909714],[138.9772698161447,34.70564308865087],[138.9772698161447,34.7031293782046],[138.97416416831848,34.69056082597324],[138.97416416831848,34.6855334050807],[138.9772698161447,34.683019694634424],[138.98037546397094,34.68050598418816],[138.9772698161447,34.68050598418816],[138.9772698161447,34.67799227374188],[138.97416416831848,34.67547856329561],[138.97416416831848,34.67296485284934],[138.9772698161447,34.67296485284934],[138.9772698161447,34.67045114240307],[138.98037546397094,34.6679374319568],[138.9772698161447,34.6679374319568],[138.98037546397094,34.6679374319568],[138.98348111179718,34.6679374319568],[138.98658675962344,34.6679374319568],[138.98658675962344,34.66542372151052],[138.98658675962344,34.65788259017171],[138.98348111179718,34.65788259017171],[138.98037546397094,34.66039630061798],[138.9772698161447,34.652855169279164],[138.97105852049225,34.65536887972544],[138.96795287266602,34.65536887972544],[138.96795287266602,34.652855169279164],[138.96174157701356,34.65536887972544],[138.95863592918732,34.652855169279164],[138.95863592918732,34.66039630061798],[138.96174157701356,34.67045114240307],[138.9648472248398,34.67296485284934],[138.95863592918732,34.67547856329561],[138.95242463353486,34.67547856329561],[138.95242463353486,34.67296485284934],[138.9493189857086,34.67296485284934],[138.9493189857086,34.67045114240307],[138.9493189857086,34.6679374319568],[138.94621333788237,34.66542372151052],[138.94621333788237,34.662910011064255],[138.94310769005614,34.66542372151052],[138.9400020422299,34.6679374319568],[138.93689639440368,34.66542372151052],[138.9400020422299,34.662910011064255],[138.9400020422299,34.66039630061798],[138.93689639440368,34.66039630061798],[138.93379074657744,34.66039630061798],[138.92447380309875,34.65536887972544],[138.9182625074463,34.652855169279164],[138.9182625074463,34.647827748386625],[138.9182625074463,34.64531403794035],[138.91515685962003,34.640286617047806],[138.9120512117938,34.63525919615527],[138.90894556396756,34.632745485708995],[138.90583991614133,34.632745485708995],[138.90583991614133,34.62771806481645],[138.89652297266264,34.632745485708995],[138.8934173248364,34.63525919615527],[138.89031167701017,34.632745485708995],[138.88720602918394,34.62771806481645],[138.89031167701017,34.63023177526272],[138.88720602918394,34.62520435437018],[138.88720602918394,34.62771806481645],[138.88720602918394,34.62269064392391],[138.88099473353145,34.62520435437018],[138.874783437879,34.62269064392391],[138.87167779005276,34.617663223031364],[138.8654664944003,34.62017693347764],[138.86236084657406,34.61514951258509],[138.85925519874783,34.61514951258509],[138.85925519874783,34.612635802138826],[138.8561495509216,34.612635802138826],[138.85304390309537,34.612635802138826],[138.8499382552691,34.612635802138826],[138.8499382552691,34.61012209169255],[138.8499382552691,34.60760838124628],[138.84683260744288,34.60509467080001],[138.84372695961665,34.60760838124628],[138.84372695961665,34.602580960353734],[138.84683260744288,34.602580960353734],[138.84372695961665,34.602580960353734],[138.84372695961665,34.60006724990747],[138.84062131179041,34.602580960353734],[138.84062131179041,34.60509467080001],[138.83751566396418,34.60509467080001],[138.83130436831172,34.60509467080001],[138.8281987204855,34.60509467080001],[138.82509307265926,34.60509467080001],[138.82509307265926,34.60760838124628],[138.82509307265926,34.61012209169255],[138.82509307265926,34.612635802138826],[138.82198742483303,34.61514951258509],[138.82198742483303,34.612635802138826],[138.81888177700677,34.61514951258509],[138.81577612918053,34.61514951258509],[138.8126704813543,34.62017693347764],[138.8126704813543,34.62269064392391],[138.80956483352807,34.62771806481645],[138.80024789004938,34.62520435437018],[138.79714224222315,34.62269064392391],[138.7940365943969,34.62269064392391],[138.7940365943969,34.632745485708995],[138.79093094657068,34.63525919615527],[138.78782529874445,34.640286617047806],[138.7847196509182,34.640286617047806],[138.78161400309196,34.63777290660154],[138.77850835526573,34.640286617047806],[138.77229705961327,34.647827748386625],[138.77229705961327,34.65536887972544],[138.7754027074395,34.65536887972544],[138.77850835526573,34.65536887972544],[138.78161400309196,34.65788259017171],[138.7847196509182,34.66039630061798],[138.79093094657068,34.66039630061798],[138.79093094657068,34.662910011064255],[138.79093094657068,34.66542372151052],[138.78782529874445,34.67045114240307],[138.7847196509182,34.6679374319568],[138.7847196509182,34.66542372151052],[138.78161400309196,34.66542372151052],[138.77850835526573,34.6679374319568],[138.77850835526573,34.67045114240307],[138.7754027074395,34.67547856329561],[138.76919141178703,34.68050598418816],[138.7660857639608,34.68050598418816],[138.7660857639608,34.683019694634424],[138.7567688204821,34.69056082597324],[138.74745187700339,34.68804711552697],[138.74434622917715,34.68804711552697],[138.7381349335247,34.69056082597324],[138.74434622917715,34.693074536419516],[138.74124058135092,34.69558824686578],[138.74124058135092,34.698101957312055],[138.74434622917715,34.70061566775833],[138.74124058135092,34.70061566775833],[138.74124058135092,34.70564308865087],[138.74124058135092,34.71569793043596],[138.74124058135092,34.72323906177477],[138.7381349335247,34.72575277222104],[138.74124058135092,34.728266482667316],[138.74434622917715,34.72575277222104],[138.74434622917715,34.728266482667316],[138.74745187700339,34.728266482667316],[138.74745187700339,34.733293903559854],[138.75055752482962,34.73580761400613],[138.75366317265588,34.733293903559854],[138.7567688204821,34.733293903559854],[138.7567688204821,34.74083503489867],[138.7567688204821,34.7383213244524],[138.75987446830834,34.7383213244524],[138.75987446830834,34.74083503489867],[138.7567688204821,34.743348745344946],[138.7567688204821,34.74586245579121],[138.75987446830834,34.74586245579121],[138.76298011613457,34.75088987668376],[138.7660857639608,34.75088987668376],[138.76919141178703,34.75088987668376],[138.76919141178703,34.75340358713003],[138.77229705961327,34.75340358713003],[138.7754027074395,34.75088987668376],[138.7754027074395,34.75340358713003],[138.7754027074395,34.75843100802257],[138.7754027074395,34.763458428915115],[138.77229705961327,34.76848584980766],[138.76919141178703,34.77099956025393],[138.7660857639608,34.76848584980766],[138.76298011613457,34.77099956025393],[138.76919141178703,34.7735132707002],[138.76919141178703,34.77602698114647],[138.76919141178703,34.7735132707002],[138.7660857639608,34.77602698114647],[138.7660857639608,34.778540691592745],[138.7660857639608,34.78105440203902],[138.7660857639608,34.783568112485284],[138.76298011613457,34.78608182293156],[138.76298011613457,34.78859553337783],[138.75987446830834,34.7911092438241],[138.7567688204821,34.793622954270376],[138.7567688204821,34.7911092438241],[138.7567688204821,34.793622954270376],[138.7567688204821,34.79613666471664],[138.75366317265588,34.798650375162914],[138.7567688204821,34.80367779605546],[138.7567688204821,34.80116408560919],[138.75987446830834,34.80116408560919],[138.76298011613457,34.80116408560919],[138.75987446830834,34.80619150650173],[138.7660857639608,34.80619150650173],[138.7660857639608,34.808705216948],[138.76298011613457,34.81121892739428],[138.76298011613457,34.813732637840545],[138.75987446830834,34.81121892739428],[138.7567688204821,34.81121892739428],[138.75055752482962,34.81876005873309],[138.75366317265588,34.823787479625636],[138.7567688204821,34.8263011900719],[138.75987446830834,34.828814900518175],[138.76298011613457,34.828814900518175],[138.7660857639608,34.828814900518175],[138.76298011613457,34.8263011900719],[138.7660857639608,34.82127376917936],[138.76919141178703,34.823787479625636],[138.76919141178703,34.828814900518175],[138.76298011613457,34.83132861096445],[138.76298011613457,34.836356031856994],[138.75987446830834,34.843897163195805],[138.76298011613457,34.843897163195805],[138.7660857639608,34.843897163195805],[138.7660857639608,34.84641087364208],[138.76919141178703,34.84892458408835],[138.76919141178703,34.84641087364208],[138.7754027074395,34.84892458408835],[138.7754027074395,34.85646571542716],[138.7660857639608,34.858979425873436],[138.7660857639608,34.86149313631971],[138.75987446830834,34.86149313631971],[138.75366317265588,34.86903426765852],[138.7567688204821,34.86903426765852],[138.7567688204821,34.88411653033615],[138.76919141178703,34.89668508256751],[138.77229705961327,34.894171372121235],[138.78161400309196,34.89919879301378],[138.78161400309196,34.90422621390632],[138.7847196509182,34.90673992435259],[138.78782529874445,34.90673992435259],[138.79093094657068,34.909253634798866],[138.78782529874445,34.91176734524514],[138.78782529874445,34.914281055691404],[138.7847196509182,34.91930847658395],[138.77850835526573,34.92684960792276],[138.7754027074395,34.93941816015412],[138.7754027074395,34.9419318706004],[138.76919141178703,34.94947300193921],[138.76298011613457,34.96204155417057],[138.76298011613457,34.974610106401926],[138.7660857639608,34.9771238168482],[138.7660857639608,34.974610106401926],[138.7660857639608,34.97209639595565],[138.77229705961327,34.96958268550938],[138.7754027074395,34.96958268550938],[138.7754027074395,34.97963752729447],[138.76919141178703,34.97963752729447],[138.76919141178703,34.98466494818701],[138.77229705961327,34.994719789972095],[138.77850835526573,34.99974721086464],[138.77850835526573,35.00226092131091],[138.77850835526573,35.00728834220345],[138.77850835526573,35.017343183988544],[138.78161400309196,35.01985689443481],[138.78161400309196,35.02237060488108],[138.78782529874445,35.0299117362199],[138.78782529874445,35.02739802577363],[138.78782529874445,35.024884315327355],[138.79093094657068,35.024884315327355],[138.7940365943969,35.02237060488108],[138.79714224222315,35.024884315327355],[138.80024789004938,35.01985689443481],[138.80956483352807,35.01985689443481],[138.8126704813543,35.02237060488108],[138.82198742483303,35.024884315327355],[138.82509307265926,35.02237060488108],[138.8281987204855,35.02237060488108],[138.83441001613795,35.01985689443481],[138.83751566396418,35.017343183988544],[138.84062131179041,35.017343183988544],[138.84683260744288,35.01482947354227],[138.84683260744288,35.017343183988544],[138.8499382552691,35.01482947354227],[138.8561495509216,35.01985689443481],[138.85925519874783,35.01985689443481],[138.86857214222653,35.02237060488108],[138.87167779005276,35.02237060488108],[138.874783437879,35.024884315327355],[138.87788908570522,35.01985689443481],[138.8841003813577,35.024884315327355],[138.8841003813577,35.017343183988544],[138.88720602918394,35.017343183988544],[138.89031167701017,35.017343183988544],[138.8934173248364,35.01985689443481],[138.89962862048887,35.024884315327355],[138.8934173248364,35.02739802577363],[138.8934173248364,35.0299117362199],[138.89652297266264,35.03745286755871],[138.89652297266264,35.04248028845126],[138.89962862048887,35.04248028845126],[138.9027342683151,35.044993998897525],[138.90583991614133,35.0475077093438],[138.9027342683151,35.05002141979007],[138.89962862048887,35.05002141979007],[138.89652297266264,35.05002141979007],[138.8934173248364,35.05002141979007],[138.8934173248364,35.05253513023634],[138.89031167701017,35.0475077093438],[138.88720602918394,35.0475077093438],[138.8841003813577,35.055048840682616],[138.88099473353145,35.055048840682616],[138.87167779005276,35.07013110336024],[138.86857214222653,35.07264481380651],[138.86236084657406,35.07264481380651],[138.85304390309537,35.08018594514533],[138.85304390309537,35.08521336603788],[138.8499382552691,35.0826996555916],[138.8499382552691,35.08521336603788],[138.8499382552691,35.08772707648414],[138.84683260744288,35.09526820782296],[138.8281987204855,35.10783676005432],[138.7940365943969,35.120405312285676],[138.75366317265588,35.13046015407076],[138.74745187700339,35.132973864517034],[138.69776151178365,35.13548757496331],[138.69465586395742,35.140514995855845],[138.70086715960988,35.14302870630212],[138.69776151178365,35.14302870630212],[138.69465586395742,35.140514995855845],[138.69465586395742,35.14554241674839],[138.68844456830496,35.14302870630212],[138.6853389204787,35.14554241674839],[138.6915502161312,35.13800128540957],[138.69465586395742,35.13800128540957],[138.69776151178365,35.13548757496331],[138.6853389204787,35.132973864517034],[138.676021977,35.13046015407076],[138.6667050335213,35.125432733178215],[138.6387542030852,35.11537789139313],[138.62322596395404,35.11537789139313],[138.60769772482286,35.11537789139313],[138.57353559873428,35.11035047050059],[138.55800735960312,35.1002956287155],[138.55800735960312,35.10280933916177],[138.5549017117769,35.1002956287155],[138.5486904161244,35.08772707648414],[138.5486904161244,35.0826996555916],[138.54247912047194,35.067617392913974],[138.53316217699324,35.055048840682616],[138.51763393786206,35.044993998897525],[138.51452829003583,35.03745286755871],[138.51452829003583,35.04248028845126],[138.5114226422096,35.04248028845126],[138.5114226422096,35.03745286755871],[138.5114226422096,35.03493915711244],[138.50831699438336,35.04248028845126],[138.50521134655713,35.04248028845126],[138.50831699438336,35.03242544666617],[138.50521134655713,35.0299117362199],[138.5021056987309,35.03745286755871],[138.5021056987309,35.0299117362199],[138.49900005090467,35.0299117362199],[138.49589440307844,35.03493915711244],[138.4927887552522,35.03242544666617],[138.49589440307844,35.0299117362199],[138.49900005090467,35.02739802577363],[138.49589440307844,35.01985689443481],[138.49589440307844,35.017343183988544],[138.49589440307844,35.02237060488108],[138.48968310742598,35.02237060488108],[138.48968310742598,35.01985689443481],[138.49589440307844,35.017343183988544],[138.49589440307844,35.012315763096],[138.4927887552522,35.012315763096],[138.49589440307844,35.009802052649725],[138.49589440307844,35.00226092131091],[138.49589440307844,34.99974721086464],[138.49900005090467,34.99723350041837],[138.5021056987309,34.99220607952583],[138.50521134655713,34.99220607952583],[138.49900005090467,34.989692369079556],[138.5021056987309,34.98717865863328],[138.50831699438336,34.98717865863328],[138.5114226422096,34.994719789972095],[138.50831699438336,34.99723350041837],[138.50831699438336,34.99974721086464],[138.50521134655713,34.99974721086464],[138.5021056987309,35.00226092131091],[138.5021056987309,35.004774631757186],[138.50521134655713,35.004774631757186],[138.50521134655713,35.00728834220345],[138.5021056987309,35.00728834220345],[138.50521134655713,35.01482947354227],[138.5114226422096,35.01482947354227],[138.51452829003583,35.012315763096],[138.51763393786206,35.00728834220345],[138.52073958568832,35.00728834220345],[138.51763393786206,35.012315763096],[138.51452829003583,35.01985689443481],[138.52384523351455,35.01985689443481],[138.53316217699324,35.012315763096],[138.52695088134078,35.00226092131091],[138.52695088134078,34.99974721086464],[138.52695088134078,34.99723350041837],[138.51452829003583,34.98466494818701],[138.49589440307844,34.97209639595565],[138.4741548682948,34.96204155417057],[138.41514755959633,34.9419318706004],[138.39651367263895,34.929363318369035],[138.39340802481271,34.929363318369035],[138.37166849002907,34.92182218703022],[138.36856284220283,34.924335897476496],[138.3654571943766,34.924335897476496],[138.36856284220283,34.92182218703022],[138.3654571943766,34.91930847658395],[138.3561402508979,34.914281055691404],[138.35303460307165,34.909253634798866],[138.34682330741919,34.89919879301378],[138.34682330741919,34.89668508256751],[138.34061201176672,34.88914395122869],[138.3375063639405,34.88160281988988],[138.33129506828803,34.874061688551066],[138.33440071611426,34.87154797810479],[138.33440071611426,34.86903426765852],[138.33440071611426,34.87154797810479],[138.33129506828803,34.87154797810479],[138.33129506828803,34.86903426765852],[138.3281894204618,34.86903426765852],[138.3281894204618,34.874061688551066],[138.3281894204618,34.87154797810479],[138.32508377263557,34.87154797810479],[138.32508377263557,34.86903426765852],[138.32508377263557,34.86652055721225],[138.32508377263557,34.86903426765852],[138.32508377263557,34.86652055721225],[138.32508377263557,34.85395200498089],[138.3281894204618,34.84892458408835],[138.3281894204618,34.84641087364208],[138.32508377263557,34.85143829453462],[138.32508377263557,34.843897163195805],[138.3281894204618,34.84641087364208],[138.33129506828803,34.84892458408835],[138.33440071611426,34.843897163195805],[138.3375063639405,34.836356031856994],[138.3375063639405,34.83384232141072],[138.32508377263557,34.81121892739428],[138.30023859002569,34.778540691592745],[138.29713294219945,34.78105440203902],[138.29713294219945,34.778540691592745],[138.29402729437322,34.778540691592745],[138.29713294219945,34.783568112485284],[138.29402729437322,34.783568112485284],[138.28781599872073,34.78105440203902],[138.29402729437322,34.77602698114647],[138.30023859002569,34.77602698114647],[138.30334423785192,34.77602698114647],[138.30023859002569,34.77099956025393],[138.29402729437322,34.76597213936139],[138.290921646547,34.763458428915115],[138.26918211176334,34.75340358713003],[138.2660764639371,34.75340358713003],[138.2474425769797,34.74083503489867],[138.24433692915346,34.74083503489867],[138.2288086900223,34.728266482667316],[138.22570304219607,34.728266482667316],[138.2225973943698,34.72323906177477],[138.21949174654358,34.71821164088223],[138.21328045089112,34.7031293782046],[138.21638609871735,34.7031293782046],[138.21328045089112,34.70061566775833],[138.20706915523866,34.68804711552697],[138.2101748030649,34.6855334050807],[138.20706915523866,34.6855334050807],[138.19775221175996,34.67045114240307],[138.19464656393373,34.652855169279164],[138.19464656393373,34.63777290660154],[138.2008578595862,34.63023177526272],[138.2008578595862,34.62771806481645],[138.20396350741242,34.62771806481645],[138.2008578595862,34.62771806481645],[138.20706915523866,34.62017693347764],[138.2101748030649,34.62017693347764],[138.21328045089112,34.617663223031364],[138.2101748030649,34.61514951258509],[138.21328045089112,34.61514951258509],[138.21638609871735,34.612635802138826],[138.21949174654358,34.61514951258509],[138.21638609871735,34.61012209169255],[138.21949174654358,34.60760838124628],[138.2225973943698,34.60760838124628],[138.22570304219607,34.60760838124628],[138.22570304219607,34.60509467080001],[138.23191433784854,34.60509467080001],[138.23191433784854,34.60006724990747],[138.22570304219607,34.59503982901492],[138.2101748030649,34.60006724990747],[138.19464656393373,34.60006724990747],[138.185329620455,34.60509467080001],[138.16048443784516,34.612635802138826],[138.15427314219266,34.61514951258509],[138.1387449030615,34.62269064392391],[138.12321666393035,34.62771806481645],[138.07663194653682,34.64280032749408],[138.06110370740566,34.647827748386625],[138.0642093552319,34.65788259017171],[138.06110370740566,34.65788259017171],[138.0579980595794,34.6503414588329],[138.0579980595794,34.647827748386625],[138.0269415813171,34.65536887972544],[137.99588510305475,34.66039630061798],[137.97103992044487,34.66542372151052],[137.96172297696617,34.66542372151052],[137.9120326117464,34.6679374319568],[137.90582131609395,34.66542372151052],[137.90271566826772,34.6679374319568],[137.89650437261525,34.66542372151052],[137.87165919000537,34.66039630061798],[137.8561309508742,34.65788259017171],[137.8468140073955,34.65788259017171],[137.8281801204381,34.652855169279164],[137.79712364217576,34.64531403794035],[137.77848975521835,34.647827748386625],[137.76606716391342,34.6503414588329],[137.747433276956,34.65536887972544],[137.75053892478223,34.66542372151052],[137.74432762912977,34.6679374319568],[137.747433276956,34.662910011064255],[137.747433276956,34.65788259017171],[137.67910902477885,34.67045114240307],[137.62631301173286,34.67547856329561],[137.62320736390663,34.67547856329561],[137.59836218129678,34.67547856329561],[137.59836218129678,34.67799227374188],[137.58593958999182,34.67799227374188],[137.53314357694586,34.67799227374188],[137.49587580303103,34.67547856329561],[137.4834532117261,34.67296485284934],[137.4834532117261,34.67799227374188],[137.4834532117261,34.683019694634424],[137.48655885955233,34.68804711552697],[137.48966450737856,34.70061566775833],[137.48966450737856,34.71569793043596],[137.4834532117261,34.7207253513285],[137.48034756389987,34.73078019311359],[137.47724191607364,34.733293903559854],[137.48034756389987,34.74083503489867],[137.4741362682474,34.74586245579121],[137.4741362682474,34.75340358713003],[137.47724191607364,34.7559172975763],[137.47724191607364,34.763458428915115],[137.47724191607364,34.77099956025393],[137.47724191607364,34.7735132707002],[137.48034756389987,34.78105440203902],[137.48655885955233,34.783568112485284],[137.4927701552048,34.78608182293156],[137.4927701552048,34.793622954270376],[137.4927701552048,34.798650375162914],[137.4927701552048,34.80367779605546],[137.48655885955233,34.81121892739428],[137.4927701552048,34.81624634828682],[137.49587580303103,34.82127376917936],[137.50208709868352,34.82127376917936],[137.4989814508573,34.8263011900719],[137.50208709868352,34.83384232141072],[137.51761533781468,34.836356031856994],[137.5207209856409,34.83886974230326],[137.53003792911963,34.84138345274953],[137.53314357694586,34.843897163195805],[137.53935487259832,34.84138345274953],[137.54246052042456,34.843897163195805],[137.54867181607702,34.84892458408835],[137.55177746390325,34.85143829453462],[137.55488311172948,34.85143829453462],[137.5642000552082,34.85143829453462],[137.5735169986869,34.85143829453462],[137.58593958999182,34.84892458408835],[137.5921508856443,34.85646571542716],[137.59525653347055,34.86652055721225],[137.59836218129678,34.87154797810479],[137.60767912477547,34.874061688551066],[137.6107847726017,34.874061688551066],[137.61389042042794,34.874061688551066],[137.61699606825417,34.87657539899733],[137.62320736390663,34.879089109443605],[137.62320736390663,34.88160281988988],[137.63252430738535,34.886630240782424],[137.63873560303782,34.89165766167496],[137.64184125086405,34.89668508256751],[137.64184125086405,34.90171250346005],[137.64184125086405,34.90673992435259],[137.64494689869028,34.90673992435259],[137.6480525465165,34.909253634798866],[137.6480525465165,34.91679476613768],[137.6480525465165,34.91930847658395],[137.65115819434274,34.924335897476496],[137.65115819434274,34.93187702881531],[137.6573694899952,34.93941816015412],[137.66047513782144,34.944445581046665],[137.66979208130016,34.94695929149294],[137.67600337695262,34.944445581046665],[137.67910902477885,34.94947300193921],[137.68221467260508,34.95450042283176],[137.68532032043132,34.95450042283176],[137.68842596825755,34.95701413327802],[137.69153161608378,34.96204155417057],[137.69463726391,34.97209639595565],[137.70395420738873,34.96958268550938],[137.70705985521496,34.97209639595565],[137.7008485595625,34.98466494818701],[137.70395420738873,34.989692369079556],[137.70705985521496,34.994719789972095],[137.70395420738873,34.99723350041837],[137.7008485595625,34.99974721086464],[137.7008485595625,35.00226092131091],[137.70395420738873,35.01482947354227],[137.7101655030412,35.02237060488108],[137.71327115086743,35.024884315327355],[137.71637679869366,35.03493915711244],[137.7194824465199,35.03493915711244],[137.72258809434612,35.03745286755871],[137.7287993899986,35.039966578004986],[137.73190503782484,35.0475077093438],[137.73501068565108,35.05253513023634],[137.747433276956,35.060076261575155],[137.7567502204347,35.0651036824677],[137.75985586826096,35.067617392913974],[137.76606716391342,35.07264481380651],[137.7753841073921,35.07767223469906],[137.77227845956588,35.08772707648414],[137.77227845956588,35.090240786930416],[137.77848975521835,35.1002956287155],[137.77848975521835,35.097781918269234],[137.79091234652327,35.09526820782296],[137.79401799434953,35.10280933916177],[137.800229290002,35.105323049608046],[137.800229290002,35.11286418094686],[137.800229290002,35.125432733178215],[137.79401799434953,35.12794644362449],[137.79401799434953,35.13548757496331],[137.79712364217576,35.13548757496331],[137.800229290002,35.132973864517034],[137.80333493782823,35.13046015407076],[137.8095462334807,35.13800128540957],[137.81575752913315,35.140514995855845],[137.81265188130692,35.14302870630212],[137.81575752913315,35.1530835480872],[137.8219688247856,35.148056127194664],[137.82507447261185,35.15056983764093],[137.8281801204381,35.1530835480872],[137.8219688247856,35.15811096897975],[137.82507447261185,35.16565210031856],[137.8219688247856,35.170679521211106],[137.81886317695938,35.175706942103645],[137.81265188130692,35.17319323165738],[137.8095462334807,35.175706942103645],[137.80333493782823,35.18324807344246],[137.80644058565446,35.188275494335],[137.81265188130692,35.185761783888736],[137.81575752913315,35.185761783888736],[137.81886317695938,35.19581662567382],[137.8219688247856,35.20335775701263],[137.83128576826434,35.205871467458905],[137.8281801204381,35.20838517790518],[137.8281801204381,35.21089888835145],[137.83128576826434,35.21089888835145],[137.8374970639168,35.21341259879772],[137.8374970639168,35.215926309244],[137.84060271174303,35.215926309244],[137.84370835956926,35.220953730136536],[137.8468140073955,35.220953730136536],[137.86234224652668,35.22346744058281],[137.87165919000537,35.21844001969026],[137.88097613348407,35.225981151029075],[137.8840817813103,35.23854970326044],[137.88097613348407,35.24357712415298],[137.8840817813103,35.24609083459925],[137.88097613348407,35.248604545045524],[137.89029307696276,35.25363196593807],[137.89339872478902,35.256145676384335],[137.89650437261525,35.25865938683061],[137.9120326117464,35.25363196593807],[137.91824390739887,35.256145676384335],[137.92445520305137,35.26117309727688],[137.9275608508776,35.26871422861569],[137.93066649870383,35.27625535995451],[137.946194737835,35.27625535995451],[137.95240603348745,35.28379649129332],[137.96172297696617,35.28379649129332],[137.9648286247924,35.28379649129332],[137.96793427261863,35.28379649129332],[137.9741455682711,35.29385133307841],[137.9834625117498,35.29385133307841],[137.98967380740226,35.29887875397095],[137.99588510305475,35.301392464417226],[138.00520204653344,35.3039061748635],[138.01762463783837,35.301392464417226],[138.0269415813171,35.31144730620231],[138.0269415813171,35.321502147987395],[138.03936417262202,35.32652956887994],[138.03936417262202,35.33407070021875],[138.04557546827448,35.33407070021875],[138.05178676392694,35.336584410665026],[138.05489241175317,35.34161183155757],[138.0579980595794,35.34412554200384],[138.0642093552319,35.34663925245011],[138.07042065088436,35.34663925245011],[138.07973759436305,35.34161183155757],[138.08594889001552,35.3390981211113],[138.09526583349424,35.34161183155757],[138.09526583349424,35.351666673342656],[138.09837148132047,35.35418038378893],[138.1014771291467,35.35418038378893],[138.10768842479916,35.36172151512774],[138.12321666393035,35.36674893602029],[138.12632231175658,35.36674893602029],[138.1294279595828,35.364235225574014],[138.14185055088774,35.37177635691283],[138.14495619871397,35.37680377780537],[138.1480618465402,35.38937233003673],[138.15116749436643,35.391886040483],[138.15116749436643,35.39691346137555],[138.14185055088774,35.40696830316063],[138.1387449030615,35.40696830316063],[138.13563925523528,35.409482013606905],[138.13563925523528,35.41450943449944],[138.1387449030615,35.417023144945716],[138.1387449030615,35.41953685539199],[138.1387449030615,35.42205056583826],[138.12321666393035,35.4270779867308],[138.12321666393035,35.429591697177074],[138.1201110161041,35.429591697177074],[138.1201110161041,35.43210540762335],[138.12321666393035,35.43210540762335],[138.12321666393035,35.437132828515885],[138.12321666393035,35.44216024940843],[138.1201110161041,35.44718767030098],[138.1201110161041,35.45472880163979],[138.12321666393035,35.45724251208606],[138.13253360740904,35.45472880163979],[138.14495619871397,35.459756222532334],[138.15116749436643,35.459756222532334],[138.15427314219266,35.459756222532334],[138.16048443784516,35.46981106431742],[138.15737879001892,35.47232477476369],[138.15737879001892,35.47483848520996],[138.16048443784516,35.487407037441315],[138.1635900856714,35.494948168780134],[138.15427314219266,35.494948168780134],[138.14495619871397,35.49997558967267],[138.1387449030615,35.49997558967267],[138.1387449030615,35.50248930011895],[138.14495619871397,35.510030431457764],[138.14495619871397,35.517571562796576],[138.1387449030615,35.52259898368912],[138.1480618465402,35.53014011502793],[138.1480618465402,35.53516753592048],[138.16048443784516,35.545222377705564],[138.15737879001892,35.55024979859811],[138.15427314219266,35.55276350904438],[138.15116749436643,35.55276350904438],[138.14185055088774,35.55527721949065],[138.1480618465402,35.55779092993692],[138.15116749436643,35.57035948216828],[138.16048443784516,35.575386903060824],[138.1635900856714,35.58041432395336],[138.16980138132385,35.582928034399636],[138.17290702915008,35.58041432395336],[138.17911832480254,35.575386903060824],[138.185329620455,35.57287319261455],[138.18843526828124,35.5779006135071],[138.1915409161075,35.582928034399636],[138.19464656393373,35.58544174484591],[138.19775221175996,35.598010297077266],[138.20706915523866,35.60806513886235],[138.20396350741242,35.620633691093715],[138.20396350741242,35.63320224332507],[138.21328045089112,35.63571595377134],[138.21949174654358,35.64325708511016]]],[[[139.16981998137123,35.03745286755871],[139.166714333545,35.039966578004986],[139.16360868571877,35.04248028845126],[139.16981998137123,35.04248028845126],[139.1760312770237,35.039966578004986],[139.1760312770237,35.03745286755871],[139.16981998137123,35.03745286755871]]],[[[138.88720602918394,35.03242544666617],[138.88720602918394,35.03493915711244],[138.89031167701017,35.03242544666617],[138.88720602918394,35.03242544666617]]],[[[138.21949174654358,34.617663223031364],[138.21328045089112,34.62017693347764],[138.2101748030649,34.62017693347764],[138.21638609871735,34.62520435437018],[138.21949174654358,34.62269064392391],[138.21949174654358,34.617663223031364]]]]}}]}
