{"type":"FeatureCollection","features":[{"type":"Feature","properties":{"name":"Tokyo"},"geometry":{"type":"MultiPolygon","coordinates":[[[[138.94310769005614,35.85440876259696],[138.94310769005614,35.86194989393578],[138.94621333788237,35.86697731482832],[138.94621333788237,35.86949102527459],[138.9493189857086,35.86949102527459],[138.9555302813611,35.87451844616714],[138.9648472248398,35.879545867059676],[138.96795287266602,35.88205957750595],[138.9772698161447,35.88205957750595],[138.98037546397094,35.88457328795222],[138.98658675962344,35.88205957750595],[138.99590370310213,35.88457328795222],[139.0021149987546,35.88457328795222],[139.00522064658082,35.89211441929103],[139.0114319422333,35.89714184018358],[139.020748885712,35.89714184018358],[139.02385453353824,35.89714184018358],[139.03627712484317,35.88960070884477],[139.05180536397432,35.87703215661341],[139.05801665962682,35.87703215661341],[139.06112230745305,35.87451844616714],[139.07354489875797,35.872004735720864],[139.07975619441044,35.87451844616714],[139.08596749006293,35.872004735720864],[139.0921787857154,35.86949102527459],[139.09839008136785,35.86949102527459],[139.10149572919408,35.86697731482832],[139.12323526397773,35.86446360438205],[139.1294465596302,35.86446360438205],[139.1387635031089,35.86446360438205],[139.15118609441384,35.86194989393578],[139.16050303789254,35.856922473043234],[139.16360868571877,35.851895052150695],[139.1760312770237,35.84686763125815],[139.18534822050242,35.8418402103656],[139.19777081180735,35.83932649991934],[139.2039821074598,35.8418402103656],[139.2039821074598,35.844353920811876],[139.21019340311227,35.84686763125815],[139.21640469876473,35.844353920811876],[139.22261599441723,35.8418402103656],[139.2288272900697,35.836812789473065],[139.23193293789592,35.836812789473065],[139.23814423354838,35.83932649991934],[139.2412498813746,35.83932649991934],[139.24435552920085,35.836812789473065],[139.2474611770271,35.836812789473065],[139.2567781205058,35.836812789473065],[139.25988376833203,35.836812789473065],[139.2754120074632,35.83932649991934],[139.28162330311568,35.83932649991934],[139.2847289509419,35.836812789473065],[139.29094024659437,35.836812789473065],[139.2940458944206,35.836812789473065],[139.29715154224684,35.83429907902679],[139.30025719007307,35.83429907902679],[139.3033628378993,35.82424423724171],[139.30646848572553,35.821730526795434],[139.312679781378,35.82424423724171],[139.31578542920425,35.82424423724171],[139.31578542920425,35.81921681634916],[139.31578542920425,35.81418939545662],[139.32510237268295,35.79407971188645],[139.3313136683354,35.79407971188645],[139.33441931616164,35.791566001440174],[139.3406306118141,35.79407971188645],[139.34373625964034,35.79407971188645],[139.34684190746657,35.79659342233272],[139.35305320311906,35.79407971188645],[139.35926449877152,35.791566001440174],[139.37168709007645,35.791566001440174],[139.36858144225022,35.78905229099391],[139.36858144225022,35.786538580547635],[139.36858144225022,35.78402487010136],[139.37168709007645,35.78151115965509],[139.37168709007645,35.778997449208816],[139.3778983857289,35.778997449208816],[139.38100403355514,35.778997449208816],[139.38100403355514,35.77397002831628],[139.3778983857289,35.771456317870005],[139.38100403355514,35.76642889697746],[139.38721532920763,35.76642889697746],[139.39032097703387,35.76642889697746],[139.39032097703387,35.76391518653119],[139.3934266248601,35.76391518653119],[139.39653227268633,35.76391518653119],[139.39963792051256,35.76642889697746],[139.4027435683388,35.76894260742373],[139.40895486399126,35.76894260742373],[139.41516615964372,35.76642889697746],[139.4213774552962,35.76642889697746],[139.42448310312244,35.76642889697746],[139.43380004660114,35.76642889697746],[139.43690569442737,35.76642889697746],[139.43690569442737,35.76894260742373],[139.4400113422536,35.76642889697746],[139.44311699007983,35.76642889697746],[139.4493282857323,35.76894260742373],[139.45243393355855,35.76894260742373],[139.45553958138478,35.76894260742373],[139.45864522921102,35.76894260742373],[139.45864522921102,35.771456317870005],[139.46485652486348,35.77397002831628],[139.47106782051594,35.77397002831628],[139.47417346834217,35.77648373876255],[139.48038476399466,35.78151115965509],[139.48970170747336,35.778997449208816],[139.48970170747336,35.78151115965509],[139.4928073552996,35.778997449208816],[139.4928073552996,35.78151115965509],[139.49591300312582,35.78151115965509],[139.49591300312582,35.778997449208816],[139.49901865095205,35.78151115965509],[139.50833559443075,35.78402487010136],[139.51144124225698,35.78402487010136],[139.51454689008324,35.78905229099391],[139.5207581857357,35.78905229099391],[139.52386383356193,35.791566001440174],[139.53318077704063,35.79659342233272],[139.54249772051932,35.806648264117804],[139.54560336834555,35.80413455367153],[139.54560336834555,35.79910713277899],[139.53628642486686,35.791566001440174],[139.54249772051932,35.78905229099391],[139.54249772051932,35.78151115965509],[139.53628642486686,35.77648373876255],[139.52386383356193,35.771456317870005],[139.51765253790947,35.76642889697746],[139.52696948138816,35.76894260742373],[139.54560336834555,35.77397002831628],[139.5487090161718,35.77397002831628],[139.54560336834555,35.75888776563865],[139.54560336834555,35.7538603447461],[139.5487090161718,35.7538603447461],[139.55181466399804,35.756374055192374],[139.55492031182428,35.756374055192374],[139.5580259596505,35.75888776563865],[139.56113160747674,35.75888776563865],[139.56423725530297,35.76140147608491],[139.5673429031292,35.76391518653119],[139.57044855095543,35.76391518653119],[139.57044855095543,35.76642889697746],[139.57355419878166,35.76642889697746],[139.57355419878166,35.76894260742373],[139.5766598466079,35.76894260742373],[139.57976549443413,35.771456317870005],[139.5828711422604,35.771456317870005],[139.58597679008662,35.77648373876255],[139.58908243791285,35.778997449208816],[139.5952937335653,35.77648373876255],[139.5952937335653,35.778997449208816],[139.59839938139154,35.778997449208816],[139.59839938139154,35.77648373876255],[139.604610677044,35.77397002831628],[139.59839938139154,35.771456317870005],[139.59839938139154,35.76894260742373],[139.60150502921778,35.771456317870005],[139.604610677044,35.771456317870005],[139.60771632487024,35.76894260742373],[139.61082197269647,35.771456317870005],[139.61082197269647,35.76894260742373],[139.61703326834896,35.771456317870005],[139.61703326834896,35.76642889697746],[139.62324456400142,35.76642889697746],[139.62635021182766,35.77397002831628],[139.62324456400142,35.778997449208816],[139.6294558596539,35.786538580547635],[139.63566715530635,35.791566001440174],[139.63877280313258,35.79407971188645],[139.6418784509588,35.79910713277899],[139.64808974661128,35.79659342233272],[139.65740669009,35.801620843225265],[139.6760405770474,35.79910713277899],[139.69156881617857,35.801620843225265],[139.69778011183104,35.79910713277899],[139.71020270313596,35.791566001440174],[139.72262529444092,35.791566001440174],[139.72573094226715,35.786538580547635],[139.73504788574584,35.78905229099391],[139.73815353357207,35.786538580547635],[139.73815353357207,35.78151115965509],[139.7474704770508,35.78402487010136],[139.7474704770508,35.786538580547635],[139.75368177270326,35.786538580547635],[139.7567874205295,35.78905229099391],[139.75989306835572,35.79910713277899],[139.75057612487703,35.806648264117804],[139.75057612487703,35.80916197456408],[139.75368177270326,35.81167568501035],[139.7567874205295,35.81167568501035],[139.75989306835572,35.81167568501035],[139.76921001183442,35.81670310590289],[139.77231565966065,35.81670310590289],[139.78163260313937,35.806648264117804],[139.79716084227053,35.806648264117804],[139.803372137923,35.80916197456408],[139.81579472922795,35.80916197456408],[139.8220060248804,35.81167568501035],[139.8220060248804,35.81418939545662],[139.82511167270664,35.81167568501035],[139.81890037705418,35.801620843225265],[139.8220060248804,35.79659342233272],[139.82821732053287,35.79407971188645],[139.83442861618533,35.79659342233272],[139.83753426401157,35.801620843225265],[139.84374555966406,35.79910713277899],[139.84685120749026,35.79659342233272],[139.85616815096898,35.791566001440174],[139.85927379879521,35.79407971188645],[139.86237944662145,35.79407971188645],[139.87169639010014,35.79659342233272],[139.87790768575263,35.79407971188645],[139.87169639010014,35.78905229099391],[139.87169639010014,35.78402487010136],[139.87790768575263,35.78151115965509],[139.88101333357886,35.78151115965509],[139.89033027705756,35.78402487010136],[139.8934359248838,35.78151115965509],[139.8934359248838,35.778997449208816],[139.88101333357886,35.771456317870005],[139.88101333357886,35.76391518653119],[139.88722462923133,35.7538603447461],[139.89033027705756,35.75134663429983],[139.89964722053625,35.74380550296102],[139.89964722053625,35.7362643716222],[139.89654157271002,35.726209529837114],[139.90275286836248,35.721182108944575],[139.9120698118412,35.71112726715948],[139.91517545966744,35.70861355671322],[139.91828110749367,35.698558714928126],[139.90585851618872,35.6834764522505],[139.89033027705756,35.68096274180423],[139.88722462923133,35.675935320911684],[139.88722462923133,35.670907900019145],[139.88722462923133,35.65331192689524],[139.88101333357886,35.64325708511016],[139.87480203792637,35.640743374663884],[139.87169639010014,35.63822966421761],[139.86237944662145,35.63822966421761],[139.84995685531652,35.64325708511016],[139.84374555966406,35.64325708511016],[139.8406399118378,35.64325708511016],[139.8406399118378,35.63320224332507],[139.8220060248804,35.63320224332507],[139.83442861618533,35.63571595377134],[139.83442861618533,35.64325708511016],[139.80958343357545,35.640743374663884],[139.80647778574922,35.640743374663884],[139.80647778574922,35.63571595377134],[139.80026649009676,35.63571595377134],[139.80026649009676,35.63068853287879],[139.803372137923,35.625661111986254],[139.79716084227053,35.620633691093715],[139.79094954661807,35.63068853287879],[139.78784389879183,35.62817482243253],[139.7785269553131,35.63822966421761],[139.78163260313937,35.63822966421761],[139.7847382509656,35.63571595377134],[139.79716084227053,35.64577079555643],[139.79716084227053,35.65079821644897],[139.7940551944443,35.65079821644897],[139.7940551944443,35.648284506002696],[139.7785269553131,35.640743374663884],[139.77542130748688,35.64325708511016],[139.7940551944443,35.65331192689524],[139.79094954661807,35.655825637341515],[139.77231565966065,35.64577079555643],[139.76921001183442,35.648284506002696],[139.77231565966065,35.65331192689524],[139.76921001183442,35.65079821644897],[139.76610436400819,35.655825637341515],[139.76921001183442,35.65331192689524],[139.76921001183442,35.655825637341515],[139.76610436400819,35.65833934778779],[139.76299871618195,35.655825637341515],[139.76299871618195,35.65331192689524],[139.75989306835572,35.64577079555643],[139.75989306835572,35.63822966421761],[139.7567874205295,35.63822966421761],[139.75368177270326,35.63822966421761],[139.75368177270326,35.63571595377134],[139.75057612487703,35.625661111986254],[139.75057612487703,35.60806513886235],[139.75057612487703,35.60555142841608],[139.7474704770508,35.60052400752354],[139.7474704770508,35.59298287618472],[139.7474704770508,35.590469165738455],[139.74436482922454,35.590469165738455],[139.7474704770508,35.590469165738455],[139.7474704770508,35.58544174484591],[139.75057612487703,35.5779006135071],[139.75368177270326,35.575386903060824],[139.7567874205295,35.57035948216828],[139.75057612487703,35.567845771722006],[139.75368177270326,35.56281835082947],[139.75989306835572,35.56533206127574],[139.76299871618195,35.560304640383194],[139.77231565966065,35.567845771722006],[139.7847382509656,35.57035948216828],[139.80958343357545,35.53768124636675],[139.7940551944443,35.532653825474206],[139.79094954661807,35.52762640458167],[139.77542130748688,35.53516753592048],[139.7567874205295,35.545222377705564],[139.7474704770508,35.54270866725929],[139.7412591813983,35.545222377705564],[139.73504788574584,35.540194956813025],[139.72883659009338,35.54270866725929],[139.71641399878845,35.53768124636675],[139.7039914074835,35.53768124636675],[139.70088575965727,35.53768124636675],[139.69778011183104,35.54270866725929],[139.7039914074835,35.55024979859811],[139.7039914074835,35.55276350904438],[139.6946744640048,35.55527721949065],[139.68225187269988,35.560304640383194],[139.67914622487365,35.56281835082947],[139.6667236335687,35.58544174484591],[139.6667236335687,35.58795545529218],[139.65430104226377,35.590469165738455],[139.64498409878507,35.598010297077266],[139.63256150748012,35.60555142841608],[139.62324456400142,35.610578849308624],[139.6201389161752,35.6130925597549],[139.61703326834896,35.6130925597549],[139.6139276205227,35.61560627020117],[139.60771632487024,35.61560627020117],[139.604610677044,35.61560627020117],[139.5952937335653,35.618119980647435],[139.58908243791285,35.618119980647435],[139.58908243791285,35.620633691093715],[139.57976549443413,35.620633691093715],[139.5673429031292,35.62817482243253],[139.56113160747674,35.63320224332507],[139.55181466399804,35.63320224332507],[139.5487090161718,35.63571595377134],[139.53628642486686,35.640743374663884],[139.52696948138816,35.64325708511016],[139.52386383356193,35.640743374663884],[139.5207581857357,35.63822966421761],[139.52386383356193,35.63320224332507],[139.51765253790947,35.63068853287879],[139.51454689008324,35.625661111986254],[139.51144124225698,35.62314740153998],[139.50833559443075,35.62314740153998],[139.50522994660452,35.62314740153998],[139.49591300312582,35.618119980647435],[139.49591300312582,35.610578849308624],[139.49901865095205,35.60555142841608],[139.49591300312582,35.60555142841608],[139.48970170747336,35.60555142841608],[139.48659605964713,35.60806513886235],[139.4834904118209,35.60806513886235],[139.48038476399466,35.6130925597549],[139.4772791161684,35.6130925597549],[139.4772791161684,35.618119980647435],[139.4679621726897,35.620633691093715],[139.46485652486348,35.625661111986254],[139.46175087703725,35.625661111986254],[139.46175087703725,35.62314740153998],[139.45553958138478,35.618119980647435],[139.4493282857323,35.610578849308624],[139.45243393355855,35.60555142841608],[139.45553958138478,35.60555142841608],[139.46485652486348,35.60806513886235],[139.4679621726897,35.60806513886235],[139.47106782051594,35.60052400752354],[139.4772791161684,35.60052400752354],[139.48038476399466,35.59549658663099],[139.4834904118209,35.59549658663099],[139.4834904118209,35.59298287618472],[139.48659605964713,35.590469165738455],[139.4928073552996,35.58795545529218],[139.4928073552996,35.58544174484591],[139.49591300312582,35.58041432395336],[139.50522994660452,35.575386903060824],[139.50833559443075,35.575386903060824],[139.50522994660452,35.57035948216828],[139.50212429877828,35.57035948216828],[139.50212429877828,35.567845771722006],[139.49591300312582,35.56533206127574],[139.49591300312582,35.56281835082947],[139.48970170747336,35.560304640383194],[139.48659605964713,35.567845771722006],[139.4834904118209,35.57035948216828],[139.48659605964713,35.5779006135071],[139.48970170747336,35.582928034399636],[139.48659605964713,35.58544174484591],[139.4834904118209,35.582928034399636],[139.48038476399466,35.58041432395336],[139.4772791161684,35.58041432395336],[139.47417346834217,35.575386903060824],[139.47106782051594,35.57035948216828],[139.4679621726897,35.56533206127574],[139.47106782051594,35.560304640383194],[139.47417346834217,35.560304640383194],[139.4772791161684,35.56281835082947],[139.48038476399466,35.55779092993692],[139.4834904118209,35.55024979859811],[139.48038476399466,35.545222377705564],[139.48659605964713,35.53768124636675],[139.48659605964713,35.53516753592048],[139.48659605964713,35.53014011502793],[139.48659605964713,35.52008527324285],[139.4834904118209,35.52008527324285],[139.4772791161684,35.51254414190404],[139.4772791161684,35.510030431457764],[139.4834904118209,35.50500301056522],[139.48038476399466,35.50248930011895],[139.4772791161684,35.50248930011895],[139.4679621726897,35.50248930011895],[139.4679621726897,35.50500301056522],[139.46485652486348,35.510030431457764],[139.46485652486348,35.51505785235031],[139.46175087703725,35.52008527324285],[139.45553958138478,35.52008527324285],[139.45553958138478,35.525112694135395],[139.45864522921102,35.52762640458167],[139.4493282857323,35.53768124636675],[139.44311699007983,35.54270866725929],[139.4400113422536,35.54270866725929],[139.43690569442737,35.545222377705564],[139.43380004660114,35.54773608815184],[139.42758875094867,35.55276350904438],[139.42448310312244,35.55779092993692],[139.41827180746998,35.56281835082947],[139.40895486399126,35.57287319261455],[139.40895486399126,35.575386903060824],[139.4027435683388,35.575386903060824],[139.39963792051256,35.58544174484591],[139.3934266248601,35.58544174484591],[139.39032097703387,35.58544174484591],[139.39032097703387,35.58795545529218],[139.38721532920763,35.58795545529218],[139.38100403355514,35.590469165738455],[139.37479273790268,35.59298287618472],[139.37168709007645,35.59298287618472],[139.36237014659775,35.598010297077266],[139.3561588509453,35.598010297077266],[139.34684190746657,35.60303771796981],[139.3406306118141,35.60555142841608],[139.3313136683354,35.60303771796981],[139.32199672485672,35.60555142841608],[139.312679781378,35.60555142841608],[139.3033628378993,35.60555142841608],[139.30025719007307,35.60555142841608],[139.29715154224684,35.60806513886235],[139.2940458944206,35.610578849308624],[139.28162330311568,35.6130925597549],[139.26920071181073,35.60806513886235],[139.2660950639845,35.60806513886235],[139.2660950639845,35.60303771796981],[139.25988376833203,35.60303771796981],[139.25367247267957,35.60303771796981],[139.2474611770271,35.60555142841608],[139.2412498813746,35.60555142841608],[139.23503858572215,35.610578849308624],[139.23193293789592,35.6130925597549],[139.23193293789592,35.61560627020117],[139.22572164224346,35.62314740153998],[139.219510346591,35.625661111986254],[139.22261599441723,35.62817482243253],[139.21640469876473,35.63571595377134],[139.21640469876473,35.64577079555643],[139.20708775528604,35.65079821644897],[139.20087645963358,35.65331192689524],[139.1946651639811,35.65079821644897],[139.19155951615488,35.648284506002696],[139.18534822050242,35.64577079555643],[139.17913692484993,35.64577079555643],[139.1760312770237,35.648284506002696],[139.166714333545,35.65079821644897],[139.166714333545,35.65331192689524],[139.166714333545,35.66085305823405],[139.16050303789254,35.66839418957287],[139.1573973900663,35.6658804791266],[139.14808044658758,35.6658804791266],[139.14186915093512,35.670907900019145],[139.13565785528266,35.670907900019145],[139.13255220745643,35.670907900019145],[139.1294465596302,35.67342161046541],[139.12323526397773,35.67844903135796],[139.113918320499,35.6834764522505],[139.10770702484655,35.68850387314304],[139.10149572919408,35.691017583589314],[139.0921787857154,35.691017583589314],[139.0828618422367,35.69353129403559],[139.07354489875797,35.69604500448186],[139.07043925093174,35.69604500448186],[139.0673336031055,35.698558714928126],[139.06422795527928,35.7010724253744],[139.05491101180058,35.70358613582067],[139.04869971614812,35.70861355671322],[139.04559406832186,35.70861355671322],[139.03317147701694,35.71615468805203],[139.02696018136447,35.7186683984983],[139.020748885712,35.72872324028339],[139.0114319422333,35.73877808206847],[139.00522064658082,35.748832923853556],[139.0021149987546,35.75134663429983],[138.99590370310213,35.75134663429983],[138.99590370310213,35.7538603447461],[138.9927980552759,35.756374055192374],[138.98348111179718,35.76894260742373],[138.98658675962344,35.778997449208816],[138.98348111179718,35.78402487010136],[138.9772698161447,35.78905229099391],[138.9772698161447,35.791566001440174],[138.97416416831848,35.79659342233272],[138.97105852049225,35.80413455367153],[138.97105852049225,35.81167568501035],[138.97105852049225,35.81670310590289],[138.97105852049225,35.83178536858052],[138.9648472248398,35.829271658134246],[138.95242463353486,35.836812789473065],[138.9493189857086,35.8418402103656],[138.9493189857086,35.84938134170442],[138.94310769005614,35.85440876259696]]],[[[139.8220060248804,35.63320224332507],[139.81890037705418,35.63822966421761],[139.8220060248804,35.640743374663884],[139.82511167270664,35.64325708511016],[139.82511167270664,35.640743374663884],[139.83442861618533,35.640743374663884],[139.8313229683591,35.63822966421761],[139.82511167270664,35.63822966421761],[139.82511167270664,35.63571595377134],[139.8220060248804,35.63320224332507]]],[[[139.85927379879521,35.63571595377134],[139.85616815096898,35.63571595377134],[139.84995685531652,35.63822966421761],[139.84995685531652,35.640743374663884],[139.85927379879521,35.63822966421761],[139.85927379879521,35.63571595377134]]],[[[139.86548509444768,35.63320224332507],[139.86237944662145,35.63571595377134],[139.86237944662145,35.63822966421761],[139.8685907422739,35.63320224332507],[139.86548509444768,35.63320224332507]]],[[[139.76921001183442,35.625661111986254],[139.77542130748688,35.63068853287879],[139.7785269553131,35.63068853287879],[139.7785269553131,35.63320224332507],[139.77542130748688,35.63571595377134],[139.77231565966065,35.63320224332507],[139.77231565966065,35.63571595377134],[139.77542130748688,35.63571595377134],[139.7785269553131,35.63571595377134],[139.78163260313937,35.63068853287879],[139.78163260313937,35.62817482243253],[139.7847382509656,35.625661111986254],[139.78163260313937,35.62314740153998],[139.7940551944443,35.610578849308624],[139.78784389879183,35.60303771796981],[139.7847382509656,35.60303771796981],[139.77231565966065,35.618119980647435],[139.77542130748688,35.618119980647435],[139.77231565966065,35.620633691093715],[139.77231565966065,35.618119980647435],[139.76921001183442,35.618119980647435],[139.76921001183442,35.620633691093715],[139.76921001183442,35.62314740153998],[139.76921001183442,35.625661111986254]]],[[[139.75368177270326,35.62314740153998],[139.75368177270326,35.63068853287879],[139.75368177270326,35.63320224332507],[139.75989306835572,35.63320224332507],[139.75989306835572,35.62817482243253],[139.75989306835572,35.618119980647435],[139.75368177270326,35.618119980647435],[139.75368177270326,35.62314740153998]]],[[[139.83442861618533,35.6130925597549],[139.8313229683591,35.61560627020117],[139.8313229683591,35.620633691093715],[139.82821732053287,35.620633691093715],[139.82511167270664,35.63068853287879],[139.8313229683591,35.63068853287879],[139.83753426401157,35.63068853287879],[139.8406399118378,35.63068853287879],[139.83753426401157,35.6130925597549],[139.83442861618533,35.6130925597549]]],[[[139.7940551944443,35.6130925597549],[139.7847382509656,35.625661111986254],[139.79094954661807,35.62817482243253],[139.79716084227053,35.618119980647435],[139.7940551944443,35.6130925597549]]],[[[139.75057612487703,35.58795545529218],[139.75057612487703,35.59298287618472],[139.75057612487703,35.60052400752354],[139.75057612487703,35.60555142841608],[139.75368177270326,35.618119980647435],[139.7567874205295,35.618119980647435],[139.75989306835572,35.61560627020117],[139.76299871618195,35.610578849308624],[139.76299871618195,35.60806513886235],[139.77231565966065,35.59549658663099],[139.77542130748688,35.590469165738455],[139.77231565966065,35.58544174484591],[139.76921001183442,35.582928034399636],[139.76921001183442,35.58041432395336],[139.77542130748688,35.58544174484591],[139.7785269553131,35.58544174484591],[139.78784389879183,35.58041432395336],[139.7847382509656,35.5779006135071],[139.76610436400819,35.5779006135071],[139.76921001183442,35.5779006135071],[139.76921001183442,35.58041432395336],[139.76610436400819,35.58041432395336],[139.76299871618195,35.5779006135071],[139.7567874205295,35.5779006135071],[139.75057612487703,35.58544174484591],[139.75057612487703,35.58795545529218]]],[[[139.79094954661807,35.59298287618472],[139.79094954661807,35.59549658663099],[139.79094954661807,35.598010297077266],[139.7940551944443,35.60052400752354],[139.80026649009676,35.60806513886235],[139.80958343357545,35.6130925597549],[139.81890037705418,35.60806513886235],[139.79094954661807,35.59298287618472]]],[[[139.8126890814017,35.590469165738455],[139.80647778574922,35.60052400752354],[139.81890037705418,35.60806513886235],[139.82821732053287,35.598010297077266],[139.8126890814017,35.590469165738455]]],[[[139.80647778574922,35.58544174484591],[139.7940551944443,35.59298287618472],[139.7940551944443,35.590469165738455],[139.7940551944443,35.59298287618472],[139.803372137923,35.598010297077266],[139.8126890814017,35.58795545529218],[139.80647778574922,35.58544174484591]]],[[[139.76610436400819,35.56533206127574],[139.75989306835572,35.567845771722006],[139.7567874205295,35.575386903060824],[139.76299871618195,35.575386903060824],[139.77231565966065,35.575386903060824],[139.76610436400819,35.56533206127574]]],[[[139.4400113422536,34.67799227374188],[139.4306943987749,34.67799227374188],[139.42448310312244,34.683019694634424],[139.42448310312244,34.68050598418816],[139.41516615964372,34.68050598418816],[139.4120605118175,34.68050598418816],[139.4027435683388,34.683019694634424],[139.39963792051256,34.683019694634424],[139.39653227268633,34.683019694634424],[139.3934266248601,34.6855334050807],[139.3841096813814,34.693074536419516],[139.37479273790268,34.69558824686578],[139.37168709007645,34.698101957312055],[139.36858144225022,34.70061566775833],[139.35926449877152,34.70061566775833],[139.36237014659775,34.70815679909714],[139.35305320311906,34.71821164088223],[139.35305320311906,34.728266482667316],[139.3561588509453,34.733293903559854],[139.3561588509453,34.74083503489867],[139.35305320311906,34.743348745344946],[139.35305320311906,34.75088987668376],[139.34994755529283,34.75088987668376],[139.35305320311906,34.75088987668376],[139.35305320311906,34.75340358713003],[139.34994755529283,34.7559172975763],[139.34994755529283,34.763458428915115],[139.34994755529283,34.76597213936139],[139.34994755529283,34.7735132707002],[139.34994755529283,34.783568112485284],[139.35305320311906,34.78859553337783],[139.3561588509453,34.7911092438241],[139.35926449877152,34.798650375162914],[139.365475794424,34.79613666471664],[139.37168709007645,34.798650375162914],[139.3778983857289,34.793622954270376],[139.38100403355514,34.793622954270376],[139.38100403355514,34.7911092438241],[139.39032097703387,34.78859553337783],[139.39963792051256,34.78859553337783],[139.40895486399126,34.78608182293156],[139.4120605118175,34.78608182293156],[139.4213774552962,34.78105440203902],[139.43380004660114,34.77099956025393],[139.4400113422536,34.76094471846884],[139.4400113422536,34.75340358713003],[139.44311699007983,34.748376166237485],[139.4462226379061,34.74586245579121],[139.4493282857323,34.7383213244524],[139.4462226379061,34.73580761400613],[139.4462226379061,34.728266482667316],[139.4462226379061,34.72323906177477],[139.4493282857323,34.71569793043596],[139.4462226379061,34.71067050954341],[139.44311699007983,34.7031293782046],[139.4493282857323,34.698101957312055],[139.4493282857323,34.69558824686578],[139.4462226379061,34.69056082597324],[139.4462226379061,34.6855334050807],[139.4400113422536,34.6855334050807],[139.4400113422536,34.68804711552697],[139.43690569442737,34.68804711552697],[139.4400113422536,34.683019694634424],[139.4400113422536,34.67799227374188]]],[[[139.2754120074632,34.51208738428796],[139.26920071181073,34.517114805180505],[139.26920071181073,34.52716964696559],[139.2754120074632,34.532197067858135],[139.27851765528942,34.532197067858135],[139.28162330311568,34.5347107783044],[139.28162330311568,34.532197067858135],[139.2847289509419,34.532197067858135],[139.28783459876814,34.52968335741186],[139.2940458944206,34.524655936519316],[139.28162330311568,34.51208738428796],[139.2754120074632,34.51208738428796]]],[[[139.2940458944206,34.46935430670135],[139.29094024659437,34.47438172759389],[139.28783459876814,34.47689543804016],[139.29715154224684,34.47438172759389],[139.30025719007307,34.46935430670135],[139.2940458944206,34.46935430670135]]],[[[139.27230635963696,34.33110023215641],[139.2567781205058,34.336127653048955],[139.25367247267957,34.33864136349523],[139.2474611770271,34.34618249483404],[139.24435552920085,34.34869620528031],[139.24435552920085,34.35372362617285],[139.2412498813746,34.36126475751167],[139.24435552920085,34.36880588885048],[139.2474611770271,34.36880588885048],[139.2567781205058,34.38388815152811],[139.2567781205058,34.3939429933132],[139.2567781205058,34.39897041420574],[139.2660950639845,34.40651154554456],[139.26920071181073,34.41405267688337],[139.27230635963696,34.416566387329645],[139.2754120074632,34.416566387329645],[139.2754120074632,34.41405267688337],[139.28162330311568,34.41908009777592],[139.28162330311568,34.42410751866846],[139.27851765528942,34.431648650007276],[139.28162330311568,34.431648650007276],[139.2847289509419,34.429134939561],[139.29094024659437,34.42410751866846],[139.29094024659437,34.41908009777592],[139.28783459876814,34.41405267688337],[139.29094024659437,34.40902525599083],[139.29094024659437,34.40651154554456],[139.29094024659437,34.401484124652015],[139.2847289509419,34.39897041420574],[139.27851765528942,34.38891557242066],[139.2754120074632,34.34869620528031],[139.27230635963696,34.336127653048955],[139.27230635963696,34.33110023215641]]],[[[139.22572164224346,34.36629217840421],[139.2288272900697,34.36880588885048],[139.22261599441723,34.37383330974303],[139.22572164224346,34.37383330974303],[139.2288272900697,34.37383330974303],[139.2288272900697,34.36880588885048],[139.22572164224346,34.36629217840421]]],[[[139.21019340311227,34.336127653048955],[139.21019340311227,34.33864136349523],[139.2132990509385,34.33864136349523],[139.21019340311227,34.336127653048955]]],[[[139.2132990509385,34.31601796947878],[139.21019340311227,34.31853167992505],[139.20708775528604,34.31853167992505],[139.20708775528604,34.321045390371324],[139.2039821074598,34.321045390371324],[139.20087645963358,34.31601796947878],[139.19777081180735,34.31601796947878],[139.1946651639811,34.31853167992505],[139.1946651639811,34.321045390371324],[139.20087645963358,34.32607281126387],[139.20087645963358,34.328586521710136],[139.2039821074598,34.32607281126387],[139.2039821074598,34.328586521710136],[139.20708775528604,34.328586521710136],[139.20708775528604,34.33361394260268],[139.20708775528604,34.336127653048955],[139.21019340311227,34.33361394260268],[139.21019340311227,34.336127653048955],[139.2132990509385,34.336127653048955],[139.2132990509385,34.33361394260268],[139.21640469876473,34.33361394260268],[139.22261599441723,34.33110023215641],[139.22572164224346,34.33110023215641],[139.22572164224346,34.32607281126387],[139.22572164224346,34.3235591008176],[139.22261599441723,34.3235591008176],[139.22261599441723,34.321045390371324],[139.22261599441723,34.3235591008176],[139.219510346591,34.321045390371324],[139.21640469876473,34.31853167992505],[139.2132990509385,34.31601796947878]]],[[[139.27851765528942,34.3235591008176],[139.2754120074632,34.32607281126387],[139.27851765528942,34.328586521710136],[139.28162330311568,34.32607281126387],[139.27851765528942,34.3235591008176]]],[[[139.1294465596302,34.18530502627266],[139.12634091180396,34.18781873671893],[139.12634091180396,34.190332447165204],[139.12323526397773,34.18781873671893],[139.1201296161515,34.190332447165204],[139.1201296161515,34.19284615761148],[139.12323526397773,34.197873578504016],[139.1294465596302,34.20038728895029],[139.13255220745643,34.20038728895029],[139.13255220745643,34.20290099939656],[139.1294465596302,34.21546955162792],[139.13255220745643,34.21798326207419],[139.1294465596302,34.220496972520465],[139.1294465596302,34.22301068296673],[139.13255220745643,34.22301068296673],[139.13565785528266,34.225524393413004],[139.13565785528266,34.23306552475182],[139.13565785528266,34.23809294564436],[139.13565785528266,34.240606656090634],[139.14186915093512,34.24312036653691],[139.14808044658758,34.240606656090634],[139.15118609441384,34.240606656090634],[139.15429174224008,34.240606656090634],[139.16981998137123,34.23306552475182],[139.17292562919747,34.220496972520465],[139.1760312770237,34.21798326207419],[139.17292562919747,34.21546955162792],[139.17292562919747,34.21044213073537],[139.1760312770237,34.205414709842834],[139.17292562919747,34.205414709842834],[139.16981998137123,34.20792842028911],[139.16050303789254,34.205414709842834],[139.15429174224008,34.20290099939656],[139.15429174224008,34.197873578504016],[139.1573973900663,34.19535986805775],[139.15429174224008,34.19535986805775],[139.15118609441384,34.19284615761148],[139.14808044658758,34.19535986805775],[139.14497479876135,34.18781873671893],[139.14186915093512,34.18530502627266],[139.14186915093512,34.18781873671893],[139.1387635031089,34.18530502627266],[139.13255220745643,34.18530502627266],[139.1294465596302,34.18530502627266]]],[[[139.19155951615488,34.205414709842834],[139.18845386832865,34.20792842028911],[139.19155951615488,34.20792842028911],[139.19155951615488,34.205414709842834]]],[[[139.07354489875797,34.18279131582639],[139.07354489875797,34.18530502627266],[139.0766505465842,34.18279131582639],[139.07354489875797,34.18279131582639]]],[[[139.50212429877828,34.04453724128145],[139.49591300312582,34.047050951727726],[139.4928073552996,34.049564662174],[139.48970170747336,34.05207837262027],[139.4834904118209,34.05207837262027],[139.48038476399466,34.05710579351281],[139.4772791161684,34.06213321440536],[139.48038476399466,34.067160635297896],[139.4772791161684,34.07218805619044],[139.47417346834217,34.074701766636714],[139.47417346834217,34.07721547708299],[139.48038476399466,34.082242897975526],[139.48038476399466,34.0847566084218],[139.48038476399466,34.08727031886807],[139.4834904118209,34.08727031886807],[139.48659605964713,34.09229773976061],[139.48970170747336,34.097325160653156],[139.48970170747336,34.09983887109943],[139.4928073552996,34.1023525815457],[139.48970170747336,34.11240742333079],[139.4928073552996,34.117434844223325],[139.49591300312582,34.119948554669605],[139.49901865095205,34.12246226511587],[139.50522994660452,34.12246226511587],[139.51144124225698,34.119948554669605],[139.5207581857357,34.124975975562144],[139.52386383356193,34.124975975562144],[139.52696948138816,34.124975975562144],[139.53628642486686,34.12246226511587],[139.5393920726931,34.12246226511587],[139.5487090161718,34.117434844223325],[139.5580259596505,34.11240742333079],[139.56423725530297,34.1023525815457],[139.56423725530297,34.09229773976061],[139.56113160747674,34.08727031886807],[139.56113160747674,34.082242897975526],[139.56423725530297,34.07972918752925],[139.56113160747674,34.06967434574417],[139.5580259596505,34.06464692485163],[139.55492031182428,34.059619503959084],[139.54560336834555,34.05710579351281],[139.54249772051932,34.05459208306654],[139.5393920726931,34.05459208306654],[139.53628642486686,34.05207837262027],[139.53318077704063,34.049564662174],[139.53318077704063,34.047050951727726],[139.5300751292144,34.047050951727726],[139.52696948138816,34.049564662174],[139.5207581857357,34.047050951727726],[139.51454689008324,34.047050951727726],[139.50833559443075,34.047050951727726],[139.50212429877828,34.04453724128145]]],[[[139.6201389161752,33.850981536918546],[139.6139276205227,33.85349524736482],[139.5952937335653,33.85349524736482],[139.5828711422604,33.858522668257365],[139.5766598466079,33.8635500891499],[139.5766598466079,33.88114606227381],[139.58908243791285,33.89622832495144],[139.60150502921778,33.901255745843976],[139.604610677044,33.901255745843976],[139.61703326834896,33.893714614505164],[139.62324456400142,33.88868719361262],[139.63256150748012,33.86857751004245],[139.62324456400142,33.85349524736482],[139.6201389161752,33.850981536918546]]],[[[139.8313229683591,33.046594194111655],[139.81890037705418,33.05916274634301],[139.81579472922795,33.05916274634301],[139.8126890814017,33.05916274634301],[139.80958343357545,33.05916274634301],[139.80647778574922,33.05916274634301],[139.803372137923,33.06419016723555],[139.79716084227053,33.061676456789286],[139.7940551944443,33.06419016723555],[139.78784389879183,33.0692175881281],[139.78163260313937,33.07173129857437],[139.7785269553131,33.086813561252],[139.7785269553131,33.096868403037085],[139.7785269553131,33.09938211348336],[139.77542130748688,33.09938211348336],[139.77231565966065,33.096868403037085],[139.77231565966065,33.09938211348336],[139.76921001183442,33.09938211348336],[139.75989306835572,33.101895823929624],[139.75368177270326,33.1044095343759],[139.75368177270326,33.111950665714716],[139.7474704770508,33.11949179705353],[139.7412591813983,33.12954663883861],[139.73815353357207,33.14462890151624],[139.74436482922454,33.152170032855054],[139.7474704770508,33.15468374330133],[139.7474704770508,33.1571974537476],[139.7567874205295,33.15971116419387],[139.76610436400819,33.1571974537476],[139.77231565966065,33.1571974537476],[139.78163260313937,33.152170032855054],[139.7940551944443,33.14211519106997],[139.79716084227053,33.13457405973116],[139.803372137923,33.132060349284885],[139.80647778574922,33.12954663883861],[139.803372137923,33.132060349284885],[139.80647778574922,33.12954663883861],[139.80647778574922,33.132060349284885],[139.8126890814017,33.12703292839234],[139.81890037705418,33.1220055074998],[139.81890037705418,33.11949179705353],[139.82821732053287,33.116978086607254],[139.83442861618533,33.116978086607254],[139.8406399118378,33.116978086607254],[139.84685120749026,33.116978086607254],[139.84995685531652,33.10943695526844],[139.85616815096898,33.09938211348336],[139.85306250314275,33.09435469259081],[139.85616815096898,33.086813561252],[139.85927379879521,33.08429985080573],[139.85927379879521,33.07927242991318],[139.84995685531652,33.07675871946691],[139.84685120749026,33.07675871946691],[139.8406399118378,33.07424500902064],[139.83442861618533,33.066703877681825],[139.83442861618533,33.05664903589674],[139.83753426401157,33.051621615004194],[139.83442861618533,33.046594194111655],[139.8313229683591,33.046594194111655]]],[[[139.70088575965727,33.116978086607254],[139.69778011183104,33.116978086607254],[139.68846316835234,33.116978086607254],[139.6853575205261,33.116978086607254],[139.6760405770474,33.12954663883861],[139.6760405770474,33.132060349284885],[139.6760405770474,33.13457405973116],[139.67914622487365,33.13457405973116],[139.68225187269988,33.13708777017743],[139.6853575205261,33.13708777017743],[139.68846316835234,33.132060349284885],[139.6946744640048,33.12954663883861],[139.70088575965727,33.116978086607254]]],[[[139.76921001183442,32.44078997656021],[139.75989306835572,32.44581739745276],[139.7567874205295,32.44833110789902],[139.75368177270326,32.4684407914692],[139.7567874205295,32.47346821236174],[139.76921001183442,32.4684407914692],[139.7785269553131,32.46089966013038],[139.7785269553131,32.458385949684114],[139.78163260313937,32.44833110789902],[139.76921001183442,32.44078997656021]]],[[[140.05182396402174,31.437819508497867],[140.0487183161955,31.44033321894414],[140.05182396402174,31.44033321894414],[140.05182396402174,31.437819508497867]]],[[[140.29717014229422,30.472554697129596],[140.28785319881553,30.48260953891468],[140.29095884664176,30.492664380699765],[140.29717014229422,30.495178091146038],[140.30338143794668,30.495178091146038],[140.3126983814254,30.490150670253495],[140.3126983814254,30.485123249360953],[140.30959273359917,30.47506840757587],[140.29717014229422,30.472554697129596]]],[[[142.10155152933626,27.715014337569713],[142.09844588151003,27.717528048015986],[142.09844588151003,27.72004175846226],[142.10155152933626,27.717528048015986],[142.10155152933626,27.715014337569713]]],[[[142.11086847281496,27.715014337569713],[142.10776282498873,27.715014337569713],[142.10776282498873,27.717528048015986],[142.11086847281496,27.715014337569713]]],[[[142.14503059890353,27.669767549536825],[142.1419249510773,27.672281259983098],[142.13881930325107,27.672281259983098],[142.13881930325107,27.67730868087564],[142.13571365542484,27.679822391321913],[142.1326080075986,27.679822391321913],[142.1326080075986,27.67730868087564],[142.12950235977235,27.679822391321913],[142.12639671194614,27.682336101768186],[142.12329106411988,27.682336101768186],[142.12639671194614,27.684849812214456],[142.12950235977235,27.687363522660725],[142.1326080075986,27.687363522660725],[142.1326080075986,27.684849812214456],[142.13571365542484,27.684849812214456],[142.13881930325107,27.684849812214456],[142.13881930325107,27.687363522660725],[142.1419249510773,27.687363522660725],[142.14813624672976,27.684849812214456],[142.14813624672976,27.674794970429367],[142.14503059890353,27.669767549536825]]],[[[142.12639671194614,27.67730868087564],[142.12329106411988,27.67730868087564],[142.12639671194614,27.679822391321913],[142.12639671194614,27.67730868087564]]],[[[142.16055883803472,27.6546852868592],[142.15745319020846,27.6546852868592],[142.15745319020846,27.65971270775174],[142.15745319020846,27.66222641819801],[142.16055883803472,27.6546852868592]]],[[[142.18540402064457,27.619493340611395],[142.18229837281834,27.62200705105767],[142.1791927249921,27.624520761503938],[142.17608707716587,27.62200705105767],[142.17298142933964,27.624520761503938],[142.17298142933964,27.62703447195021],[142.1698757815134,27.632061892842753],[142.17298142933964,27.632061892842753],[142.17298142933964,27.634575603289026],[142.17608707716587,27.632061892842753],[142.1791927249921,27.629548182396483],[142.18229837281834,27.629548182396483],[142.18540402064457,27.62200705105767],[142.18540402064457,27.619493340611395]]],[[[142.21335485108068,27.488780397405275],[142.21335485108068,27.493807818297817],[142.21024920325445,27.493807818297817],[142.20714355542822,27.49632152874409],[142.204037907602,27.498835239190363],[142.20714355542822,27.498835239190363],[142.21024920325445,27.501348949636633],[142.21335485108068,27.498835239190363],[142.21335485108068,27.493807818297817],[142.2164604989069,27.491294107851548],[142.2164604989069,27.488780397405275],[142.21335485108068,27.488780397405275]]],[[[142.20714355542822,27.486266686959006],[142.20714355542822,27.488780397405275],[142.21024920325445,27.486266686959006],[142.20714355542822,27.486266686959006]]],[[[140.87792628580002,27.242436773670665],[140.87171499014755,27.244950484116934],[140.87482063797378,27.24997790500948],[140.87792628580002,27.247464194563207],[140.87792628580002,27.242436773670665]]],[[[142.1947209641233,27.19216256474523],[142.1947209641233,27.194676275191505],[142.19782661194952,27.194676275191505],[142.19782661194952,27.19216256474523],[142.1947209641233,27.19216256474523]]],[[[142.1885096684708,27.144402066266075],[142.18229837281834,27.144402066266075],[142.1791927249921,27.146915776712348],[142.18229837281834,27.149429487158617],[142.18540402064457,27.149429487158617],[142.18540402064457,27.15445690805116],[142.18229837281834,27.156970618497432],[142.18540402064457,27.161998039389974],[142.18540402064457,27.16953917072879],[142.1885096684708,27.172052881175063],[142.18540402064457,27.177080302067605],[142.18540402064457,27.179594012513874],[142.1885096684708,27.18462143340642],[142.18540402064457,27.18713514385269],[142.1885096684708,27.18713514385269],[142.1947209641233,27.18462143340642],[142.1947209641233,27.182107722960147],[142.19782661194952,27.182107722960147],[142.20093225977575,27.182107722960147],[142.19782661194952,27.179594012513874],[142.1947209641233,27.174566591621332],[142.19782661194952,27.16953917072879],[142.19782661194952,27.167025460282517],[142.20093225977575,27.16953917072879],[142.20093225977575,27.164511749836247],[142.20093225977575,27.161998039389974],[142.19782661194952,27.156970618497432],[142.19161531629703,27.149429487158617],[142.1885096684708,27.149429487158617],[142.1885096684708,27.144402066266075]]],[[[142.21956614673314,27.109210120018272],[142.21024920325445,27.109210120018272],[142.204037907602,27.109210120018272],[142.20093225977575,27.109210120018272],[142.20093225977575,27.111723830464545],[142.204037907602,27.114237540910814],[142.204037907602,27.116751251357087],[142.20093225977575,27.11926496180336],[142.1947209641233,27.12177867224963],[142.19161531629703,27.12177867224963],[142.1885096684708,27.11926496180336],[142.1885096684708,27.12177867224963],[142.1885096684708,27.124292382695902],[142.1885096684708,27.129319803588444],[142.19161531629703,27.131833514034717],[142.19161531629703,27.134347224480987],[142.1885096684708,27.13686093492726],[142.19161531629703,27.141888355819802],[142.1947209641233,27.13937464537353],[142.1947209641233,27.13686093492726],[142.20093225977575,27.131833514034717],[142.204037907602,27.134347224480987],[142.20714355542822,27.134347224480987],[142.204037907602,27.12680609314217],[142.20714355542822,27.129319803588444],[142.2164604989069,27.131833514034717],[142.21956614673314,27.131833514034717],[142.21956614673314,27.129319803588444],[142.21956614673314,27.12680609314217],[142.22267179455937,27.12177867224963],[142.2257774423856,27.124292382695902],[142.2257774423856,27.11926496180336],[142.2257774423856,27.116751251357087],[142.22888309021187,27.114237540910814],[142.2319887380381,27.114237540910814],[142.23509438586433,27.114237540910814],[142.23509438586433,27.109210120018272],[142.2257774423856,27.109210120018272],[142.22267179455937,27.109210120018272],[142.21956614673314,27.109210120018272]]],[[[142.18229837281834,27.12680609314217],[142.17608707716587,27.12680609314217],[142.1791927249921,27.129319803588444],[142.18229837281834,27.12680609314217]]],[[[142.16366448586095,27.111723830464545],[142.16055883803472,27.114237540910814],[142.16366448586095,27.114237540910814],[142.16366448586095,27.11926496180336],[142.16677013368718,27.11926496180336],[142.1698757815134,27.11926496180336],[142.17298142933964,27.116751251357087],[142.16677013368718,27.114237540910814],[142.16366448586095,27.111723830464545]]],[[[142.21956614673314,27.036312517076396],[142.21956614673314,27.03882622752267],[142.21956614673314,27.041339937968942],[142.2164604989069,27.03882622752267],[142.21335485108068,27.03882622752267],[142.21024920325445,27.03882622752267],[142.20714355542822,27.041339937968942],[142.19782661194952,27.04385364841521],[142.1947209641233,27.041339937968942],[142.1885096684708,27.04385364841521],[142.18540402064457,27.041339937968942],[142.18540402064457,27.046367358861485],[142.1885096684708,27.046367358861485],[142.1885096684708,27.0539084902003],[142.1885096684708,27.06144962153911],[142.19161531629703,27.058935911092842],[142.1947209641233,27.058935911092842],[142.1947209641233,27.06144962153911],[142.19161531629703,27.063963331985384],[142.19161531629703,27.066477042431657],[142.1885096684708,27.066477042431657],[142.1885096684708,27.06899075287793],[142.18229837281834,27.06899075287793],[142.18229837281834,27.07401817377047],[142.18540402064457,27.07401817377047],[142.18540402064457,27.0715044633242],[142.19161531629703,27.07401817377047],[142.1947209641233,27.07401817377047],[142.19782661194952,27.07401817377047],[142.20093225977575,27.0715044633242],[142.204037907602,27.0715044633242],[142.204037907602,27.07653188421674],[142.20714355542822,27.079045594663015],[142.20714355542822,27.084073015555557],[142.204037907602,27.084073015555557],[142.20093225977575,27.08658672600183],[142.204037907602,27.094127857340645],[142.204037907602,27.096641567786914],[142.20093225977575,27.099155278233187],[142.19782661194952,27.096641567786914],[142.1947209641233,27.094127857340645],[142.19161531629703,27.091614146894372],[142.19161531629703,27.0891004364481],[142.1885096684708,27.08658672600183],[142.18540402064457,27.0891004364481],[142.18229837281834,27.091614146894372],[142.18229837281834,27.094127857340645],[142.18229837281834,27.099155278233187],[142.18540402064457,27.10418269912573],[142.1885096684708,27.10418269912573],[142.19161531629703,27.10418269912573],[142.1947209641233,27.10418269912573],[142.19782661194952,27.10418269912573],[142.204037907602,27.10418269912573],[142.20714355542822,27.101668988679457],[142.21024920325445,27.101668988679457],[142.21335485108068,27.099155278233187],[142.2164604989069,27.099155278233187],[142.21956614673314,27.094127857340645],[142.22267179455937,27.091614146894372],[142.2257774423856,27.08658672600183],[142.22267179455937,27.08658672600183],[142.2257774423856,27.081559305109288],[142.22888309021187,27.081559305109288],[142.2319887380381,27.07653188421674],[142.2319887380381,27.0715044633242],[142.2319887380381,27.063963331985384],[142.2319887380381,27.058935911092842],[142.2319887380381,27.05642220064657],[142.23820003369056,27.0539084902003],[142.23509438586433,27.048881069307754],[142.23820003369056,27.048881069307754],[142.2319887380381,27.048881069307754],[142.2319887380381,27.051394779754027],[142.22888309021187,27.05642220064657],[142.2257774423856,27.0539084902003],[142.22267179455937,27.0539084902003],[142.2257774423856,27.051394779754027],[142.2257774423856,27.04385364841521],[142.22267179455937,27.046367358861485],[142.22267179455937,27.041339937968942],[142.2257774423856,27.041339937968942],[142.2257774423856,27.03882622752267],[142.22888309021187,27.036312517076396],[142.21956614673314,27.036312517076396]]],[[[142.24751697716925,27.0891004364481],[142.2413056815168,27.094127857340645],[142.24441132934302,27.094127857340645],[142.24751697716925,27.094127857340645],[142.24751697716925,27.091614146894372],[142.24751697716925,27.0891004364481]]],[[[142.17608707716587,27.031285096183854],[142.17298142933964,27.03882622752267],[142.17298142933964,27.04385364841521],[142.17608707716587,27.033798806630127],[142.17608707716587,27.036312517076396],[142.17608707716587,27.031285096183854]]],[[[142.1791927249921,26.606468030763963],[142.17608707716587,26.608981741210236],[142.17298142933964,26.606468030763963],[142.1791927249921,26.61400916210278],[142.17608707716587,26.621550293441594],[142.17608707716587,26.624064003887867],[142.1698757815134,26.63160513522668],[142.16366448586095,26.62909142478041],[142.16055883803472,26.639146266565493],[142.15745319020846,26.636632556119224],[142.15434754238223,26.63411884567295],[142.151241894556,26.644173687458036],[142.151241894556,26.64668739790431],[142.14813624672976,26.65171481879685],[142.14813624672976,26.654228529243124],[142.14503059890353,26.654228529243124],[142.14813624672976,26.66176966058194],[142.14813624672976,26.66679708147448],[142.1419249510773,26.664283371028212],[142.1419249510773,26.66679708147448],[142.14503059890353,26.669310791920754],[142.14503059890353,26.674338212813296],[142.1419249510773,26.67685192325957],[142.13571365542484,26.68187934415211],[142.1326080075986,26.686906765044654],[142.12950235977235,26.69696160682974],[142.12329106411988,26.704502738168554],[142.12329106411988,26.709530159061096],[142.12329106411988,26.71455757995364],[142.12950235977235,26.709530159061096],[142.12950235977235,26.707016448614826],[142.1326080075986,26.701989027722284],[142.1326080075986,26.69947531727601],[142.13571365542484,26.69947531727601],[142.13881930325107,26.69947531727601],[142.1419249510773,26.69696160682974],[142.1419249510773,26.707016448614826],[142.1419249510773,26.704502738168554],[142.14813624672976,26.707016448614826],[142.151241894556,26.704502738168554],[142.15434754238223,26.707016448614826],[142.15745319020846,26.701989027722284],[142.16055883803472,26.701989027722284],[142.16366448586095,26.701989027722284],[142.16366448586095,26.69947531727601],[142.16055883803472,26.69947531727601],[142.15434754238223,26.69696160682974],[142.151241894556,26.69444789638347],[142.14503059890353,26.691934185937196],[142.14503059890353,26.68439305459838],[142.14813624672976,26.68187934415211],[142.16055883803472,26.686906765044654],[142.16366448586095,26.686906765044654],[142.16677013368718,26.689420475490927],[142.16677013368718,26.68187934415211],[142.16055883803472,26.674338212813296],[142.16366448586095,26.669310791920754],[142.16366448586095,26.66176966058194],[142.16677013368718,26.656742239689393],[142.17298142933964,26.654228529243124],[142.17608707716587,26.654228529243124],[142.18229837281834,26.656742239689393],[142.18229837281834,26.659255950135666],[142.18540402064457,26.659255950135666],[142.1885096684708,26.659255950135666],[142.1885096684708,26.654228529243124],[142.18540402064457,26.654228529243124],[142.18229837281834,26.65171481879685],[142.17608707716587,26.654228529243124],[142.17298142933964,26.64920110835058],[142.17298142933964,26.644173687458036],[142.17298142933964,26.636632556119224],[142.17608707716587,26.63160513522668],[142.18229837281834,26.626577714334136],[142.18229837281834,26.621550293441594],[142.18229837281834,26.61149545165651],[142.1791927249921,26.608981741210236],[142.1791927249921,26.606468030763963]]],[[[142.12950235977235,26.593899478532606],[142.12950235977235,26.59641318897888],[142.12639671194614,26.593899478532606],[142.12639671194614,26.59892689942515],[142.12329106411988,26.603954320317694],[142.12329106411988,26.606468030763963],[142.12639671194614,26.608981741210236],[142.12950235977235,26.608981741210236],[142.1326080075986,26.608981741210236],[142.13571365542484,26.59892689942515],[142.1326080075986,26.593899478532606],[142.12950235977235,26.593899478532606]]],[[[142.14813624672976,26.58133092630125],[142.14813624672976,26.58384463674752],[142.151241894556,26.58384463674752],[142.15434754238223,26.58635834719379],[142.15745319020846,26.58635834719379],[142.16055883803472,26.58635834719379],[142.16055883803472,26.58384463674752],[142.15745319020846,26.58384463674752],[142.151241894556,26.58133092630125],[142.14813624672976,26.58133092630125]]],[[[142.22888309021187,26.56373495317735],[142.2257774423856,26.56373495317735],[142.22888309021187,26.566248663623618],[142.2257774423856,26.56876237406989],[142.22888309021187,26.573789794962433],[142.2319887380381,26.571276084516164],[142.23820003369056,26.56876237406989],[142.23820003369056,26.566248663623618],[142.2319887380381,26.566248663623618],[142.22888309021187,26.56373495317735]]],[[[142.15745319020846,26.541111559160903],[142.151241894556,26.54613898005345],[142.15434754238223,26.54865269049972],[142.15434754238223,26.55368011139226],[142.151241894556,26.558707532284807],[142.151241894556,26.561221242731076],[142.15434754238223,26.56373495317735],[142.15745319020846,26.561221242731076],[142.16055883803472,26.561221242731076],[142.16055883803472,26.55368011139226],[142.16055883803472,26.54865269049972],[142.15745319020846,26.54613898005345],[142.15745319020846,26.541111559160903]]],[[[142.20093225977575,26.55116640094599],[142.204037907602,26.556193821838534],[142.204037907602,26.561221242731076],[142.21024920325445,26.56373495317735],[142.2164604989069,26.561221242731076],[142.2164604989069,26.558707532284807],[142.21335485108068,26.556193821838534],[142.21024920325445,26.55368011139226],[142.20714355542822,26.55368011139226],[142.204037907602,26.55368011139226],[142.20093225977575,26.55116640094599]]],[[[141.27855485538421,25.417482989677524],[141.27544920755798,25.419996700123797],[141.27234355973175,25.42502412101634],[141.27234355973175,25.44010638369397],[141.28166050321045,25.447647515032784],[141.2878717988629,25.447647515032784],[141.29097744668914,25.4375926732477],[141.29408309451537,25.42502412101634],[141.2878717988629,25.419996700123797],[141.27855485538421,25.417482989677524]]],[[[141.28476615103668,24.746322300523023],[141.28476615103668,24.748836010969296],[141.29097744668914,24.763918273646926],[141.29408309451537,24.779000536324553],[141.29097744668914,24.786541667663368],[141.2878717988629,24.786541667663368],[141.28476615103668,24.786541667663368],[141.2878717988629,24.78905537810964],[141.2971887423416,24.796596509448456],[141.3127169814728,24.804137640787268],[141.31892827712525,24.80665135123354],[141.32203392495148,24.811678772126083],[141.32513957277772,24.811678772126083],[141.32824522060395,24.811678772126083],[141.33756216408267,24.801623930340998],[141.34687910756136,24.781514246770826],[141.34377345973513,24.776486825878283],[141.33756216408267,24.77145940498574],[141.32513957277772,24.77145940498574],[141.31892827712525,24.766431984093195],[141.2971887423416,24.753863431861838],[141.29097744668914,24.746322300523023],[141.28476615103668,24.746322300523023]]],[[[153.98686576033427,24.28128586796279],[153.98376011250804,24.28128586796279],[153.97754881685557,24.28379957840906],[153.97133752120308,24.28379957840906],[153.9744431690293,24.288826999301605],[153.97754881685557,24.291340709747875],[153.9806544646818,24.293854420194148],[153.98376011250804,24.296368130640417],[153.98376011250804,24.29888184108669],[153.98376011250804,24.296368130640417],[153.98376011250804,24.293854420194148],[153.98376011250804,24.291340709747875],[153.98686576033427,24.28128586796279]]],[[[141.45868242930578,24.225984238144814],[141.45557678147955,24.225984238144814],[141.45247113365332,24.228497948591087],[141.45247113365332,24.23352536948363],[141.45247113365332,24.236039079929903],[141.45557678147955,24.238552790376172],[141.45557678147955,24.241066500822445],[141.45868242930578,24.246093921714987],[141.461788077132,24.246093921714987],[141.47110502061074,24.241066500822445],[141.47421066843697,24.241066500822445],[141.47421066843697,24.238552790376172],[141.47110502061074,24.23352536948363],[141.4679993727845,24.228497948591087],[141.46489372495824,24.225984238144814],[141.45868242930578,24.225984238144814]]],[[[139.30025719007307,33.65239841166309],[139.30025719007307,33.64988470121682],[139.29715154224684,33.65239841166309],[139.30025719007307,33.65239841166309]]],[[[142.1139741206412,27.7426651524787],[142.11707976846742,27.7426651524787],[142.11707976846742,27.740151442032428],[142.1139741206412,27.740151442032428],[142.1139741206412,27.7426651524787]]],[[[141.28476615103668,24.80665135123354],[141.2878717988629,24.80665135123354],[141.28476615103668,24.796596509448456],[141.28476615103668,24.80665135123354]]]]}}]}
