{"type":"FeatureCollection","features":[{"type":"Feature","properties":{"name":"Yamanashi"},"geometry":{"type":"Polygon","coordinates":[[[138.728817990046,35.90971039241494],[138.73502928569846,35.90468297152239],[138.74124058135092,35.90468297152239],[138.74745187700339,35.902169261076125],[138.75055752482962,35.902169261076125],[138.7567688204821,35.902169261076125],[138.7660857639608,35.89965555062985],[138.77850835526573,35.89965555062985],[138.79093094657068,35.89211441929103],[138.79093094657068,35.879545867059676],[138.7940365943969,35.87451844616714],[138.8033535378756,35.86949102527459],[138.80956483352807,35.86949102527459],[138.8126704813543,35.86194989393578],[138.81888177700677,35.86446360438205],[138.83130436831172,35.86446360438205],[138.83130436831172,35.86194989393578],[138.84372695961665,35.86697731482832],[138.84683260744288,35.86697731482832],[138.8561495509216,35.86446360438205],[138.85925519874783,35.856922473043234],[138.86236084657406,35.85943618348951],[138.8654664944003,35.85943618348951],[138.87167779005276,35.85440876259696],[138.88099473353145,35.84686763125815],[138.88720602918394,35.84686763125815],[138.8934173248364,35.83932649991934],[138.89962862048887,35.84686763125815],[138.90894556396756,35.851895052150695],[138.91515685962003,35.851895052150695],[138.92757945092498,35.84938134170442],[138.93379074657744,35.851895052150695],[138.94310769005614,35.85440876259696],[138.9493189857086,35.84938134170442],[138.9493189857086,35.8418402103656],[138.95242463353486,35.836812789473065],[138.9648472248398,35.829271658134246],[138.97105852049225,35.83178536858052],[138.97105852049225,35.81670310590289],[138.97105852049225,35.81167568501035],[138.97105852049225,35.80413455367153],[138.97416416831848,35.79659342233272],[138.9772698161447,35.791566001440174],[138.9772698161447,35.78905229099391],[138.98348111179718,35.78402487010136],[138.98658675962344,35.778997449208816],[138.98348111179718,35.76894260742373],[138.9927980552759,35.756374055192374],[138.99590370310213,35.7538603447461],[138.99590370310213,35.75134663429983],[139.0021149987546,35.75134663429983],[139.00522064658082,35.748832923853556],[139.0114319422333,35.73877808206847],[139.020748885712,35.72872324028339],[139.02696018136447,35.7186683984983],[139.03317147701694,35.71615468805203],[139.04559406832186,35.70861355671322],[139.04869971614812,35.70861355671322],[139.05491101180058,35.70358613582067],[139.06422795527928,35.7010724253744],[139.0673336031055,35.698558714928126],[139.07043925093174,35.69604500448186],[139.07354489875797,35.69604500448186],[139.0828618422367,35.69353129403559],[139.0921787857154,35.691017583589314],[139.10149572919408,35.691017583589314],[139.10770702484655,35.68850387314304],[139.113918320499,35.6834764522505],[139.12323526397773,35.67844903135796],[139.1294465596302,35.67342161046541],[139.13255220745643,35.670907900019145],[139.1294465596302,35.670907900019145],[139.1294465596302,35.66839418957287],[139.12323526397773,35.663366768680326],[139.12323526397773,35.66085305823405],[139.1201296161515,35.65833934778779],[139.11702396832527,35.65331192689524],[139.12323526397773,35.648284506002696],[139.12634091180396,35.64325708511016],[139.12634091180396,35.640743374663884],[139.12323526397773,35.63320224332507],[139.12323526397773,35.62314740153998],[139.12634091180396,35.62314740153998],[139.13255220745643,35.618119980647435],[139.13565785528266,35.61560627020117],[139.1294465596302,35.6130925597549],[139.13255220745643,35.60806513886235],[139.1294465596302,35.59298287618472],[139.12323526397773,35.590469165738455],[139.12323526397773,35.58795545529218],[139.1201296161515,35.58544174484591],[139.12323526397773,35.58544174484591],[139.12323526397773,35.582928034399636],[139.12634091180396,35.582928034399636],[139.12323526397773,35.582928034399636],[139.12634091180396,35.58041432395336],[139.1294465596302,35.57035948216828],[139.1294465596302,35.56281835082947],[139.12323526397773,35.55779092993692],[139.113918320499,35.55276350904438],[139.11081267267278,35.55024979859811],[139.113918320499,35.54773608815184],[139.113918320499,35.540194956813025],[139.113918320499,35.53768124636675],[139.10770702484655,35.532653825474206],[139.10149572919408,35.525112694135395],[139.0921787857154,35.52008527324285],[139.08596749006293,35.51254414190404],[139.07975619441044,35.51254414190404],[139.07354489875797,35.510030431457764],[139.0673336031055,35.510030431457764],[139.06112230745305,35.50751672101149],[139.05180536397432,35.510030431457764],[139.04559406832186,35.510030431457764],[139.04559406832186,35.50248930011895],[139.04248842049563,35.49746187922641],[139.03627712484317,35.489920747887595],[139.0300658291907,35.487407037441315],[139.02696018136447,35.4798659061025],[139.02385453353824,35.4798659061025],[139.020748885712,35.4798659061025],[139.01764323788575,35.4798659061025],[139.01453759005952,35.4798659061025],[139.00832629440706,35.47483848520996],[139.00522064658082,35.47483848520996],[139.0021149987546,35.47483848520996],[138.99900935092836,35.47483848520996],[138.99590370310213,35.47483848520996],[138.98969240744967,35.47483848520996],[138.98658675962344,35.46981106431742],[138.9772698161447,35.46478364342487],[138.97416416831848,35.467297353871146],[138.96795287266602,35.46478364342487],[138.9648472248398,35.46478364342487],[138.9555302813611,35.459756222532334],[138.93689639440368,35.44970138074724],[138.93689639440368,35.444673959854704],[138.92757945092498,35.437132828515885],[138.92757945092498,35.429591697177074],[138.9306850987512,35.42456427628453],[138.9306850987512,35.42205056583826],[138.92757945092498,35.41953685539199],[138.92447380309875,35.41450943449944],[138.9182625074463,35.409482013606905],[138.91515685962003,35.39942717182181],[138.9120512117938,35.39942717182181],[138.90583991614133,35.39691346137555],[138.89962862048887,35.391886040483],[138.8934173248364,35.391886040483],[138.88720602918394,35.386858619590456],[138.88099473353145,35.386858619590456],[138.87167779005276,35.38183119869792],[138.86236084657406,35.38937233003673],[138.8561495509216,35.386858619590456],[138.85304390309537,35.38937233003673],[138.84683260744288,35.38937233003673],[138.83441001613795,35.38434490914419],[138.83130436831172,35.379317488251644],[138.82198742483303,35.3742900673591],[138.81888177700677,35.37680377780537],[138.8033535378756,35.37680377780537],[138.78782529874445,35.3742900673591],[138.74745187700339,35.36674893602029],[138.728817990046,35.364235225574014],[138.72571234221977,35.364235225574014],[138.71639539874104,35.364235225574014],[138.70086715960988,35.36172151512774],[138.69776151178365,35.359207804681475],[138.67912762482624,35.356694094235195],[138.66981068134754,35.391886040483],[138.66359938569508,35.39942717182181],[138.6387542030852,35.39942717182181],[138.62322596395404,35.394399750929274],[138.6108033726491,35.394399750929274],[138.6014864291704,35.41953685539199],[138.59838078134416,35.429591697177074],[138.59527513351793,35.43461911806962],[138.58906383786547,35.437132828515885],[138.58285254221298,35.444673959854704],[138.5766412465605,35.44216024940843],[138.57353559873428,35.43964653896216],[138.56732430308182,35.437132828515885],[138.55800735960312,35.43461911806962],[138.55800735960312,35.4270779867308],[138.5486904161244,35.41953685539199],[138.54558476829817,35.417023144945716],[138.54247912047194,35.41450943449944],[138.53316217699324,35.409482013606905],[138.53316217699324,35.40696830316063],[138.53316217699324,35.39691346137555],[138.53626782481948,35.38937233003673],[138.52695088134078,35.379317488251644],[138.530056529167,35.37680377780537],[138.530056529167,35.359207804681475],[138.530056529167,35.34915296289638],[138.53316217699324,35.34412554200384],[138.53316217699324,35.336584410665026],[138.53626782481948,35.33155698977248],[138.530056529167,35.32652956887994],[138.52695088134078,35.32401585843367],[138.5114226422096,35.313961016648584],[138.51452829003583,35.3039061748635],[138.51763393786206,35.29636504352468],[138.52073958568832,35.286310201739596],[138.52073958568832,35.27374164950824],[138.51763393786206,35.26871422861569],[138.51452829003583,35.263686807723154],[138.52073958568832,35.25363196593807],[138.52073958568832,35.2511182554918],[138.52695088134078,35.236035992814166],[138.530056529167,35.23100857192162],[138.53316217699324,35.22346744058281],[138.52695088134078,35.215926309244],[138.530056529167,35.21089888835145],[138.53316217699324,35.20084404656636],[138.530056529167,35.198330336120094],[138.52384523351455,35.198330336120094],[138.52073958568832,35.198330336120094],[138.51763393786206,35.198330336120094],[138.51452829003583,35.19581662567382],[138.51763393786206,35.19581662567382],[138.51452829003583,35.19330291522755],[138.51452829003583,35.190789204781275],[138.50831699438336,35.185761783888736],[138.5021056987309,35.17822065254992],[138.49589440307844,35.175706942103645],[138.49589440307844,35.17319323165738],[138.4927887552522,35.170679521211106],[138.4927887552522,35.16816581076483],[138.48657745959972,35.170679521211106],[138.48657745959972,35.17319323165738],[138.48347181177348,35.17319323165738],[138.47726051612102,35.17822065254992],[138.47104922046856,35.175706942103645],[138.46173227698986,35.17822065254992],[138.45862662916363,35.17822065254992],[138.44309839003245,35.17822065254992],[138.43999274220621,35.17822065254992],[138.43067579872752,35.18073436299619],[138.41825320742257,35.198330336120094],[138.40893626394387,35.20335775701263],[138.39961932046518,35.20084404656636],[138.39651367263895,35.205871467458905],[138.39340802481271,35.215926309244],[138.39030237698648,35.22346744058281],[138.38719672916022,35.236035992814166],[138.38719672916022,35.24609083459925],[138.38098543350776,35.25363196593807],[138.37787978568153,35.25363196593807],[138.37166849002907,35.26620051816943],[138.36856284220283,35.26871422861569],[138.36856284220283,35.271227939061966],[138.36856284220283,35.278769070400784],[138.3654571943766,35.28882391218587],[138.37166849002907,35.29887875397095],[138.37166849002907,35.301392464417226],[138.3654571943766,35.31144730620231],[138.35924589872414,35.313961016648584],[138.35924589872414,35.31647472709486],[138.35303460307165,35.31647472709486],[138.34682330741919,35.31647472709486],[138.33440071611426,35.32652956887994],[138.3281894204618,35.32652956887994],[138.31887247698307,35.32401585843367],[138.30955553350438,35.31898843754112],[138.29713294219945,35.31647472709486],[138.29402729437322,35.313961016648584],[138.2847103508945,35.3039061748635],[138.27849905524204,35.306419885309765],[138.27228775958957,35.313961016648584],[138.25986516828465,35.313961016648584],[138.2567595204584,35.31898843754112],[138.25365387263216,35.32401585843367],[138.25365387263216,35.32652956887994],[138.25054822480593,35.329043279326214],[138.2474425769797,35.33155698977248],[138.25365387263216,35.336584410665026],[138.2567595204584,35.3390981211113],[138.2567595204584,35.34161183155757],[138.25365387263216,35.34915296289638],[138.25365387263216,35.351666673342656],[138.25054822480593,35.36172151512774],[138.2474425769797,35.36674893602029],[138.24433692915346,35.36674893602029],[138.24123128132723,35.36674893602029],[138.23191433784854,35.37177635691283],[138.23191433784854,35.37680377780537],[138.238125633501,35.386858619590456],[138.24433692915346,35.38937233003673],[138.2474425769797,35.394399750929274],[138.2474425769797,35.39691346137555],[138.2474425769797,35.39942717182181],[138.2567595204584,35.40696830316063],[138.25986516828465,35.41953685539199],[138.25986516828465,35.4270779867308],[138.2567595204584,35.437132828515885],[138.2567595204584,35.444673959854704],[138.25054822480593,35.44718767030098],[138.2474425769797,35.44970138074724],[138.24433692915346,35.45472880163979],[138.2474425769797,35.4622699329786],[138.25365387263216,35.46478364342487],[138.2567595204584,35.47483848520996],[138.25986516828465,35.50248930011895],[138.25986516828465,35.50500301056522],[138.26918211176334,35.51254414190404],[138.26918211176334,35.51505785235031],[138.26297081611088,35.525112694135395],[138.26297081611088,35.52762640458167],[138.25986516828465,35.53014011502793],[138.25986516828465,35.53768124636675],[138.25986516828465,35.55276350904438],[138.25365387263216,35.55527721949065],[138.2474425769797,35.560304640383194],[138.24433692915346,35.56281835082947],[138.24433692915346,35.57035948216828],[138.24123128132723,35.57287319261455],[138.238125633501,35.582928034399636],[138.238125633501,35.58544174484591],[138.24433692915346,35.590469165738455],[138.24123128132723,35.60555142841608],[138.23501998567477,35.60555142841608],[138.23501998567477,35.6130925597549],[138.23501998567477,35.61560627020117],[138.238125633501,35.620633691093715],[138.2288086900223,35.625661111986254],[138.23191433784854,35.63822966421761],[138.2288086900223,35.64577079555643],[138.21949174654358,35.64325708511016],[138.21638609871735,35.64577079555643],[138.2101748030649,35.65331192689524],[138.20706915523866,35.66085305823405],[138.19775221175996,35.670907900019145],[138.19464656393373,35.670907900019145],[138.19464656393373,35.675935320911684],[138.1915409161075,35.68599016269677],[138.19464656393373,35.69604500448186],[138.18843526828124,35.70358613582067],[138.17911832480254,35.713640977605756],[138.185329620455,35.721182108944575],[138.19464656393373,35.726209529837114],[138.20396350741242,35.73375066117593],[138.21949174654358,35.74631921340729],[138.21949174654358,35.748832923853556],[138.22570304219607,35.7538603447461],[138.2288086900223,35.7538603447461],[138.23501998567477,35.756374055192374],[138.23501998567477,35.76140147608491],[138.22570304219607,35.76642889697746],[138.21949174654358,35.771456317870005],[138.21328045089112,35.77397002831628],[138.20706915523866,35.78151115965509],[138.2008578595862,35.78151115965509],[138.19464656393373,35.78402487010136],[138.185329620455,35.78905229099391],[138.185329620455,35.79407971188645],[138.1915409161075,35.80413455367153],[138.1915409161075,35.806648264117804],[138.19464656393373,35.806648264117804],[138.19775221175996,35.81167568501035],[138.2008578595862,35.81167568501035],[138.20396350741242,35.81418939545662],[138.20396350741242,35.82424423724171],[138.20396350741242,35.82675794768798],[138.21328045089112,35.836812789473065],[138.21328045089112,35.8418402103656],[138.21638609871735,35.84686763125815],[138.22570304219607,35.856922473043234],[138.23191433784854,35.872004735720864],[138.238125633501,35.88205957750595],[138.2474425769797,35.88457328795222],[138.2474425769797,35.887086998398495],[138.25986516828465,35.879545867059676],[138.2660764639371,35.872004735720864],[138.27849905524204,35.86194989393578],[138.2847103508945,35.85943618348951],[138.290921646547,35.86697731482832],[138.30644988567815,35.887086998398495],[138.32508377263557,35.902169261076125],[138.33440071611426,35.91976523420003],[138.3375063639405,35.922278944646294],[138.34061201176672,35.92479265509257],[138.34371765959295,35.92982007598511],[138.34371765959295,35.9398749177702],[138.3561402508979,35.94992975955528],[138.35924589872414,35.94992975955528],[138.35924589872414,35.9574708908941],[138.36235154655037,35.96249831178664],[138.36856284220283,35.967525732679185],[138.37166849002907,35.97003944312546],[138.37166849002907,35.972553153571724],[138.3747741378553,35.972553153571724],[138.37787978568153,35.972553153571724],[138.384091081334,35.97003944312546],[138.39961932046518,35.96501202223291],[138.41514755959633,35.959984601340366],[138.41825320742257,35.959984601340366],[138.43999274220621,35.952443470001555],[138.4493096856849,35.94490233866274],[138.45552098133737,35.9398749177702],[138.4493096856849,35.92982007598511],[138.4493096856849,35.92730636553884],[138.44620403785868,35.922278944646294],[138.44620403785868,35.91976523420003],[138.44620403785868,35.917251523753755],[138.44620403785868,35.91473781330748],[138.45552098133737,35.89965555062985],[138.45552098133737,35.902169261076125],[138.45862662916363,35.90468297152239],[138.47104922046856,35.89714184018358],[138.48036616394725,35.89965555062985],[138.48657745959972,35.89714184018358],[138.48968310742598,35.89714184018358],[138.49589440307844,35.902169261076125],[138.49589440307844,35.91222410286121],[138.49900005090467,35.91222410286121],[138.5021056987309,35.91222410286121],[138.50521134655713,35.91976523420003],[138.50831699438336,35.922278944646294],[138.5114226422096,35.922278944646294],[138.51763393786206,35.91976523420003],[138.52073958568832,35.91976523420003],[138.530056529167,35.91473781330748],[138.5393734726457,35.91473781330748],[138.54247912047194,35.91473781330748],[138.5486904161244,35.917251523753755],[138.5549017117769,35.91976523420003],[138.5549017117769,35.917251523753755],[138.5642186552556,35.917251523753755],[138.57042995090805,35.91473781330748],[138.5766412465605,35.91222410286121],[138.58285254221298,35.917251523753755],[138.58906383786547,35.917251523753755],[138.5921694856917,35.91976523420003],[138.59527513351793,35.917251523753755],[138.59838078134416,35.91473781330748],[138.6014864291704,35.91222410286121],[138.60459207699662,35.90971039241494],[138.6108033726491,35.90971039241494],[138.60769772482286,35.89714184018358],[138.60459207699662,35.89462812973731],[138.60769772482286,35.879545867059676],[138.6108033726491,35.87451844616714],[138.62012031612778,35.86949102527459],[138.62322596395404,35.86949102527459],[138.6294372596065,35.87451844616714],[138.63564855525897,35.86949102527459],[138.64185985091143,35.87451844616714],[138.6480711465639,35.87451844616714],[138.65738809004262,35.87703215661341],[138.66049373786885,35.87451844616714],[138.66359938569508,35.872004735720864],[138.66359938569508,35.87451844616714],[138.66981068134754,35.872004735720864],[138.676021977,35.86949102527459],[138.6853389204787,35.88960070884477],[138.6853389204787,35.89211441929103],[138.6915502161312,35.89462812973731],[138.69465586395742,35.89965555062985],[138.70086715960988,35.902169261076125],[138.70707845526235,35.90971039241494],[138.7132897509148,35.90971039241494],[138.7195010465673,35.90719668196867],[138.728817990046,35.90971039241494]]]}}]}
